wheelchair,longitude,latitude,accomm_type,name,city,State
yes,-122.1861757,47.767743,hotel,Country Inn & Suites,Bothell,Washington
yes,-119.0460879,35.3800003,hotel,"The Hourglass Hotel, Ascend Hotel Collection",Bakersfield,California
yes,-119.0421414,35.3846792,hotel,Red Lion Hotel Bakersfield,,California
yes,-84.3701971,39.2834795,hotel,DoubleTree Suites Hotel Cincinnati - Blue Ash,Sharonville,Ohio
yes,-117.4139969,47.6610843,hotel,DoubleTree by Hilton Hotel Spokane City Center,Spokane,Washington
yes,-83.3776846,33.9445738,hotel,University of Georgia Center for Continuing Education & Hotel,Athens,Georgia
yes,-77.0174095,38.7809265,hotel,Gaylord National Resort and Convention Center,National Harbor,Maryland
yes,-82.6823324,27.8929468,hotel,Red Roof,Clearwater,Florida
yes,-95.8666369,36.1671387,caravan_site,Mingo RV Park,,Oklahoma
yes,-94.9226438,39.3424339,hotel,Holiday Inn Express at Hoge Hall,Fort Leavenworth,Kansas
yes,-96.8401283,32.9451075,hotel,Crowne Plaza Dallas Near Galleria-Addison,Addison,Texas
yes,-71.2372003,42.0397787,hotel,Sonesta Select,Foxborough,Massachusetts
yes,-120.6523027,35.2869413,hotel,Quality Inn & Suites,San Luis Obispo,California
yes,-81.4296198,28.4051856,hotel,"The Ritz-Carlton Orlando, Grande Lakes",Orlando,Florida
yes,-71.0851509,42.3463574,hotel,Hilton Boston Back Bay,Boston,Massachusetts
yes,-82.1068901,39.3169805,hotel,Ohio University Inn & Conference Center,Athens,Ohio
yes,-88.8873452,30.3919841,hotel,Hard Rock Casino and Hotel,Biloxi,Mississippi
yes,-111.7897551,33.5835307,hotel,Sonesta Select Scottsdale at Mayo Clinic Campus,Scottsdale,Arizona
yes,-157.8307938,21.2781645,hotel,Halepuna Waikiki by Halekulani,,Hawaii
yes,-157.8253358,21.279956,hotel,White Sands Hotel,Honolulu,Hawaii
yes,-90.0634467,29.9473563,hotel,Hilton New Orleans Riverside,New Orleans,Louisiana
yes,-116.5441061,33.8460976,hotel,Margaritaville Resort Palm Springs,Palm Springs,California
yes,-76.6139466,39.2827216,hotel,The Royal Sonesta Harbor Court Baltimore,Baltimore,Maryland
yes,-123.8551255,47.9650399,camp_site,Sol Duc Campground,,Washington
yes,-83.2415943,42.658527,hotel,Sonesta Select,Auburn Hills,Michigan
yes,-97.6922084,30.5296015,hotel,La Quinta Inn & Suites by Wyndham Round Rock,Round Rock,Texas
yes,-122.4557408,38.2952369,hotel,The Cottage Inn & Spa,Sonoma,California
yes,-81.6948194,35.7203385,hotel,SureStay Hotel by Best Western,Morganton,North Carolina
yes,-121.8999223,36.6124346,hotel,Victorian Inn,Monterey,California
yes,-87.9883725,41.9858993,hotel,DoubleTree by Hilton Hotel Chicago Wood Dale - Elk Grove,Wood Dale,Illinois
limited,-86.1083213,39.9102338,hotel,TownePlace Suites,Indianapolis,Indiana
yes,-114.5733989,35.1537813,hotel,Golden Nugget Laughlin,,Nevada
yes,-120.6781711,35.2634743,hotel,BEST WESTERN PLUS Royal Oak Hotel,,California
yes,-120.6748201,35.2591604,hotel,Embassy Suites by Hilton San Luis Obispo,,California
yes,-120.6854342,35.2438938,hotel,Courtyard San Luis Obispo,San Luis Obispo,California
yes,-108.6418341,39.1105244,hotel,Red Roof Inn,Grand Junction,Colorado
yes,-81.4723225,28.4542424,hotel,Coco Key Hotel and Water Park Resort,Orlando,Florida
yes,-81.472351,28.4520944,hotel,Rosen Inn International,Orlando,Florida
yes,-89.603392,39.7881177,hotel,Red Roof Inn Springfield,,Illinois
yes,-118.3778696,34.0842312,hotel,Le Parc at Melrose,West Hollywood,California
limited,-118.4866933,34.2021052,hotel,Airtel Plaza Hotel,Van Nuys,California
yes,-80.2409872,25.7286363,hotel,Mayfair House Hotel & Garden,Miami,Florida
yes,-122.4044219,37.7853815,hotel,San Francisco Marriott Marquis,San Francisco,California
yes,-119.9452756,38.9579867,hostel,Mellow Mountain Hostel,South Lake Tahoe,California
yes,-79.9322336,32.782566,hotel,The Ryder Hotel,Charleston,South Carolina
limited,-82.3154021,35.6210897,hotel,Super 8 by Wyndham Black Mountain,Black Mountain,North Carolina
yes,-87.2874681,36.5973917,hotel,Farfield Inn & Suites Clarksville,Clarksville,Tennessee
yes,-87.2838713,36.5972781,hotel,Quality Inn,Clarksville,Tennessee
yes,-118.1721035,34.700987,hotel,Homewood Suites,Lancaster,California
yes,-118.3787859,33.8167083,hotel,Best Western Plus,Redondo Beach,California
yes,-117.0237132,46.7337314,hotel,Best Western Plus University Inn,Moscow,Idaho
yes,-115.1694338,36.1217005,hotel,The Venetian Las Vegas,Las Vegas,Nevada
yes,-122.7189833,38.4357878,hotel,Hyatt Vineyard Creek Hotel,,California
yes,-122.3653704,37.5938041,hotel,Hyatt Regency San Francisco Airport,Burlingame,California
yes,-122.1930888,47.6178501,hotel,Courtyard,,Washington
yes,-89.3943001,43.0714315,hotel,DoubleTree by Hilton Madison Downtown,Madison,Wisconsin
limited,-81.7895981,24.5500819,hotel,Suite Dreams Inn,Key West,Florida
limited,-82.3830681,35.1293983,camp_site,Camp Old Indian,,South Carolina
yes,-88.9670112,42.2719802,hotel,Courtyard Rockford,Rockford,Illinois
yes,-82.6389378,27.7767867,hotel,The Hollander,Saint Petersburg,Florida
yes,-84.2337363,33.9488754,hotel,Courtyard Atlanta Norcross/Peachtree Corners,Norcross,Georgia
yes,-114.0036474,46.8755976,hotel,Red Lion Inn & Suites,Missoula,Montana
yes,-97.0571508,32.8234094,hotel,DFW Airport Marriott South,Fort Worth,Texas
yes,-87.2886313,36.5968233,hotel,TownePlace Suites Clarksville,Clarksville,Tennessee
limited,-81.8994492,35.732347,camp_site,Catawba River Walk-In Campground,,North Carolina
yes,-111.9388448,33.4264722,hotel,Tempe Mission Palms,Tempe,Arizona
limited,-116.3623602,33.7225698,hotel,Embassy Suites by Hilton Palm Desert,Palm Desert,California
yes,-77.8717616,34.2413855,hotel,Courtyard by Marriott Wilmington/Wrightsville Beach,Wilmington,North Carolina
yes,-80.0022754,40.443804,hotel,Renaissance Pittsburgh Hotel,Pittsburgh,Pennsylvania
yes,-83.0049655,39.972791,hotel,AC Hotel Columbus Downtown,Columbus,Ohio
yes,-86.7917958,36.0362148,hotel,Courtyard Nashville Brentwood,Brentwood,Tennessee
yes,-122.4608102,38.2913742,hotel,Sonoma Valley Inn,Sonoma,California
yes,144.7981031,13.4934399,hotel,Mai'Ana Airport Plaza,Tamuning,Guam
yes,-78.5668936,43.2921304,caravan_site,Niagara Hartland RV Resort,Gasport,New York
yes,-76.9596645,40.2049865,hotel,Homewood Suites by Hilton Harrisburg-West Hershey Area,Mechanicsburg,Pennsylvania
yes,-80.2756976,39.280456,hotel,SpringHill Suites,Bridgeport,West Virginia
yes,-97.3895567,27.8194369,hotel,Quality Inn & Suites,Corpus Christi,Texas
yes,-81.5348272,28.3557461,hotel,Signia by Hilton Orlando Bonnet Creek,Orlando,Florida
yes,-83.7020895,32.6157525,hotel,La Quinta Inn & Suites,Warner Robins,Georgia
yes,-159.439238,21.8757193,hotel,Grand Hyatt Kauai Resort,Koloa,Hawaii
yes,-70.3539801,43.6210491,hotel,Candlewood Suites,Scarborough,Maine
yes,-96.6845507,40.7351806,hotel,Holiday Inn Lincoln Southwest,Lincoln,Nebraska
yes,-74.4006435,40.8146553,hotel,Sonesta Select,Whippany,New Jersey
yes,-77.4482675,38.9599084,hotel,Washington Dulles Airport Marriott,Dulles,Virginia
yes,-85.6100174,44.764783,hotel,Delamar Traverse City,Traverse City,Michigan
yes,-72.0905549,41.4923475,hotel,Mohegan Sun,Uncasville,Connecticut
yes,-79.4388357,37.780108,hotel,Hampton Inn,Lexington,Virginia
yes,-119.9204097,34.4346652,hotel,"The Ritz-Carlton Bacara, Santa Barbara",Santa Barbara,California
limited,-112.3585978,42.6924506,camp_site,Scout Mountain Campground,,Idaho
yes,-83.0022074,39.9708016,hotel,Hilton Columbus Downtown,Columbus,Ohio
yes,-145.6955162,61.1206938,camp_site,Blueberry Lake State Recreation Site,,Alaska
limited,-86.662879,36.1433584,hotel,"Holiday Inn Express Nashville Airport, an IHG Hotel",Nashville,Tennessee
yes,-111.6726804,40.4493222,camp_site,Little Mill Campground,,Utah
yes,-76.6975246,37.2689051,hotel,Williamsburg Inn,Williamsburg,Virginia
yes,-80.4351827,41.294663,camp_site,Shenango Recreational Area Campground,,Pennsylvania
yes,-119.2741903,34.2684799,hotel,Ventura Beach Marriott,Ventura,California
yes,-81.4711582,28.442501,hotel,Sonesta ES Suites Orlando,Orlando,Florida
yes,-122.1379234,38.220018,hotel,"Staybridge Suites Fairfield Napa Valley Area, an IHG Hotel",Fairfield,California
yes,-122.0773073,37.4168712,hotel,Shashi Hotel,,California
yes,-112.9876446,37.1963985,camp_site,Watchman Campground,,Utah
yes,-77.4416041,43.0215906,hotel,Hampton Inn & Suites,Victor,New York
yes,-110.1150655,48.1717713,caravan_site,Big Sandy RV Park,Big Sandy,Montana
yes,-110.3875545,40.9646589,camp_site,Bridger Lake Campground,,Utah
limited,-82.947085,35.0920635,camp_site,Gorges State Park Campground,,North Carolina
yes,-84.38786,33.7635548,hotel,"Inn At The Peachtrees, Ascend Hotel Collection",Atlanta,Georgia
yes,-110.6628725,47.8286696,camp_site,Benton RV Park,Fort Benton,Montana
yes,-83.6920754,43.0167631,hotel,Hilton Garden Inn Flint Downtown,Flint,Michigan
yes,-121.0023059,37.6419034,hotel,Double Tree by Hilton Modesto,Modesto,California
limited,-110.6682202,47.8161925,hotel,Grand Union Hotel,Fort Benton,Montana
yes,-111.8119784,41.7427834,hotel,University Inn,,Utah
yes,-87.9773613,42.1540051,hotel,Four Points by Sheraton Buffalo Grove,Buffalo Grove,Illinois
yes,-122.2731461,37.8021143,hotel,Oakland Marriott City Center,Oakland,California
yes,-82.4538657,27.9409109,hotel,Tampa Marriott Water Street,Tampa,Florida
yes,-82.4585671,27.952032,hotel,"Hotel Flor Tampa Downtown, Tapestry Collection by Hilton",Tampa,Florida
limited,-118.1908097,33.7631582,hotel,Hyatt Regency Long Beach,Long Beach,California
yes,-115.1758043,36.0954709,hotel,Luxor Las Vegas,Las Vegas,Nevada
yes,-115.1748144,36.092014,hotel,Mandalay Bay Resort & Casino,Las Vegas,Nevada
yes,-96.8010966,32.7772112,hotel,Aloft Dallas Downtown,Dallas,Texas
yes,-121.566005,37.0237666,hotel,Comfort Inn,Gilroy,California
yes,-93.272678,44.9713967,hotel,Hotel Ivy,,Minnesota
yes,-96.794837,32.7850915,hotel,Sheraton Dallas,Dallas,Texas
yes,-93.2695538,44.9773359,hotel,"Rand Tower Hotel, Minneapolis, a Tribute Portfolio Hotel",Minneapolis,Minnesota
yes,-97.8040307,30.4645802,hotel,Holiday Inn Express & Suites,Austin,Texas
yes,-116.753284,36.9147188,hotel,Stagecoach Hotel and Casino,Beatty,Nevada
yes,-71.0624148,42.3638945,hotel,The Boxer Boston,Boston,Massachusetts
limited,-71.0796191,42.3491509,hotel,The Lenox,Boston,Massachusetts
yes,-71.0666031,42.3616783,hotel,Wyndham,Boston,Massachusetts
yes,-93.2294528,44.9742287,hotel,Graduate Minneapolis,Minneapolis,Minnesota
yes,-74.95591,39.9403425,hotel,Homewood Suites by Hilton Philadelphia/Mt.Laurel,Mount Laurel,New Jersey
yes,-96.7990729,32.7801597,hotel,Magnolia Hotel Dallas Downtown,,Texas
yes,-117.1678917,32.7099198,hotel,Manchester Grand Hyatt San Diego,San Diego,California
yes,-117.161506,32.7160763,hotel,"The US Grant, A Luxury Collection Hotel",San Diego,California
yes,-72.2489282,41.8029085,hotel,Graduate Storrs,Storrs,Connecticut
yes,-83.3576007,42.2074528,hotel,The Westin Detroit Metropolitan Airport,,Michigan
limited,-117.1587459,32.7097432,hotel,Margaritaville Hotel San Diego Gaslamp Quarter,San Diego,California
yes,-122.4083149,37.7894629,hotel,San Francisco Marriott Union Square,San Francisco,California
yes,-84.3814693,39.2550402,hotel,Embassy Suites by Hilton Cincinnati Northeast Blue Ash,Blue Ash,Ohio
yes,-111.4631351,36.9217352,hotel,Best Western View of Lake Powell Hotel,Page,Arizona
limited,-122.0250516,36.9616239,hotel,Santa Cruz Dream Inn,,California
yes,-122.4107104,37.7877247,hotel,Hotel Zeppelin San Francisco,San Francisco,California
yes,-122.408452,37.7866806,hotel,"The Barnes San Francisco, Tapestry Collection by Hilton",San Francisco,California
yes,-122.4142344,37.7776081,hotel,BEI Hotel San Francisco,San Francisco,California
yes,-111.9008472,40.8600866,hotel,Best Western Plus CottonTree Inn,North Salt Lake,Utah
yes,-111.8959693,40.7589985,hotel,Sheraton Salt Lake City Hotel,Salt Lake City,Utah
yes,-122.2781088,37.7947636,hotel,Waterfront Hotel,,California
yes,-94.5797598,39.0852975,hotel,Sheraton Kansas City Hotel at Crown Center,Kansas City,Missouri
yes,-121.8874559,37.3309768,hotel,The Westin San Jose,San Jose,California
yes,-122.0315226,37.3216296,hotel,Juniper Hotel Cupertino,Cupertino,California
yes,-84.3851089,33.7615939,hotel,Atlanta Marriott Marquis,Atlanta,Georgia
yes,-84.3834007,33.7615225,hotel,Hilton Atlanta,Atlanta,Georgia
yes,-122.5420233,45.5678154,hotel,Shilo Inn,Portland,Oregon
yes,-122.6611649,45.5304481,hotel,Hotel Eastlund,Portland,Oregon
yes,-111.9029129,40.7707729,hotel,Hyatt Place Salt Lake City - Downtown,Salt Lake City,Utah
yes,-122.6834487,45.5227808,hotel,Crystal Hotel,Portland,Oregon
yes,-84.3867788,33.7616092,hotel,Hyatt Regency Atlanta,Atlanta,Georgia
yes,-87.8821532,41.9970104,hotel,Sonesta Chicago O'Hare Airport Rosemont,Rosemont,Illinois
yes,-84.3881672,33.758187,hotel,Courtyard Atlanta Downtown,Atlanta,Georgia
yes,-84.3871872,33.7586557,hotel,"The Ritz-Carlton, Atlanta",Atlanta,Georgia
yes,-84.2671744,39.098759,hotel,Hampton Inn Cincinnati-Eastgate,Cincinnati,Ohio
yes,-97.7355577,30.2653601,hotel,Hilton Garden Inn Austin Downtown/Convention Center,Austin,Texas
yes,-121.9083159,37.3615317,hotel,Holiday Inn,San Jose,California
limited,-79.0543783,35.9097625,hotel,The Carolina Inn,Chapel Hill,North Carolina
yes,-95.3595499,29.7577509,hotel,Cambria Hotel Houston Downtown Convention Center,Houston,Texas
yes,-81.5337392,28.3531057,hotel,Waldorf Astoria Orlando,Orlando,Florida
yes,-121.9354572,37.6957229,hotel,Pleasanton Marriott,Pleasanton,California
yes,-77.0757778,38.8939225,hotel,Sonesta Select Arlington Rosslyn,Arlington,Virginia
yes,-93.2734502,44.9771135,hotel,The Royal Sonesta Minneapolis Downtown,Minneapolis,Minnesota
yes,-95.369307,29.7569247,hotel,Hyatt Regency Houston,Houston,Texas
yes,-120.6745786,35.2673493,hotel,Madonna Inn,,California
yes,-120.6558544,35.2776578,hostel,Hostel Obispo,,California
yes,-111.8523071,33.3908351,hotel,La Quinta Inn & Suites - Phoenix Mesa West,Mesa,Arizona
yes,-104.8801376,39.5894632,hotel,Sheraton Denver Tech Center Hotel,Greenwood Village,Colorado
limited,-122.0288736,37.3761927,hotel,Aloft Sunnyvale,Sunnyvale,California
yes,-78.6399774,35.7735436,hotel,Raleigh Marriott City Center,Raleigh,North Carolina
yes,-78.5410503,35.9512803,hotel,Holiday Inn Express & Suites Raleigh North - Wake Forest,Raleigh,North Carolina
yes,-78.6755038,35.8347049,hotel,Residence Inn Raleigh Crabtree Valley,,North Carolina
yes,-78.6753731,35.8346148,hotel,Residence Inn Raleigh Crabtree Valley,Raleigh,North Carolina
yes,-77.0193752,38.8855527,hotel,Holiday Inn,Washington,District of Columbia
yes,-77.0264883,38.8993407,hotel,Grand Hyatt Washington,Washington,District of Columbia
yes,-77.0334359,38.9053158,hotel,"The Westin Washington, D.C City Center",Washington,District of Columbia
yes,-77.0360883,38.9021044,hotel,"The St. Regis Washington, D.C.",Washington,District of Columbia
yes,-77.0179769,38.8829065,hotel,Hyatt Place,Washington,District of Columbia
yes,-157.8251831,21.2761645,hotel,Hyatt Regency Waikiki Beach Resort and Spa,Honolulu,Hawaii
yes,-78.8812196,42.8830277,hotel,Buffalo Grand Hotel & Event Center,Buffalo,New York
yes,-157.8236134,21.2753143,hotel,Waikiki Resort Hotel,,Hawaii
yes,-84.5073273,39.1366778,hotel,Graduate Cincinnati,Cincinnati,Ohio
yes,-94.5831286,39.0829578,hotel,The Westin Crown Center,Kansas City,Missouri
yes,-74.181742,40.6921164,hotel,Marriott Newark Airport,,New Jersey
yes,-115.1743079,36.1062183,hotel,Waldorf Astoria Las Vegas,Las Vegas,Nevada
yes,-76.6428726,39.4545476,hotel,Holiday Inn Timonium,Lutherville,Maryland
yes,-93.4224435,44.8603226,hotel,SpringHill Suites Minneapolis Eden Prairie,Eden Prairie,Minnesota
yes,-104.9869109,39.9152945,hotel,Baymont,Thornton,Colorado
limited,-77.0399539,38.9075037,hotel,Tabard Inn,Washington,District of Columbia
yes,-77.0397084,38.9074198,hotel,"Courtyard Washington, DC Dupont Circle",Washington,District of Columbia
yes,-77.0369364,38.9059489,hotel,The Jefferson,Washington,District of Columbia
yes,-84.6273355,39.0567336,hotel,Holiday Inn Cincinnati Airport,Erlanger,Kentucky
yes,-73.6989444,42.6254895,hotel,Fairfield Inn & Suites Albany East Greenbush,East Greenbush,New York
yes,-87.8775706,42.1625854,hotel,Chicago Marriott Suites Deerfield,Deerfield,Illinois
yes,-119.0118296,35.3727606,hotel,Bakersfield Marriott at the Convention Center,Bakersfield,California
yes,-119.0215087,35.3755654,hotel,Padre Hotel,,California
yes,-119.0419125,35.3836475,hotel,La Quinta Inn Bakersfield South,,California
yes,-119.0314256,35.3184052,hotel,Bakersfield Inn & Suites,Bakersfield,California
yes,-119.0589339,35.3600015,hotel,Four Points by Sheraton Bakersfield,Bakersfield,California
yes,-119.098611,35.3413087,hotel,Homewood Suites by Hilton Bakersfield,,California
yes,-105.1313555,39.7216576,hotel,Sheraton Denver West Hotel,Lakewood,Colorado
yes,-115.1716534,36.1150854,hotel,The Cromwell Las Vegas,Las Vegas,Nevada
yes,-75.23155,39.89045,hotel,Sheraton Suites Philadelphia Airport,Philadelphia,Pennsylvania
yes,-97.0234106,32.835381,hotel,Quality Inn & Suites Dfw Airport South,Irving,Texas
yes,-157.8385465,21.2843285,hotel,The Ilikai Hotel,Honolulu,Hawaii
yes,-157.8320782,21.279415,hotel,"Ka Laʻi Waikiki Beach, LXR Hotels & Resorts",Honolulu,Hawaii
yes,-77.2101172,39.1564912,hotel,"Homewood Suites by Hilton Washington, DC North/Gaithersburg",Gaithersburg,Maryland
yes,-111.9527399,40.7721284,hotel,Sonesta Simply Suites,Salt Lake City,Utah
yes,-111.9523081,40.7709736,hotel,Radisson,Salt Lake City,Utah
yes,-111.9506009,40.7723851,hotel,Patient and Family Housing,Salt Lake City,Utah
yes,-111.9506018,40.7732331,hotel,Comfort Suites Airport,Salt Lake City,Utah
yes,-87.6264574,41.8888728,hotel,Trump International Hotel & Tower Chicago,Chicago,Illinois
yes,-77.86404,40.7915294,hotel,Graduate State College,State College,Pennsylvania
yes,-77.0275812,38.8940964,hotel,Waldorf Astoria Washington DC,Washington,District of Columbia
limited,-77.0403545,38.899927,hotel,AKA White House,Washington,District of Columbia
yes,-77.0519498,38.9057516,hotel,The Fairmont,,District of Columbia
limited,-77.0154351,38.9014845,hotel,Capital View,,District of Columbia
yes,-83.0476921,42.3279976,hotel,Fort Pontchartrain Detroit a Wyndham Hotel,Detroit,Michigan
yes,-83.0659218,42.3487917,hostel,El Moore,Detroit,Michigan
yes,-75.6853028,41.3636145,hotel,Courtyard by Marriott Scranton Montage Mountain,Scranton,Pennsylvania
yes,-97.7973853,30.4663875,hotel,Extended Stay America,Austin,Texas
yes,-97.7186213,30.4068045,hotel,La Quinta Inn & Suites,Austin,Texas
yes,-122.6730571,45.5062824,hotel,Residence Inn,Portland,Oregon
yes,-66.0552409,18.4033125,hotel,Dreams Hotel,,Puerto Rico
yes,-94.3937064,45.5804424,guest_house,Saint Benet Hall,,Minnesota
yes,-122.2606177,47.4542059,hotel,DoubleTree Suites - Seattle Airport/Southcenter,Seattle,Washington
limited,-81.493458,28.3596518,hotel,Caribe Royale Orlando,Orlando,Florida
yes,-82.6336845,27.7714305,hotel,Ponce de Leon Hotel,Saint Petersburg,Florida
limited,-122.4087763,37.7886605,hotel,Chancellor Hotel,San Francisco,California
yes,-122.4004503,37.7854683,hotel,W San Francisco,San Francisco,California
yes,-81.3755161,28.5417512,hotel,Embassy Suites by Hilton Orlando Downtown,Orlando,Florida
yes,-122.2612865,37.5235024,hotel,Grand Bay Hotel San Francisco,Redwood City,California
yes,-119.7195225,36.764169,hotel,BEST WESTERN PLUS Fresno Airport Hotel,,California
yes,-81.4633498,28.4579482,hotel,Best Western Orlando Gateway Hotel,Orlando,Florida
yes,-70.9206238,43.133596,hotel,Holiday Inn Express Durham - (UNH),Durham,New Hampshire
yes,-75.6522475,39.6864999,hotel,Quality Inn,Newark,Delaware
yes,-73.9733615,40.7565021,hotel,Waldorf Astoria New York,New York,New York
yes,-124.6074197,47.9177746,camp_site,Mora Campground,,Washington
yes,-104.844601,41.124618,hotel,Holiday Inn Express Hotel & Suites Cheyenne,Cheyenne,Wyoming
yes,-104.8437842,41.123936,hotel,Candlewood Suites Cheyenne,Cheyenne,Wyoming
yes,-112.0028223,40.7700635,hotel,Microtel Inn & Suites by Wyndham Salt Lake City Airport,Salt Lake City,Utah
yes,-86.6939632,34.7544449,hotel,Homewood Suites by Hilton Huntsville-Village of Providence,Huntsville,Alabama
yes,-93.2987868,44.9383518,apartment,Greenhouse condominium,Minneapolis,Minnesota
yes,-103.4243966,43.8930815,hotel,Ramada,Keystone,South Dakota
yes,-122.2740292,37.8017715,hotel,The Washington Inn,,California
yes,-157.8388068,21.2844321,hotel,The Modern Honolulu,Honolulu,Hawaii
yes,-157.8400067,21.2862364,hotel,Hawaii Prince Hotel,,Hawaii
yes,-75.3897819,40.0909755,hotel,Fairfield Inn Philadelphia Valley Forge/King of Prussia,King of Prussia,Pennsylvania
yes,-122.4130624,37.8071475,hotel,Hotel Riu Plaza Fisherman´s Wharf,San Francisco,California
yes,-74.1099133,41.5188344,hotel,Courtyard Newburgh Stewart Airport,Newburgh,New York
yes,-74.2994138,40.5383245,hotel,Homestead Studio Suites,Woodbridge,New Jersey
yes,-71.1866847,42.3562715,hotel,Four Points by Sheraton,Newton,Massachusetts
yes,-119.6560568,35.6172806,hotel,Days Inn,"Lost Hills,",California
yes,-159.3220474,22.0566637,hotel,Sheraton Kauai Coconut Beach Resort,Kapaa,Hawaii
yes,-118.9472787,34.9872805,hotel,Best Western,Lebec,California
yes,-89.3865174,43.075571,hotel,Madison Concourse Hotel,Madison,Wisconsin
limited,-98.4918711,29.4243304,hotel,Drury Plaza Hotel Riverwalk,,Texas
yes,-89.3899842,43.0793035,hotel,Edgewater Hotel,Madison,Wisconsin
yes,-89.3956365,43.0754941,hotel,Graduate Madison,Madison,Wisconsin
yes,-84.1298674,33.7993506,hotel,Atlanta Evergreen Lakeside Resort,Stone Mountain,Georgia
yes,-97.8049822,30.5291395,hotel,Holiday Inn Express,Cedar Park,Texas
yes,-116.5385492,33.8246308,hotel,Renaissance Palm Springs Hotel,Palm Springs,California
yes,-97.7468957,30.258545,hotel,Embassy Suites by Hilton Austin Downtown South Congress,Austin,Texas
yes,-107.3231163,39.5504434,hotel,Glenwood Hot Springs Lodge,Glenwood Springs,Colorado
yes,-78.8446105,35.8799475,hotel,Wingate by Wyndham Raleigh Durham / Airport,Durham,North Carolina
yes,-89.3257603,43.0457863,hotel,Country Inn & Suites,Madison,Wisconsin
yes,-107.3312219,39.5532451,hotel,Holiday Inn Express Glenwood Springs,Glenwood Springs,Colorado
yes,-107.3303241,39.5535187,hotel,Hampton Inn Glenwood Springs,Glenwood Springs,Colorado
yes,-89.3099561,43.1278566,hotel,DoubleTree by Hilton Madison East,Madison,Wisconsin
yes,-76.4993745,42.4377474,hotel,The Hotel Ithaca,Ithaca,New York
yes,-97.064382,32.9546809,hotel,Gaylord Texan Resort & Convention Center,Grapevine,Texas
yes,-83.3415748,42.2431344,hotel,La Quinta Inn & Suites Detroit Metro Airport,Romulus,Michigan
yes,-83.3493421,42.2442987,hotel,Springhill Suites by Marriott,Romulus,Michigan
yes,-91.4112366,44.8798665,hotel,Holiday Inn Express Hotel & Suites Eau Claire North,Chippewa Falls,Wisconsin
yes,-97.7245845,30.3991694,hotel,The Westin Austin at The Domain,Austin,Texas
yes,-83.0505179,42.3313783,hotel,Hotel Indigo,Detroit,Michigan
yes,-90.1907188,32.3002851,hotel,Hilton Garden Inn Jackson Downtown,Jackson,Mississippi
yes,-111.6582661,40.2135895,hotel,Fairfield Inn Provo,Provo,Utah
yes,-94.1493462,36.1180734,hotel,Courtyard,Fayetteville,Arkansas
yes,-111.6621484,35.1795816,hotel,Hilton Garden Inn Flagstaff,Flagstaff,Arizona
yes,-111.6622426,35.1805408,hotel,Baymont Flagstaff,Flagstaff,Arizona
yes,-109.0707248,37.3831974,camp_site,Hovenweep Campground,,Utah
yes,-76.6772742,39.2100076,hotel,Hilton Garden Inn BWI Airport,Linthicum Heights,Maryland
yes,-115.1745923,36.1021538,hotel,New York New York Hotel and Casino,Las Vegas,Nevada
yes,-115.176653,36.1166247,hotel,Caesars Palace,Las Vegas,Nevada
yes,-115.1711504,36.1183503,hotel,The LINQ,Las Vegas,Nevada
yes,-115.1756968,36.0923949,hotel,Mandalay Bay,,Nevada
yes,-115.1714963,36.116422,hotel,Flamingo Las Vegas,Las Vegas,Nevada
yes,-115.1698497,36.1027124,hotel,Hotel MGM Grand Las Vegas,Las Vegas,Nevada
yes,-85.647469,44.7388179,hotel,Great Wolf Lodge,Traverse City,Michigan
yes,-117.9141055,33.8090699,hotel,Park Vue Inn,Anaheim,California
yes,-115.1773313,36.0930958,hotel,Delano Las Vegas,,Nevada
yes,-122.4030903,37.7865615,hotel,Hyatt Regency San Francisco Downtown Soma,San Francisco,California
yes,-72.5187949,43.6229301,hotel,Woodstock Inn and Resort,Woodstock,Vermont
yes,-123.9295108,45.9927459,hotel,The Resort at Seaside,,Oregon
yes,-71.1953012,42.4898051,hotel,Boston Marriott,Burlington,Massachusetts
yes,-119.7913517,34.4433815,hotel,Extended Stay America,Santa Barbara,California
yes,-79.9368061,32.7859582,hotel,Francis Marion Hotel,Charleston,South Carolina
yes,-81.6943772,41.5013399,hotel,Cleveland Marriott Downtown at Key Tower,Cleveland,Ohio
yes,-121.7122515,37.1919396,caravan_site,Coyote Valley RV Resort,Morgan Hill,California
yes,-122.3972829,37.6076993,hotel,"El Rancho Inn, SureStay Collection by Best Western",Millbrae,California
limited,-77.6074848,43.0863641,hotel,Doubletree by Hilton Hotel Rochester,Rochester,New York
yes,-122.1628008,37.4406775,hotel,Westin Palo Alto,Palo Alto,California
yes,-117.8845754,33.6831412,hotel,Hilton Orange County / Costa Mesa,Costa Mesa,California
yes,-84.3927024,33.7854523,hotel,Sonesta Select Atlanta Midtown Georgia Tech,Atlanta,Georgia
limited,-109.7396467,38.4862713,camp_site,Kayenta Campground,,Utah
yes,-104.9970543,39.7457933,hotel,the Curtis Denver - a DoubleTree by Hilton Hotel,Denver,Colorado
yes,-122.1724534,37.4469489,hotel,Best Western,,California
yes,-74.4989465,40.9080709,hotel,Hampton Inn Denville/Rockaway/Parsippany,Denville,New Jersey
yes,-112.1575678,37.6736559,hotel,Best Western Plus Ruby's Inn,Bryce Canyon City,Utah
yes,-123.8051047,39.431097,hotel,Seabird Lodge Fort Bragg Ca,,California
yes,-106.0971228,39.5908981,hotel,AC Hotel Frisco Colorado,Frisco,Colorado
yes,-106.0475596,39.6269472,hotel,Best Western Ptarmigan Lodge,Dillon,Colorado
yes,-97.8036153,30.4632636,hotel,Hampton Inn & Suites,Austin,Texas
yes,-112.1294564,35.9695365,hotel,BEST WESTERN Squire Resort at the Grand Canyon,Grand Canyon,Arizona
yes,-115.1427038,36.1695491,hotel,The D Las Vegas,Las Vegas,Nevada
yes,-117.1583411,32.7030303,hotel,Hilton Bayfront Hotel,San Diego,California
yes,-111.6629861,35.1746411,hotel,Courtyard,Flagstaff,Arizona
yes,-111.6637846,35.1777582,hotel,SpringHill Suites,Flagstaff,Arizona
yes,-111.6637073,35.1785908,hotel,Comfort Inn,Flagstaff,Arizona
yes,-120.5811114,37.6303421,camp_site,Turlock Lake Campground,,California
yes,-119.9589807,34.5760232,camp_site,Cachuma Lake Recreation Area,Santa Barbara,California
yes,-81.4841809,28.3385547,hotel,Holiday Inn Express & Suites S Lake Buena Vista,Kissimmee,Florida
limited,-97.7374785,30.2536002,hotel,Holiday Inn Austin Town Lake,Austin,Texas
yes,-97.7469786,30.2656676,hotel,W Austin,Austin,Texas
yes,-115.1712974,36.1100774,hotel,Planet Hollywood Resort and Casino,Las Vegas,Nevada
yes,-115.1656956,36.1152263,hotel,The Westin Las Vegas Hotel,Las Vegas,Nevada
yes,-122.4053392,37.7903408,hotel,Hotel Triton,San Francisco,California
yes,-122.4057291,37.7899862,hotel,Baldwin Hotel,,California
yes,-115.156284,36.1476873,hotel,The Strat,Las Vegas,Nevada
yes,-122.2929279,37.8394157,hotel,Hyatt House Emeryville/San Francisco Bay Area,Emeryville,California
yes,-77.3534529,38.8634541,hotel,Fairfax Marriott at Fair Oaks,Fairfax,Virginia
yes,-81.3069469,28.4609889,hotel,Fairfield Inn Orlando Airport,Orlando,Florida
yes,-81.3081696,28.4627276,hotel,Wingate by Wyndham at Orlando International Airport,,Florida
yes,-81.3076634,28.4608663,hotel,Hampton Inn Orlando International Airport,Orlando,Florida
yes,-81.3066594,28.4618168,hotel,Residence Inn Orlando Airport,Orlando,Florida
yes,-81.3068421,28.4624494,hotel,SpringHill Suites Orlando Airport,Orlando,Florida
yes,-118.3874025,34.0877916,hotel,Montrose at Beverly Hills,West Hollywood,California
yes,-80.3528684,37.1394855,hotel,Quality Inn,,Virginia
yes,-80.3535133,37.1397212,hotel,Quality Inn,,Virginia
yes,-71.4343412,41.7542289,hotel,Courtyard,Warwick,Rhode Island
yes,-81.461224,28.4223865,hotel,Days Inn Orlando Convention Center/International Drive,Orlando,Florida
yes,-81.4723116,28.4426178,hotel,Clarion Inn International Drive,Orlando,Florida
yes,-81.4687591,28.4411845,hotel,La Quinta Inn & Suites Orlando Convention Center,Orlando,Florida
yes,-84.2501879,30.4297224,hotel,Hilton Garden Inn Tallahassee Central,Tallahassee,Florida
yes,-81.4675008,28.4526378,hotel,Baymont,Orlando,Florida
yes,-81.4543915,28.4090203,hotel,SpringHill Suites Orlando at SeaWorld®,Orlando,Florida
yes,-81.4655282,28.4197109,hotel,Four Points by Sheraton Orlando Convention Center,Orlando,Florida
yes,-79.0601099,35.9111264,hotel,Graduate Chapel Hill,Chapel Hill,North Carolina
yes,-71.416502,41.8299416,hotel,Renaissance Providence Downtown Hotel,,Rhode Island
yes,-81.4760981,28.4308928,hotel,Quality Suites Universal South,Orlando,Florida
yes,-90.0024014,34.9621392,hotel,Drury Inn & Suites Memphis South,,Mississippi
limited,-81.4877452,28.3892148,hotel,Four Star Hotel Kissimmee,,Florida
yes,-114.5733409,35.1540731,hotel,Golden Nugget Laughlin,Laughlin,Nevada
yes,-114.577219,35.1443991,hotel,Harrah's Laughlin,,Nevada
yes,-114.5751925,35.1499169,hotel,Laughlin River Lodge,,Nevada
yes,-114.5773572,35.157787,hotel,Tropicana Laughlin,,Nevada
yes,-114.5730097,35.1585394,hotel,Colorado Belle,,Nevada
yes,-114.571872,35.1665443,hotel,Don Laughlin's Riverside Resort,,Nevada
yes,-114.5731125,35.1560049,hotel,Pioneer Hotel & Gambling Hall,,Nevada
yes,-114.5729025,35.1610987,hotel,Edgewater Laughlin,,Nevada
yes,-114.5726081,35.1634363,hotel,Aquarius Casino Resort,,Nevada
limited,-73.5134829,44.8178806,camp_site,West Chazy Holiness Camp,West Chazy,New York
yes,-76.3124418,40.0468187,hotel,Lancaster Arts Hotel,Lancaster,Pennsylvania
yes,-92.5080511,44.0838658,hotel,Hampton Inn & Suites Rochester - North,Rochester,Minnesota
yes,-87.677047,42.0464809,hotel,Graduate Evanston,Evanston,Illinois
yes,-122.4611894,38.2772276,hotel,"The Lodge at Sonoma Resort, Autograph Collection",Sonoma,California
yes,-116.1922851,33.7209874,hotel,Fantasy Springs Hotel,,California
yes,-77.1174776,38.8815949,hotel,Holiday Inn Arlington at Ballston,Arlington,Virginia
yes,-80.4171557,25.122033,hotel,Hampton,Key Largo,Florida
yes,-87.6247909,41.8733574,hotel,"The Blackstone, Autograph Collection",Chicago,Illinois
yes,-87.6254458,41.887046,hotel,Hampton Inn Chicago Downtown/North Loop,Chicago,Illinois
yes,-124.1503893,40.8053206,hotel,Red Lion Hotel Eureka,,California
yes,-84.1913966,39.8433976,hotel,Drury Inn & Suites,,Ohio
yes,-89.3731978,43.0474775,hotel,Sheraton Madison,,Wisconsin
yes,-87.6266544,41.881652,hotel,Silversmith Hotel Chicago Downtown,Chicago,Illinois
yes,-87.5859358,41.8059099,hotel,Chicago Lake Shore Hotel,Chicago,Illinois
yes,-87.585526,41.8056057,hotel,Chicago Lake Shore Hotel,Chicago,Illinois
yes,-81.4717875,28.4474666,hotel,Best Western International Drive - Orlando,Orlando,Florida
yes,-77.1143336,38.8806204,hotel,The Westin Arlington Gateway,Arlington,Virginia
yes,-80.3677417,25.8091794,hotel,Best Western Miami Airport Hotel Suites,Doral,Florida
yes,-73.9815441,40.7691208,hotel,Trump International Hotel and Tower,New York,New York
yes,-80.263243,25.8057098,hotel,Hampton Inn Miami Airport East,Miami,Florida
yes,-122.4120837,37.7913824,hotel,Scarlet Huntington Hotel,San Francisco,California
yes,-121.865991,36.5951277,hotel,Travelodge,Monterey,California
yes,-122.4061594,48.0396166,hotel,Saratoga Inn,Langley,Washington
yes,-119.0486856,35.3801665,hotel,Hilton Garden Inn Bakersfield,Bakersfield,California
yes,-119.0514395,35.3797578,hotel,Holiday Inn Hotel & Suites Bakersfield,,California
yes,-119.0497963,35.3798768,hotel,SpringHill Suites Bakersfield,Bakersfield,California
yes,-87.6155916,41.8938634,hotel,W Chicago - Lakeshore,Chicago,Illinois
yes,-77.4020604,38.9578931,hotel,Washington Dulles Marriott Suites,Herndon,Virginia
yes,-122.6773747,45.5198923,hotel,The Royal Sonesta Portland Downtown,Portland,Oregon
yes,-122.6769608,45.5213197,hotel,Courtyard Portland City Center,Portland,Oregon
yes,-87.6235459,41.8913494,hotel,InterContinental Chicago Hotel,Chicago,Illinois
yes,-75.5717329,38.4017266,hotel,Residence Inn,Salisbury,Maryland
yes,-81.4567757,28.4750745,hotel,Hyatt Place,Orlando,Florida
yes,-81.4565988,28.482006,hotel,Fairfield Inn & Suites,Orlando,Florida
yes,-83.7415066,42.2814475,hotel,Graduate,Ann Arbor,Michigan
yes,-71.4121099,44.2200038,hostel,AMC Highland Center,,New Hampshire
yes,-77.2283964,38.9118067,hotel,Extended Stay America,Vienna,Virginia
yes,-93.2770335,44.9759417,hotel,The Chambers Hotel,Minneapolis,Minnesota
yes,-81.5922078,28.3341838,hotel,Quality Inn & Suites,,Florida
yes,-81.5917241,28.3337813,hotel,Westgate Towers,,Florida
yes,-87.6257941,41.8930569,hotel,21C Museum Hotel Chicago,Chicago,Illinois
yes,-109.4722746,41.5406529,hotel,Hampton Inn & Suites,Green River,Wyoming
yes,-120.7356269,35.1798093,hotel,Avila Lighthouse Suites,Avila Beach,California
yes,-120.733476,35.1800866,hotel,Avila La Fonda Hotel,,California
yes,-111.6987413,40.5717474,camp_site,Tanners Flat Campground,,Utah
yes,-120.7217843,35.1893282,hotel,Avila Village Inn,,California
yes,-120.6496989,35.1477978,hotel,SeaCrest OceanFront Hotel,Pismo Beach,California
yes,-120.7405538,35.1793474,hotel,San Luis Bay Inn,Avila Beach,California
yes,-120.6410163,35.1367138,hotel,SeaVenture Resort,Pismo Beach,California
yes,-77.0568581,38.8060311,hotel,Archer Hotel Old Town Alexandria,Alexandria,Virginia
yes,-77.0490145,38.8046162,hotel,"Morrison House Old Town Alexandria, Autograph Collection",Alexandria,Virginia
yes,-84.4976412,38.0471981,hotel,21c,Lexington,Kentucky
yes,-80.1687243,40.2758147,hotel,Homewood Suites by Hilton Pittsburgh-Southpointe,Canonsburg,Pennsylvania
yes,-121.9324685,37.8777887,camp_site,Juniper Campground,,California
limited,-93.2594522,37.2458602,hotel,Holiday Inn Hotel & Suites Springfield - I-44,Springfield,Missouri
yes,-80.2626619,26.1038951,hotel,Renaissance Fort Lauderdale-Plantation Hotel,,Florida
yes,-120.6915043,35.6136043,hotel,Courtyard,Paso Robles,California
yes,-157.8372528,21.2830181,hotel,Hilton Hawaiian Village,Honolulu,Hawaii
yes,-157.8231737,21.2747088,hotel,Alohilani Resort Waikiki Beach,Honolulu,Hawaii
yes,-77.1296523,38.7173546,hotel,Hampton Inn & Suites Mt. Vernon/Belvoir-Alexandria South Area,Alexandria,Virginia
yes,-73.9773637,40.7608075,hotel,Baccarat Hotel & Residences,New York,New York
yes,-73.9862598,40.7585993,hotel,New York Marriott Marquis,,New York
yes,-111.6636306,35.1804508,hotel,La Quinta Inn & Suites,Flagstaff,Arizona
yes,-112.001774,40.7708976,hotel,Hyatt Place Salt Lake City Airport,Salt Lake City,Utah
yes,-120.6887894,35.6407419,hotel,Holiday Inn Express & Suites,Paso Robles,California
yes,-92.4642969,43.996476,hotel,Hampton,Rochester,Minnesota
yes,-122.3268367,47.6089456,hotel,Hotel Sorrento,Seattle,Washington
yes,-120.6698725,35.4894661,hotel,Carlton Hotel,Atascadero,California
yes,-71.1119657,44.0241441,hotel,North Conway Grand Hotel,,New Hampshire
limited,-116.8548235,36.4590987,camp_site,Texas Springs Campground,,California
yes,-83.0261013,39.9754695,hotel,Hyatt Place,Columbus,Ohio
yes,-78.8958187,35.904724,hotel,Sonesta Select Durham Research Triangle Park,Durham,North Carolina
yes,-95.2910237,43.1534557,guest_house,Scharnberg County Park,,Iowa
yes,-95.290915,43.1533377,guest_house,Scharnberg County Park,,Iowa
yes,-95.2911827,43.1536088,guest_house,Scharnberg County Park,,Iowa
yes,-94.4711743,39.0516804,hotel,Adam's Mark Hotel & Conference Center at the Sports Stadium Complex,Kansas City,Missouri
yes,-71.3175308,42.6153076,hotel,Sonesta Select,Lowell,Massachusetts
yes,-106.4026956,39.6371148,hotel,Grand Hyatt Vail,Vail,Colorado
yes,-72.563787,42.8789021,hotel,Holiday Inn Express & Suites,Brattleboro,Vermont
yes,-111.8917345,40.7646845,hotel,Kimpton Hotel Monaco Salt Lake City,Salt Lake City,Utah
yes,-87.6198132,41.8928016,hotel,DoubleTree Hotel Chicago - Magnificent Mile,Chicago,Illinois
yes,-75.4053164,41.2105455,camp_site,Tobyhanna State Park Campground,,Pennsylvania
yes,-76.895819,38.9982044,hotel,Hilton Garden Inn,Greenbelt,Maryland
yes,-118.9328508,34.9392742,hotel,Days Inn,Lebec,California
yes,-81.9975955,26.5178167,guest_house,Guest House at Shell Point,Fort Myers,Florida
yes,-101.9152718,35.1858886,hotel,Fifth Season Inn,Amarillo,Texas
yes,-76.6030222,39.2835734,hotel,Marriott,Baltimore,Maryland
yes,-76.6055927,39.2844277,hotel,Pier 5 Hotel,Baltimore,Maryland
yes,-97.3303137,32.753706,hotel,Courtyard Fort Worth Downtown/Blackstone,Fort Worth,Texas
yes,-97.3310714,32.7535757,hotel,AC Hotel by Marriott Fort Worth Downtown,Fort Worth,Texas
limited,-101.9341978,35.1896856,hotel,Extended Stay America - Amarillo - West,Amarillo,Texas
yes,-122.4159602,37.7885735,hotel,Hotel Vertigo,San Francisco,California
yes,-115.2921073,36.1010104,apartment,Aspire by Ovation,Las Vegas,Nevada
yes,-81.8016798,26.6328557,hotel,Hyatt Place Fort Myers/At The Forum,Fort Myers,Florida
yes,-84.0610983,39.7728104,hotel,Hilton Garden Inn Dayton Beavercreek,Dayton,Ohio
yes,-83.6245849,41.3727864,hotel,Hampton,Bowling Green,Ohio
yes,-81.3088327,28.4561313,hotel,Ramada Suites Orlando Airport,Orlando,Florida
yes,-81.3079772,28.458263,hotel,Hilton Garden Inn Orlando Airport,Orlando,Florida
yes,-97.7404061,30.2689376,hotel,Omni Austin Hotel Downtown,Austin,Texas
yes,-81.3083885,28.4571694,hotel,Staybridge Suites Orlando Airport,Orlando,Florida
yes,-81.3055743,28.4607123,hotel,Embassy Suites by Hilton Orlando Airport,Orlando,Florida
yes,-116.7939144,47.6998633,hotel,Coeur d'Alene Inn,Coeur d'Alene,Idaho
yes,-97.1702913,26.138347,hotel,Hilton Garden Inn,South Padre Island,Texas
yes,-85.1401793,41.1313561,hotel,Sonesta Select Fort Wayne,Fort Wayne,Indiana
yes,-75.5236034,40.5645698,guest_house,(60) Hackerman-Patz House,Allentown,Pennsylvania
yes,-134.4158762,58.299441,hotel,Ramada by Wyndham Juneau,Juneau,Alaska
yes,-122.3408928,47.6139175,hotel,Warwick Seattle Hotel,Seattle,Washington
yes,-76.4407055,40.4079448,camp_site,Kenbrook Bible Camp,,Pennsylvania
yes,-77.2302882,38.8737682,hotel,Archer Hotel Falls Church,Fairfax,Virginia
yes,-112.0216201,40.7723793,hotel,Four Points by Sheraton Salt Lake City Airport,Salt Lake City,Utah
yes,-75.5439848,42.8273904,hotel,Colgate Inn,Hamilton,New York
yes,-120.1283357,39.2671007,hotel,"The Ritz-Carlton, Lake Tahoe",Truckee,California
yes,-97.7499606,30.2570174,hotel,Extended Stay America - Austin - Downtown - Town Lake,Austin,Texas
yes,-83.4797131,42.3872516,hotel,Hilton Garden Inn Plymouth,Plymouth,Michigan
yes,-81.4936355,41.4681357,hotel,Homewood Suites,Beachwood,Ohio
yes,-79.816598,32.8228826,hotel,Homewood Suites by Hilton,Mount Pleasant,South Carolina
yes,-84.2239632,39.6319363,hotel,Hampton Inn Dayton/ Dayton Mall,Dayton,Ohio
yes,-83.7193974,32.8120769,hotel,Regency Inn & Suites,Macon,Georgia
yes,-79.9316998,32.7777601,hotel,"Mills House Charleston, Curio Collection by Hilton",Charleston,South Carolina
yes,-76.5086839,43.4581834,hotel,Quality Inn & Suites Riverfront,Oswego,New York
yes,-95.9100275,41.2408181,hotel,Hampton Inn,Council Bluffs,Iowa
yes,-86.1084662,39.91511,hotel,Sheraton Indianapolis Hotel at Keystone Crossing,Indianapolis,Indiana
yes,-122.3922144,37.7928777,hotel,Hotel Griffon,San Francisco,California
yes,-122.3932917,37.7936871,hotel,Hotel Vitale,San Francisco,California
yes,-122.3921483,37.7926772,hotel,Harbor Court Hotel,San Francisco,California
yes,-86.1096798,39.919703,hotel,Keystone Inn & Suites,Indianapolis,Indiana
yes,-104.8302073,38.9134052,hotel,Colorado Springs Marriott,Colorado Springs,Colorado
yes,-120.444857,34.8965541,hotel,Radisson,Santa Maria,California
yes,-80.0759355,26.3160229,hotel,Wyndham Deerfield Beach Resort,Deerfield Beach,Florida
yes,-94.6719594,39.2716425,hotel,Sonesta Select Kansas City Airport Tiffany Springs,Kansas City,Missouri
yes,-94.6829346,39.2949648,hotel,Hilton,Kansas City,Missouri
yes,-121.7564094,42.2116738,hotel,Best Western Plus Olympic Inn,Klamath Falls,Oregon
yes,-86.1565657,39.9647025,hotel,Renaissance Indianapolis North Hotel,Carmel,Indiana
yes,-78.6203355,35.8298662,hotel,Hilton,Raleigh,North Carolina
yes,-95.7604132,39.0404118,hotel,Days Inn,Topeka,Kansas
yes,-94.669708,38.9305593,hotel,Marriott Kansas City Overland Park,Overland Park,Kansas
yes,-88.0021013,41.842856,hotel,The Westin Chicago Lombard,Lombard,Illinois
yes,-76.1513057,43.0447861,hotel,Marriott,Syracuse,New York
yes,-104.7926949,38.9655823,hotel,Homewood Suites by Hilton Colorado Springs-North,Colorado Springs,Colorado
yes,-122.2727752,37.8010535,hotel,Courtyard Oakland Downtown,Oakland,California
yes,-82.6762299,27.8954094,hotel,Courtyard,Clearwater,Florida
yes,-82.682414,27.8951401,hotel,Holiday Inn Saintt Petersburg North - Clearwater,Feather Sound,Florida
yes,-122.421758,37.7898461,hotel,Holiday Inn San Francisco Golden Gateway,,California
yes,-104.7718759,39.5534899,hotel,Holiday Inn Denver-Parker-E470/Parker Rd,Parker,Colorado
yes,-121.5388994,38.6550439,hotel,Four Points by Sheraton Sacramento International Airport,Sacramento,California
yes,-75.1625868,39.9493682,hotel,Holiday Inn Express,Philadelphia,Pennsylvania
yes,-110.3957406,44.555064,hotel,Lake Yellowstone Hotel,,Wyoming
yes,-72.5046512,44.929361,hotel,Stateside Hotel & Base Lodge,,Vermont
yes,-78.7843237,35.7392586,hotel,Hampton Inn Raleigh/Cary,Cary,North Carolina
yes,-121.9480934,37.3208562,hotel,Hotel Valencia - Santana Row,San Jose,California
yes,-71.6842015,44.0843984,hotel,Indian Head Resort,,New Hampshire
yes,-97.6739918,30.4769197,hotel,Extended Stay America - Austin - Round Rock - South,Austin,Texas
yes,-90.2005267,38.6328508,hotel,The Last Hotel STL,Saint Louis,Missouri
yes,-105.9071234,37.4825387,hotel,Hampton Inn Alamosa,Alamosa,Colorado
yes,-67.1447393,18.2179212,hotel,Edificio A–Hotel Colegial,Mayagüez,Puerto Rico
yes,-106.620558,35.0512493,hotel,Sheraton Albuquerque Airport Hotel,Albuquerque,New Mexico
yes,-77.4274823,37.4664707,hotel,Hampton Inn Richmond South,Richmond,Virginia
yes,144.7754636,13.4939523,hotel,Onward Beach Resort: Onward Wing,Tamuning,Guam
yes,-122.0595687,37.9457712,hotel,Sonesta Select Pleasant Hill,Pleasant Hill,California
yes,-86.617879,33.6384965,hotel,Holiday Inn Express & Suites Birmingham NE - Trussville,Trussville,Alabama
yes,-112.1196623,36.0542638,hotel,Yavapai Lodge,Grand Canyon,Arizona
yes,-86.636133,33.6090459,hotel,Courtyard by Marriott Birmingham Trussville,Birmingham,Alabama
yes,-106.6198732,35.0591659,hotel,TownePlace Suites,Albuquerque,New Mexico
yes,-106.6210245,35.0593092,hotel,Fairfield Inn & Suites,Albuquerque,New Mexico
yes,-106.6225725,35.0603554,hotel,Holiday Inn Express Hotel & Suites Albuquerque Airport,,New Mexico
yes,-98.4751438,29.4211171,hotel,Holiday Inn Express & Suites San Antonio Rivercenter Area,San Antonio,Texas
yes,-78.7151827,42.9359465,hotel,Best Western Buffalo-Niagara International Airport,Buffalo,New York
yes,-104.9039786,39.7698821,hotel,Renaissance Denver Central Park Hotel,Denver,Colorado
yes,-122.0757293,37.3987817,hotel,Hampton Inn & Suites,Mountain View,California
yes,-118.3301925,34.100172,hotel,"Dream Hollywood, by Hyatt",Hollywood,California
yes,-122.682725,45.5253146,hotel,Oakwood,Portland,Oregon
yes,-83.5384997,42.4964569,hotel,Comfort Suites Wixom,Wixom,Michigan
yes,-84.3845568,33.7732076,hotel,Hotel Indigo Atlanta,Atlanta,Georgia
yes,-90.0651259,29.9539056,hotel,Bienville House Hotel,New Orleans,Louisiana
yes,-90.0662289,29.9545023,hotel,W New Orleans - French Quarter,New Orleans,Louisiana
yes,-97.0600461,36.1257593,hotel,Best Western Plus Cimarron Hotel & Suites,Stillwater,Oklahoma
yes,-87.6659266,41.8737639,hotel,Courtyard by Marriott Chicago at Medical District / UIC,Chicago,Illinois
yes,-118.8821296,34.8190422,hotel,Holiday Inn Express,Lebec,California
yes,-87.6332998,41.8841781,hotel,The Allegro Royal Sonesta Hotel Chicago Loop,Chicago,Illinois
yes,-87.6230284,41.8927983,hotel,"Inn of Chicago Magnificent Mile, an Ascend Collection hotel",Chicago,Illinois
yes,-87.6270869,41.8937619,hotel,Holiday Inn Express Chicago - Magnificent Mile,Chicago,Illinois
yes,-118.1624846,34.6773102,hotel,Holiday Inn Express Lancaster,Lancaster,California
yes,-118.1626032,34.6789292,hotel,Comfort Inn & Suites,Lancaster,California
yes,-118.1639055,34.6789695,hotel,SpringHill Suites Lancaster Palmdale,Lancaster,California
yes,-96.8043247,32.7752094,hotel,Omni Dallas Hotel,Dallas,Texas
yes,-121.9836329,37.3866374,hotel,The Plaza Suites Silicon Valley,,California
yes,-71.2814885,42.5367485,hotel,Courtyard,Billerica,Massachusetts
yes,-71.0605095,42.3706317,hotel,Residence Inn by Marriott Boston Harbor on Tudor Wharf,Boston,Massachusetts
yes,-70.9374599,42.5547171,hotel,Sonesta Select,Danvers,Massachusetts
yes,-70.6219775,41.5560148,hotel,Inn on the Square,,Massachusetts
limited,-122.2812342,37.870189,hotel,Howard Johnson Berkeley,Berkeley,California
yes,-71.4360529,42.0886034,hotel,Residence Inn Boston Franklin,Franklin,Massachusetts
yes,-96.7124175,40.8161981,hotel,Hyatt Place Lincoln Haymarket,Lincoln,Nebraska
yes,-71.7587762,42.5467335,hotel,DoubleTree by Hilton Hotel Leominster,Leominster,Massachusetts
yes,-70.2194271,41.6497499,hotel,Parkers River Resort,South Yarmouth,Massachusetts
yes,-71.5868542,42.3402402,hotel,Embassy Suites,Marlborough,Massachusetts
yes,-71.3876604,42.29791,hotel,Travelodge,Natick,Massachusetts
yes,-76.679746,39.2006042,hotel,Fairfield Inn & Suites Baltimore BWI Airport,Linthicum Heights,Maryland
yes,-75.6833539,41.3635542,hotel,TownePlace Suites by Marriott Scranton Wilkes-Barre,Moosic,Pennsylvania
yes,-70.6592164,41.9319723,hotel,Hilton Garden Inn Plymouth,Plymouth,Massachusetts
yes,-104.8144209,38.9368759,hotel,Embassy Suites by Hilton Colorado Springs,Colorado Springs,Colorado
yes,-109.5757671,38.6008731,caravan_site,Sun Outdoors Arches Gateway,Moab,Utah
yes,-75.9496572,39.6259143,caravan_site,Flying J - North East,,Maryland
limited,-81.8729637,26.5903021,hotel,La Quinta Inn Fort Myers Central,Fort Myers,Florida
yes,-117.9013087,33.8003047,hotel,Sonesta Anaheim Resort Area,Anaheim,California
yes,-81.4156091,40.8559922,hotel,Hampton Inn & Suites Canton,Canton,Ohio
yes,-81.4174385,40.8563187,hotel,Fairfield Inn & Suites,Canton,Ohio
yes,-81.4162385,40.8568968,hotel,Residence Inn Canton,Canton,Ohio
yes,-111.9001257,40.7665657,hotel,Hyatt House Salt Lake City/Downtown,Salt Lake City,Utah
yes,-104.7731385,39.8205152,hotel,La Quinta Inn & Suites Denver Airport DIA,Denver,Colorado
yes,-104.7753022,39.8239201,hotel,Embassy Suites by Hilton Denver International Airport,Denver,Colorado
yes,-77.2159466,38.9080383,hotel,The Westin Tysons Corner,Falls Church,Virginia
yes,-74.0293052,41.9396174,hotel,Best Western Plus Kingston Hotel and Conference Center,Kingston,New York
limited,-76.0654726,39.5894191,caravan_site,ONE9 - Perryville,,Maryland
yes,-89.4276157,43.072424,hotel,InnTowner Hotel,Madison,Wisconsin
yes,-104.7689312,39.9605064,hotel,Comfort Inn & Suites,Brighton,Colorado
yes,-121.918369,37.3654568,hotel,Sonesta Select San Jose Airport,San Jose,California
yes,-123.0399901,44.0836229,hotel,La Quinta,Springfield,Oregon
yes,-77.1411179,38.8166573,hotel,Fairfield Inn & Suites,Alexandria,Virginia
yes,-81.3558369,41.1523215,hotel,Kent State Hotel and Conference Center,Kent,Ohio
yes,-96.1120696,33.0980669,hotel,Hampton,Greenville,Texas
yes,-94.5912143,39.0395874,hotel,"The Raphael Hotel, Autograph Collection",Kansas City,Missouri
yes,-80.0064281,40.4417114,hotel,Wyndham Grand Pittsburgh Downtown,Pittsburgh,Pennsylvania
yes,-77.843857,35.9723897,hotel,Residence Inn Rocky Mount,Rocky Mount,North Carolina
yes,-77.8432953,35.9719318,hotel,Courtyard Rocky Mount,Rocky Mount,North Carolina
yes,-122.3146153,47.661613,hotel,Graduate Seattle,Seattle,Washington
limited,-111.8947527,40.7697571,hotel,Salt Lake Plaza Hotel,Salt Lake City,Utah
yes,-122.339762,47.6179537,hotel,La Quinta Inn & Suites Seattle Downtown,Seattle,Washington
yes,-122.3418404,47.6156089,hotel,Hotel Five,,Washington
yes,-122.3366004,47.6142172,hotel,Hotel Max,Seattle,Washington
yes,-122.3319563,47.6161551,hotel,Hilton Garden Inn Seattle Downtown,Seattle,Washington
yes,-104.8892851,39.597768,hotel,Residence Inn,Greenwood Village,Colorado
yes,-106.3823936,39.644085,hotel,Evergreen Lodge,Vail,Colorado
limited,-111.8945904,40.7646317,hotel,Holiday Inn Express Salt Lake City Downtown,Salt Lake City,Utah
yes,-111.8981224,40.7592009,hotel,Crystal Inn Hotel & Suites Salt Lake City - Downtown,Salt Lake City,Utah
yes,-72.9293138,41.3049523,hotel,New Haven Hotel,New Haven,Connecticut
yes,-77.6744866,43.2045451,hotel,Residence Inn By Marriott Rochester West/Greece,Rochester,New York
yes,-111.9300799,40.7737858,caravan_site,Salt Lake City KOA Holiday,Salt Lake City,Utah
limited,-106.4056308,39.6360064,hotel,Vail Residences at Cascade Village,Vail,Colorado
yes,-106.3931665,39.6422775,hotel,"The Ritz-Carlton Club, Vail",Vail,Colorado
yes,-111.4975357,40.6478401,hotel,Marriott's Summit Watch,,Utah
yes,-106.4201413,39.6297919,hotel,Highline Vail - a DoubleTree by Hilton,Vail,Colorado
limited,-105.3820212,39.5794553,hotel,Brook Forest Inn,Evergreen,Colorado
limited,-106.372823,39.6416379,hotel,Mountain Haus,Vail,Colorado
yes,-106.3685102,39.641183,apartment,the Wren at Vail,,Colorado
limited,-106.3724155,39.6399988,hotel,Christiana Lodge,,Colorado
yes,-106.3741025,39.6418079,hotel,Austria Haus,Vail,Colorado
yes,-111.8899542,40.5305824,hotel,Fairfield Inn Draper,Draper,Utah
yes,-77.650323,43.0581273,hotel,Microtel Inn & Suites,Henrietta,New York
yes,-111.4320878,40.6180252,camp_site,Jordanelle State Park McHenry Campground,Heber City,Utah
yes,-111.4261081,40.6198429,camp_site,Jordanelle State Park Hailstone Campground,Heber City,Utah
yes,-80.0072272,40.4479728,hotel,Residence Inn Pittsburgh North Shore,Pittsburgh,Pennsylvania
yes,-80.1213365,25.9307522,hotel,Newport Beachside Hotel & Resort,Sunny Isles Beach,Florida
yes,-77.628281,37.659402,hotel,Hilton Richmond Hotel & Spa/Short Pump,Richmond,Virginia
yes,-94.7861419,39.7224899,caravan_site,Loves' # 235 - St. Joseph,,Missouri
yes,-111.8990018,40.7557287,hotel,SpringHill Suites Salt Lake City Downtown,Salt Lake City,Utah
yes,-73.1807523,44.4702894,hotel,Holiday Inn,South Burlington,Vermont
limited,-106.6459689,37.6635881,hotel,Quality Inn & Suites,,Colorado
yes,-95.4653137,29.7364969,hotel,Hotel Indigo,Houston,Texas
limited,-119.5673692,37.7405193,camp_site,Lower Pines Campground,Yosemite National park,California
limited,-119.56661,37.7418301,camp_site,North Pines Campground,Yosemite National park,California
yes,-111.4961926,40.6433593,hotel,The Blue Church Lodge,Park City,Utah
yes,-91.6829991,47.0244364,hotel,Country Inn of Two Harbors,Two Harbors,Minnesota
yes,-117.9959742,33.8585658,hotel,Fairfield Inn & Suites Anaheim North/Buena Park,Buena Park,California
yes,-77.446613,37.5453393,hotel,Graduate Richmond,Richmond City,Virginia
yes,-81.6717386,36.1247651,hotel,Holiday Inn Express Blowing Rock South,Blowing Rock,North Carolina
yes,-81.6753997,36.1337694,hotel,Meadowbrook Inn,Blowing Rock,North Carolina
yes,-84.3872889,33.7812476,hotel,Home2 Suites by Hilton Atlanta Midtown,Atlanta,Georgia
yes,-75.8224791,38.8940543,hotel,Best Western,Denton,Maryland
yes,-146.0058401,63.0517786,caravan_site,Tangle Lake Campground,,Alaska
yes,-121.1052471,35.568755,hotel,El Colibri Hotel & Spa,Cambria,California
yes,-122.3341143,47.6069385,hotel,Kimpton Hotel Monaco Seattle,Seattle,Washington
yes,-148.6940719,60.7777294,hotel,The Inn at Whittier,,Alaska
yes,-106.9448868,39.2096544,hotel,Viceroy Snowmass,Snowmass Village,Colorado
limited,-75.6037307,35.2366865,camp_site,Frisco Campground,Frisco,North Carolina
limited,-72.9697755,43.5839101,hotel,Hampton Inn Rutland,Rutland,Vermont
yes,-80.0327524,26.7760956,hotel,Marriott’s Ocean Pointe,,Florida
yes,-84.387772,33.7783494,hotel,Renaissance Atlanta Midtown Hotel,Atlanta,Georgia
yes,-104.7975473,38.7930717,hotel,Fairfield Inn & Suites Colorado Springs South,Colorado Springs,Colorado
yes,-104.7967589,38.792447,hotel,Residence Inn Colorado Springs South,Colorado Springs,Colorado
yes,-104.797239,38.7899886,hotel,Hampton Inn & Suites Colorado Springs/I-25 South,Colorado Springs,Colorado
yes,-110.6932677,44.7382718,camp_site,Norris Campground,,Wyoming
limited,-110.4823407,44.7372084,camp_site,Canyon Campground,,Wyoming
yes,-110.7640277,43.482954,hotel,The Alpine House,Jackson,Wyoming
yes,-76.7055713,39.9086675,hotel,Holiday Inn Express & Suites,York,Pennsylvania
yes,-110.7784393,43.4737284,hotel,The Virginian Lodge,Jackson,Wyoming
yes,-97.740794,30.2795629,hotel,Hampton Inn & Suites Austin at The University/Capitol,Austin,Texas
yes,-84.5749189,34.0108296,hotel,Hilton Garden Inn,Kennesaw,Georgia
yes,-84.5757472,34.010891,hotel,Homewood Suites,Kennesaw,Georgia
yes,-84.5737654,34.0106953,hotel,Hampton Inn,Kennesaw,Georgia
yes,-69.9996623,41.9247826,camp_site,Wellfleet Hollow State Campground,Wellfleet,Massachusetts
yes,-75.1135384,39.7065046,hotel,Courtyard - Rowan University,Glassboro,New Jersey
limited,-124.1709575,40.8018011,hotel,Travelodge Eureka,Eureka,California
yes,-73.9945641,40.7639891,hotel,Holiday Inn Express,New York,New York
yes,-90.2188646,38.6267361,hotel,Residence Inn,Saint Louis,Missouri
yes,-111.9481959,40.7723279,hotel,Park Inn by Radisson,Salt Lake City,Utah
limited,-82.551136,35.5991736,hotel,Four Points by Sheraton Asheville Downtown,Asheville,North Carolina
yes,-97.6762848,30.406475,hotel,SpringHill Suites Austin Parmer/Tech Ridge,Austin,Texas
yes,-97.6764745,30.4073271,hotel,Fairfield Inn & Suites Austin Parmer/Tech Ridge,Austin,Texas
yes,-73.7898885,43.0691898,hotel,Hilton Garden Inn,Saratoga Springs,New York
yes,-122.0899109,37.5497107,camp_site,Dairy Glenn,,California
yes,-73.5895558,40.7461438,hotel,Hilton Garden Inn,Westbury,New York
yes,-97.0532404,36.1274976,hotel,Fairfield Inn,Stillwater,Oklahoma
yes,-74.1764379,40.6149563,hotel,Hilton Garden Inn,Staten Island,New York
yes,-111.4973929,40.6445944,hotel,Washington School House Hotel,Park City,Utah
yes,-95.8164437,36.0776761,hotel,Clarion Hotel,Broken Arrow,Oklahoma
yes,-79.0233391,35.9075844,hotel,Aloft,Chapel Hill,North Carolina
yes,-122.4104942,37.7785023,hotel,Carriage Inn,San Francisco,California
yes,-73.8908296,41.5283018,hotel,Holiday Inn Express,Fishkill,New York
yes,-122.4889616,48.3913895,guest_house,Heron Inn & Day Spa,La Conner,Washington
yes,-98.4255496,35.9364784,hotel,Roman Nose Lodge,,Oklahoma
yes,-95.9319237,41.2571477,hotel,"The Farnam, Autograph Collection",Omaha,Nebraska
yes,-73.9437063,41.0459145,hotel,Holiday Inn,Orangeburg,New York
yes,-87.7770392,33.986065,hotel,Hampton Inn,Winfield,Alabama
yes,-74.0030718,40.7239398,hotel,Sixty SoHo,,New York
yes,-73.999877,40.7197618,hotel,NoMo SoHo,,New York
yes,-114.0670333,40.7353961,caravan_site,Wendover KOA,Wendover,Nevada
yes,-81.9331754,34.9541135,hotel,Marriott,Spartanburg,South Carolina
yes,-76.9812269,38.5236596,hotel,Best Westen,,Maryland
yes,-79.9922001,40.4397391,hotel,Pittsburgh Marriott City Center,Pittsburgh,Pennsylvania
yes,-74.0273317,40.6243699,hotel,Best Western Gregory Hotel,Brooklyn,New York
yes,-76.7565525,35.850243,hotel,Holiday Inn Express,Plymouth,North Carolina
yes,-74.0054962,40.7253205,hotel,The Dominick,New York,New York
yes,-73.9276675,40.6921252,hotel,Artel 535,Brooklyn,New York
yes,-73.9272093,40.6921215,hotel,Holiday Inn Express,Brooklyn,New York
yes,-74.0047857,40.7193706,hotel,Roxy Hotel,New York,New York
yes,-95.8440809,36.294593,hotel,Candlewood Suites Owasso,Owasso,Oklahoma
yes,-97.5685275,35.5267563,hotel,Hampton Inn Oklahoma City-Northwest,Oklahoma City,Oklahoma
yes,-73.9871952,40.7218279,hotel,The Ludlow Hotel,,New York
yes,-111.9502776,40.773992,hotel,Holiday Inn Express & Suites Salt Lake City-Airport East,Salt Lake City,Utah
yes,-75.1701253,39.9566875,hotel,"The Logan Philadelphia, Curio Collection by Hilton",Philadelphia,Pennsylvania
limited,-123.0486702,38.4614084,caravan_site,Casini Ranch Family Campground,Duncans Mills,California
yes,-90.1956067,38.6287588,hotel,Le Méridien,Saint Louis,Missouri
yes,-122.1542269,47.5806826,hotel,Hyatt House Seattle/Bellevue,Bellevue,Washington
yes,-72.5471684,41.8045225,hotel,Fairfield Inn & Suites Hartford Manchester,Manchester,Connecticut
yes,-79.8395173,38.894089,hotel,Hampton,Elkins,West Virginia
yes,-88.7786803,41.9303119,hotel,Comfort Inn DeKalb,DeKalb,Illinois
limited,-88.7764865,41.9304061,hotel,Red Roof Inn - DeKalb,DeKalb,Illinois
yes,-122.4007499,37.7952194,hotel,"Club Quarters Hotel, San Francisco, Embarcadero",San Francisco,California
yes,-122.2014335,37.7292546,hotel,Holiday Inn Hotel & Suites Oakland Airport,Oakland,California
yes,-86.7830892,36.1633615,hotel,Sheraton Grand Nashville Downtown,Nashville,Tennessee
yes,-122.4098163,37.7893634,hotel,"Hotel Emblem San Francisco, a Viceroy Urban Retreat",San Francisco,California
yes,-76.4583452,39.3724601,hotel,Hilton Garden Inn,Nottingham,Maryland
limited,-122.4254328,37.7872456,hotel,Hotel Majestic,,California
yes,-97.6756523,30.4021913,hotel,Hilton Garden Inn Austin North,Austin,Texas
yes,-145.52046,62.5258556,caravan_site,Sourdough Creek Campground,,Alaska
yes,-88.8411183,42.2552338,apartment,Pearl Place Senior Apartments,Belvidere,Illinois
yes,-85.1857793,42.3244155,hotel,Baymont Inn & Suites,Battle Creek,Michigan
yes,-74.1652055,40.7354226,hotel,Hilton,,New Jersey
limited,-122.4173819,37.7840764,hostel,HI San Francisco City Center,San Francisco,California
yes,-122.4052455,37.7908959,hotel,Orchard Garden Hotel,San Francisco,California
yes,-85.5849816,42.9133824,hotel,Ramada Plaza,,Michigan
yes,-98.1230731,29.7013455,hotel,Faust Hotel & Brewing Company,New Braunfels,Texas
yes,-77.589571,43.1545593,hotel,Strathallan - a DoubleTree by Hilton,Rochester,New York
yes,-88.9668743,42.2685949,hotel,Candlewood Suites,,Illinois
yes,-88.9722159,42.2684761,hotel,La Quinta Inn & Suites Rockford,Rockford,Illinois
yes,-88.9694977,42.2731957,hotel,Staybridge Suites Rockford,Rockford,Illinois
yes,-88.9692195,42.2721652,hotel,Holiday Inn Rockford,Rockford,Illinois
yes,-94.4253051,35.3850081,hotel,Wyndham Fort Smith City Center,Fort Smith,Arkansas
yes,-106.4895278,31.7577137,hotel,"Hotel Paso Del Norte, Autograph Collection",El Paso,Texas
yes,-76.6866258,39.9320498,hotel,Hampton,York,Pennsylvania
yes,-80.010714,32.8688772,hotel,Hampton Inn Charleston-Airport/Coliseum,,South Carolina
yes,-80.2058566,40.2202909,hotel,Hampton Inn & Suites Pittsburgh-Meadow Lands,Washington,Pennsylvania
limited,-80.1290959,25.7925945,hotel,SLS South Beach,Miami Beach,Florida
yes,-95.8168555,36.0758763,hotel,Hampton Inn,Broken Arrow,Oklahoma
yes,-70.0997288,43.8571757,hotel,Hilton Garden Inn,Freeport,Maine
limited,-73.993094,40.7436363,hotel,Hampton Inn,New York,New York
yes,-73.9729533,42.0874368,hotel,Howard Johnson Inn,Saugerties,New York
yes,-73.9946167,40.7483403,hotel,Holiday Inn Express,New York,New York
yes,-73.9914088,40.7469639,hotel,DoubleTree,New York,New York
yes,-72.3133603,43.6293809,hotel,Best Western West Lebanon-Hanover,West Lebanon,New Hampshire
limited,-110.7367006,44.8855404,camp_site,Indian Creek,,Wyoming
yes,-73.9779329,40.7643728,hotel,West 57th Street,New York,New York
limited,-73.9754184,40.7616252,hotel,The Peninsula New York,New York,New York
yes,-73.980507,40.7634549,hotel,The Luxury Collection Hotel Manhattan Midtown,New York,New York
yes,-73.9819451,40.7644328,hotel,Dream Midtown,,New York
yes,-73.9831941,40.7674829,hotel,6 Columbus,New York,New York
yes,-73.9936688,40.7527452,hotel,The New Yorker,New York,New York
yes,-73.9865033,40.7478241,hotel,The Hotel @ 5th Avenue,,New York
limited,-73.9867054,40.7466211,hotel,Hotel Wolcott,New York,New York
limited,-73.9863456,40.7472697,hotel,nyma,New York,New York
yes,-73.9877177,40.748456,hotel,"Martinique New York on Broadway, Curio Collection by Hilton",New York,New York
yes,-73.9816235,40.7452724,hotel,The Marmara Park Avenue,,New York
yes,-73.9917876,40.7558368,hotel,Element,New York,New York
yes,-73.9928689,40.7565937,hotel,Distrikt Hotel,New York,New York
yes,-73.9930744,40.7566887,hotel,DoubleTree by Hilton Hotel,New York,New York
yes,-73.9928469,40.7562523,hotel,Hampton,New York,New York
yes,-73.9930889,40.7563538,hotel,Holiday Inn Express,New York,New York
yes,-73.9929719,40.7563047,hotel,Candlewood Suites,New York,New York
yes,-73.9865477,40.7504237,hotel,Hilton Garden Inn,New York,New York
yes,-73.9906766,40.7595565,hotel,Ramada,New York,New York
yes,-73.9645712,40.7578685,hotel,AKA Sutton Place,New York,New York
yes,-73.9710102,40.7532196,hotel,Vanderbilt YMCA,,New York
yes,-88.0988805,45.5780612,camp_site,Northland Camp & Conference Center,Dunbar,Wisconsin
yes,-73.9719891,40.7565929,hotel,The Benjamin Royal,New York,New York
yes,-73.9780936,40.7554023,hotel,Gotham Hotel,,New York
yes,-73.9925075,40.7564804,hotel,Fairfield Inn & Suites,New York,New York
limited,-73.9923481,40.7564136,hotel,Four Points by Sheraton,New York,New York
yes,-73.9916937,40.7561083,hotel,Aliz Hotel,New York,New York
yes,-73.9930832,40.7542669,hotel,Homewood Suites by Hilton,New York,New York
yes,-73.9870077,40.7596469,hotel,Paramount Hotel,,New York
yes,-73.9863819,40.7605234,hotel,The Gallivant,New York,New York
yes,-73.9851119,40.7606357,hotel,Crowne Plaza Times Square,New York,New York
yes,-73.982349,40.7559404,hotel,Algonquin Hotel,New York,New York
yes,-73.9821093,40.7559358,hotel,City Club Hotel,New York,New York
yes,-73.980205,40.7559294,hotel,Citadines Connect,New York,New York
yes,-73.9823932,40.7554052,hotel,Royalton New York,New York,New York
yes,-73.9837782,40.7577808,hotel,The Muse New York,New York,New York
yes,-73.9833872,40.7589411,hotel,Hotel Riu Plaza,New York,New York
yes,-73.9825628,40.7612693,hotel,The Michelangelo,,New York
yes,-73.981442,40.7623843,hotel,Sheraton New York Times Square Hotel,,New York
yes,-73.9690918,40.760518,hotel,Fitzpatrick,New York,New York
yes,-73.9695931,40.7607951,hotel,Hotel 57,New York,New York
yes,-73.9784686,40.7645746,hotel,Le Meridien,New York,New York
yes,-85.5377398,42.9065667,hotel,SpringHill Suites,Grand Rapids,Michigan
yes,-85.5377174,42.9076668,hotel,Hampton Inn & Suites,Grand Rapids,Michigan
yes,-81.4368712,41.6062624,hotel,Courtyard,Willoughby,Ohio
yes,-86.7746061,36.1576455,hotel,Hampton Inn & Suites Nashville Downtown,Nashville,Tennessee
yes,-86.1032077,42.7889798,hotel,Haworth Hotel,Holland,Michigan
yes,-84.3686634,33.8443037,hotel,Embassy Suites by Hilton Atlanta Buckhead,Atlanta,Georgia
yes,-93.1487606,45.0580097,hotel,Quality Inn & Suites Arden Hills - Saint Paul North,Arden Hills,Minnesota
yes,-84.3611254,33.8261847,hotel,TownePlace Suites,Atlanta,Georgia
yes,-84.386411,33.7862024,hotel,Atlanta Marriott Suites Midtown,Atlanta,Georgia
yes,-84.3853247,33.7861289,hotel,Four Seasons Hotel,Atlanta,Georgia
yes,-84.2394604,34.0924555,hotel,Hilton Garden Inn Atlanta North/Alpharetta,Alpharetta,Georgia
yes,-85.5324539,42.9121164,hotel,Best Western Hospitality Hotel & Suites,Grand Rapids,Michigan
yes,-85.5306573,42.9118263,hotel,Baymont Inn & Suites Grand Rapids Airport,Grand Rapids,Michigan
yes,-83.5238468,42.4887194,hotel,Staybridge Suites Detroit - Novi,Novi,Michigan
yes,-84.3869743,33.7635166,hotel,Hyatt Place Atlanta/Downtown,Atlanta,Georgia
yes,-90.1852357,32.3014703,hotel,Jackson Marriott,Jackson,Mississippi
yes,-73.9665306,40.7986679,hostel,Hostelling International New York City,New York,New York
yes,-122.2563014,37.8678835,hotel,Graduate Berkeley,Berkeley,California
limited,-90.0644519,29.9601584,guest_house,Bon Maison Guest House,New Orleans,Louisiana
yes,-80.1058197,26.1059666,hotel,Mariott Harbor Beach,Fort Lauderdale,Florida
limited,-122.4478151,38.236907,guest_house,A Captain's House,Sonoma,California
limited,-122.4628719,38.2934855,guest_house,Sonoma Farmhouse,Sonoma,California
limited,-122.4761764,38.2945414,hotel,Cinnamon Bear Creekside Inn,Sonoma,California
yes,-122.4823358,38.31302,hotel,Fairmont Sonoma Mission Inn & Spa,Sonoma,California
yes,-122.688199,38.4517302,hotel,Flamingo Conference Resort & Spa,Santa Rosa,California
yes,-122.5263959,38.363107,hotel,Jack London Lodge,Glen Ellen,California
yes,-79.6447116,40.0113045,guest_house,Seams Like Home,Vanderbilt,Pennsylvania
yes,-98.6422197,29.4411228,hotel,Springhill Suites San Antonio Seaworld/Lackland,San Antonio,Texas
yes,-83.354554,42.4975098,hotel,Extended Stay America,Farmington Hills,Michigan
yes,-104.9043939,39.7629197,hotel,DoubleTree by Hilton Hotel Denver,Denver,Colorado
yes,-81.6546183,41.3951398,hotel,Crowne Plaza Cleveland Independence,Independence,Ohio
yes,-74.0102166,40.7111301,hotel,Millennium,New York,New York
yes,-74.0092207,40.7090773,hotel,Holiday Inn,,New York
yes,-74.0123272,40.7038609,hotel,DoubleTree by Hilton,New York,New York
yes,-74.0102723,40.7045831,hotel,Wall Street Inn,New York,New York
yes,-75.5634726,39.7306691,hotel,The Westin Wilmington,Wilmington,Delaware
yes,-74.0072303,40.7055891,hotel,Holiday Inn Express,New York,New York
yes,-80.862149,35.5956277,hotel,La Quinta Inn & Suites,Mooresville,North Carolina
yes,-74.0059632,40.6799991,hotel,The Lodge Red Hook,Brooklyn,New York
yes,-73.9588975,40.7216309,hotel,Arlo Williamsburg,Brooklyn,New York
limited,-113.6119174,48.2786787,hotel,Izaak Walton Inn,,Montana
yes,-72.7729953,41.5278609,hotel,Comfort Inn,Meriden,Connecticut
yes,-74.0480972,40.7815358,hotel,Hilton Garden Inn Secaucus/Meadowlands,Secaucus,New Jersey
yes,-72.765107,41.5251131,hotel,Hawthorn Suites by Wyndham Hartford Meriden,Meriden,Connecticut
yes,-73.9858176,40.7633646,hotel,Hampton,New York,New York
yes,-73.951764,40.7495506,hotel,Wyndham Garden,Long Island City,New York
yes,-81.3787011,28.5589606,hotel,Doubletree by Hilton Hotel Orlando Downtown,Orlando,Florida
limited,-122.2634007,37.8347085,hotel,Maya Motel,Oakland,California
yes,-73.7993807,40.667301,hotel,Crowne Plaza,Jamaica,New York
yes,-86.5704423,39.1664984,hotel,Fairfield Inn & Suites Bloomington,Bloomington,Indiana
yes,-86.5701805,39.1683511,hotel,TownePlace Suites by Marriott Bloomington,Bloomington,Indiana
yes,-111.6455553,40.4318869,camp_site,Timpooneke Campground,,Utah
yes,-87.2897796,36.5982386,hotel,Courtyard Clarksville,Clarksville,Tennessee
limited,-87.2885854,36.5976414,hotel,Days Inn Clarksville North,Clarksville,Tennessee
limited,-87.2882781,36.5983741,hotel,InTown Suites Extended Stay Clarksville TN,Clarksville,Tennessee
limited,-87.2861129,36.5987839,hotel,Travelodge,Clarksville,Tennessee
yes,-76.4349549,40.2289804,hotel,Hampton Inn - Manheim / Hershey,Manheim,Pennsylvania
yes,-73.7908441,40.7402922,hotel,Courtyard By Marriott,Fresh Meadows,New York
yes,-73.7902471,40.7404266,hotel,Fairfield Inn & Suites By Marriott,Fresh Meadows,New York
yes,-149.8918757,61.220657,hotel,Anchorage Grand Hotel,Anchorage,Alaska
yes,-156.4495404,20.8884745,hotel,Courtyard Maui Kahului Airport,,Hawaii
yes,-85.4833282,32.6070181,hotel,Graduate Auburn,Auburn,Alabama
yes,-73.98819,40.7602096,hotel,Riu Plaza Hotel,New York,New York
yes,-122.4102032,37.7914015,hotel,InterContinental Mark Hopkins,San Francisco,California
yes,-122.4089796,37.7848798,hotel,Parc 55 Hotel,San Francisco,California
yes,-106.6209705,35.0550258,hotel,Best Western Airport Albuquerque InnSuites Hotel & Suites,Albuquerque,New Mexico
yes,-96.7710239,32.8867753,hotel,Sonesta Select Dallas Central Expressway,Dallas,Texas
limited,-119.9948846,38.1893488,camp_site,Pinecrest Campground,,California
yes,-84.4670244,33.8985646,hotel,Atlanta Marriott Northwest at Galleria,Atlanta,Georgia
limited,-84.5001831,33.6540597,hotel,Hampton Inn & Suites Atlanta Airport West/Camp Creek Pkwy,East Point,Georgia
yes,-84.341885,33.9133273,hotel,Hyatt Regency Atlanta Perimeter at Villa Christina,Atlanta,Georgia
yes,-86.2791529,33.6081226,hotel,Hampton,Pell City,Alabama
yes,-86.2759138,33.6076025,hotel,Comfort Suites,Pell City,Alabama
yes,-80.1223978,25.8142098,hotel,Lexington by Hotel RL,Miami Beach,Florida
yes,-73.9739838,40.7501683,hotel,The Westin New York,New York,New York
yes,-93.3530251,44.8618602,hotel,DoubleTree by Hilton Hotel Bloomington - Minneapolis South,Bloomington,Minnesota
yes,-73.9949568,40.7641558,hotel,Comfort Inn,New York,New York
yes,-74.0065011,40.7073582,hotel,Four Points by Sheraton,New York,New York
limited,-73.9860463,40.7504993,hotel,Holiday Inn Express,New York,New York
yes,-81.5146233,28.3770162,hotel,Hilton Orlando Buena Vista Palace Disney Springs Area,Lake Buena Vista,Florida
limited,-122.0114016,47.1068031,camp_site,Sunset Lake Camp,Wilkeson,Washington
yes,-81.8973911,35.021019,hotel,Hampton,Spartanburg,South Carolina
yes,-97.7072512,30.3072591,hotel,Residence Inn Austin-University Area,Austin,Texas
yes,-81.5570005,28.3661003,hotel,Disney's BoardWalk Villas,Lake Buena Vista,Florida
yes,-150.2308306,62.6258156,caravan_site,Lower Troublesome Creek Campground,,Alaska
limited,-108.6045692,39.1005581,hotel,Candlewood Suites Grand Junction NW,Grand Junction,Colorado
yes,-82.0154073,27.9959228,hotel,Hilton Garden Inn Lakeland,Lakeland,Florida
limited,-76.6945563,37.2684584,hotel,"Griffin Hotel, an official Colonial Williamsburg Hotel",Williamsburg,Virginia
yes,-87.8887136,47.4683164,hotel,The Mariner North Resort,Copper Harbor,Michigan
yes,-115.7474499,40.8493524,hotel,Maverick Hotel and Casino,Elko,Nevada
yes,-75.1413504,39.9454624,hotel,Hilton Philadelphia at Penn's Landing,Philadelphia,Pennsylvania
yes,-82.3371015,34.8562735,hotel,Hilton Greenville,Greenville,South Carolina
limited,-84.2803664,30.4461275,hotel,"Hotel Duval, Autograph Collection",Tallahassee,Florida
yes,-106.6198524,35.0619138,hotel,Extended Stay America,,New Mexico
yes,-106.621199,35.0620711,hotel,Residence Inn Albuquerque Airport,Albuquerque,New Mexico
yes,-122.6259833,48.8174272,hotel,Silver Reef Casino Resort,Ferndale,Washington
yes,-111.8867245,33.2879469,hotel,Hampton Inn & Suites Phoenix Chandler Fashion Center,Chandler,Arizona
yes,-111.8862212,33.2886383,hotel,Homewood Suites by Hilton Phoenix Chandler Fashion Center,Chandler,Arizona
yes,-77.3398257,37.5186398,hotel,Courtyard Richmond Airport,Sandston,Virginia
yes,-104.9928978,39.7415522,hotel,Hyatt Place Denver/Downtown,Denver,Colorado
yes,-80.0216378,32.8628518,hotel,"Home2 Suites by Hilton Charleston Airport/Convention Center, SC",North Charleston,South Carolina
yes,-80.4380935,25.0952283,hotel,Holiday Inn Key Largo Building 2,Key Largo,Florida
yes,-76.932187,38.9939993,hotel,Best Western Plus,College Park,Maryland
yes,-79.914783,40.456598,hotel,SpringHill Suites Pittsburgh Bakery Square,Pittsburgh,Pennsylvania
yes,-72.647249,41.5577677,hotel,The Inn at Middletown,,Connecticut
yes,-74.0049488,40.705899,hotel,Fairfield Inn New York Manhattan/Financial District,New York,New York
yes,-84.9318229,45.1620385,hotel,BoyneHof,,Michigan
yes,-118.4940554,34.0118525,hotel,The Pierside Santa Monica,Santa Monica,California
yes,-87.6256187,41.8870447,hotel,Hilton Garden Inn Chicago / North Loop,Chicago,Illinois
yes,-122.3942557,37.6660959,hotel,Sonesta Select San Francisco Airport Oyster Point Waterfront,South San Francisco,California
yes,-84.7597785,33.7306926,hotel,Holiday Inn Express,Douglasville,Georgia
yes,-84.7604805,33.7314262,hotel,La Quinta Inn & Suites Atlanta Douglasville,Douglasville,Georgia
yes,-116.8095157,47.6987129,hotel,Holiday Inn Express & Suites,Coeur d'Alene,Idaho
yes,-82.0568739,28.0313197,hotel,Fairfield Inn & Suites Lakeland Plant City,Plant City,Florida
yes,-81.6473558,41.1374849,hotel,Hampton Inn Akron-Fairlawn,Akron,Ohio
yes,-120.6884995,35.6448648,hotel,The Oaks Hotel,,California
yes,-104.901,39.6289711,hotel,Hilton Garden Inn Denver Tech Center,Denver,Colorado
yes,-104.9018356,39.6272332,hotel,Denver Marriott Tech Center,Denver,Colorado
yes,-86.1019699,42.7906805,hotel,Courtyard,Holland,Michigan
yes,-123.3035697,38.5534844,camp_site,Ocean Cove,,California
yes,-73.2042129,40.8198899,hotel,Residence Inn Long Island Hauppauge/Islandia,Hauppauge,New York
limited,-83.3746256,33.9638027,hotel,Hotel Abacus formerly Graduate Athens,Athens,Georgia
yes,-157.8236618,21.2790241,hotel,Aloha Surf Hotel,Honolulu,Hawaii
yes,-95.4281849,29.778309,hotel,Hampton Inn & Suites,Houston,Texas
limited,-111.8990438,40.7599546,hotel,Hampton Inn Salt Lake City-Downtown,Salt Lake City,Utah
yes,-90.1875631,38.6270226,hotel,Crowne Plaza,Saint Louis,Missouri
yes,-77.6312863,36.4339387,hotel,Holiday Inn Express & Suites Roanoke Rapids SE,Roanoke Rapids,North Carolina
yes,-115.1555269,36.1351097,hotel,Springhill Suites by Marriott Las Vegas Convention Center,Las Vegas,Nevada
yes,-122.2908361,47.4442391,hotel,Seattle Airport Marriott,Seattle,Washington
limited,-120.8396697,35.3471028,camp_site,Morro Bay State Park,Morro Bay,California
yes,-80.331891,26.1233905,hotel,La Quinta Inn & Suites Sunrise,Sunrise,Florida
yes,-77.1079758,38.8786906,hotel,Residence Inn Arlington Ballston,Arlington,Virginia
yes,-104.805144,41.1163967,hotel,Comfort Inn & Suites,Cheyenne,Wyoming
yes,-105.9425339,35.6850928,hotel,Piñon Court by La Fonda,Santa Fe,New Mexico
yes,-90.619691,38.7982176,hotel,Drury Inn & Suites,Saint Peters,Missouri
yes,-84.3878525,33.758276,hotel,"Ellis Hotel, Atlanta, a Tribute Portfolio Hotel",Atlanta,Georgia
yes,-95.7953271,36.0721854,hotel,Holiday Inn Express,,Oklahoma
yes,-95.7950679,36.0731238,hotel,Towne Place Suites,,Oklahoma
yes,-88.0296943,41.9475695,hotel,Hampton Inn & Suites - Addison,Addison,Illinois
yes,-87.9449329,42.2342549,hotel,"Hotel Indigo Chicago-Vernon Hills, an IHG Hotel",Vernon Hills,Illinois
yes,-117.9525037,34.2406469,camp_site,Glenn Camp Campground,,California
yes,-104.9017421,39.7735533,hotel,DoubleTree by Hilton Denver Central Park,Denver,Colorado
yes,-76.4822343,42.446348,hotel,The Statler Hotel,Ithaca,New York
yes,-94.8239353,38.8477726,hotel,Candlewood Suites Olathe - Kansas City Area,Olathe,Kansas
yes,-123.0776707,45.5207699,hotel,Best Western,Forest Grove,Oregon
yes,-81.5923627,28.337912,hotel,Comfort Inn Maingate,Kissimmee,Florida
yes,-120.7562215,35.1733691,caravan_site,Port San Luis RV Campground,,California
yes,-157.8275845,21.2826781,hotel,Coconut Waikiki Hotel,Honolulu,Hawaii
yes,-111.6656053,35.1742694,hotel,Sleep Inn,Flagstaff,Arizona
yes,-111.6660725,35.1744375,hotel,GreenTree Inn Flagstaff,Flagstaff,Arizona
limited,-111.6676651,35.1751567,hotel,Days Inn,Flagstaff,Arizona
yes,-97.4885627,35.2161382,hotel,Fairfield Inn & Suites,Norman,Oklahoma
yes,-79.8263293,36.0865764,hotel,O'Henry Hotel,Greensboro,North Carolina
yes,-117.850873,33.6814603,hotel,Sonesta,Irvine,California
yes,-117.2469508,32.773321,hotel,Bahia Resort Hotel,San Diego,California
yes,-122.2008866,47.6158988,hotel,Westin Bellevue,,Washington
yes,-90.0649491,29.9437051,hotel,New Orleans Marriott Warehouse Arts District,New Orleans,Louisiana
limited,-77.7467347,39.3218797,hotel,Quality Inn,,West Virginia
yes,-90.0656297,29.9477515,hotel,Harrah's Hotel,,Louisiana
yes,-90.0697134,29.9503375,hotel,InterContinental New Orleans,New Orleans,Louisiana
yes,-90.0749071,29.9528232,hotel,Holiday Inn New Orleans-Downtown Superdome,New Orleans,Louisiana
yes,-97.7382475,30.2652366,hotel,Hilton Austin,Austin,Texas
yes,-88.3375021,42.0918845,hotel,Comfort Inn Elgin,Elgin,Illinois
yes,-118.917128,34.1828568,hotel,Courtyard,Thousand Oaks,California
yes,-75.6257878,40.5771147,hotel,Delta Hotels by Marriott,Breinigsville,Pennsylvania
yes,-74.1720914,40.7346484,hotel,Hotel Indigo Newark Downtown,Newark,New Jersey
yes,-81.0810771,32.0785426,hotel,Marriott Savannah Riverfront,Savannah,Georgia
yes,-80.1820335,27.2106455,hotel,"Marriott Hutchinson Island Beach Resort, Golf & Marina",Stuart,Florida
yes,-81.7939953,24.5476971,hotel,"The Reach Key West, Curio Collection by Hilton",Key West,Florida
yes,-87.4448116,36.6429431,hotel,IHG Army Hotels Turner Guest House,,Kentucky
yes,-87.4453383,36.6428733,hotel,IHG Army Hotels Turner Guest House,,Kentucky
yes,-122.3382709,47.6136968,hotel,The Westin Seattle,Seattle,Washington
yes,-115.0490233,41.0277,camp_site,Angel Creek Campground,,Nevada
yes,-122.4068654,37.7835105,hotel,Hotel Zetta San Francisco,San Francisco,California
yes,-87.9021152,42.3443566,hotel,SpringHill Suites,Waukegan,Illinois
limited,-117.4522248,33.6524563,camp_site,Blue Jay Campground,,California
yes,-85.7520234,38.2017121,hotel,"Holiday Inn Louisville Airport - Fair/Expo, an IHG Hotel",Louisville,Kentucky
yes,-81.7620244,24.5711012,hotel,Havana Cabana at Key West,Key West,Florida
yes,-84.9316293,31.469079,camp_site,Kolomoki Campground,,Georgia
yes,-81.7722432,24.5526557,hotel,Margaritaville Beach House Key West,Key West,Florida
yes,-81.7903339,24.5475466,hotel,"Casa Marina Key West, Curio Collection by Hilton",Key West,Florida
yes,-84.3567178,33.9293858,hotel,SpringHill Suites Atlanta Perimeter Center,Atlanta,Georgia
yes,-80.3314563,26.1244414,hotel,La Quinta Inn & Suites Sunrise Sawgrass Mills,Sunrise,Florida
yes,-87.5691681,33.2101062,hotel,Embassy Suites,Tuscaloosa,Alabama
yes,-87.7564858,42.0653443,hotel,Residence Inn Chicago Wilmette,Wilmette,Illinois
yes,-85.5757792,38.2182079,hotel,Marriott Louisville East,Louisville,Kentucky
yes,-86.1586645,39.7696383,hotel,Sheraton Indianapolis City Centre Hotel,Indianapolis,Indiana
limited,-81.4337999,28.6139918,hotel,Geneva Motel,,Florida
yes,-86.1608569,39.766414,hotel,Hyatt Regency Indianapolis,Indianapolis,Indiana
yes,-86.1647931,39.7665075,hotel,Marriott Indianapolis Downtown,Indianapolis,Indiana
yes,-86.1637131,39.7664345,hotel,The Westin Indianapolis,Indianapolis,Indiana
yes,-98.4887104,29.5213951,hotel,Marriott San Antonio Airport,San Antonio,Texas
yes,-76.1877901,43.106491,hotel,Best Western Plus,Liverpool,New York
yes,-81.6682247,36.2153413,hotel,Sleep Inn,Boone,North Carolina
yes,-94.8109858,39.8169662,hotel,Candlewood Suites St. Joseph,Saint Joseph,Missouri
yes,-80.1219859,25.8842773,hotel,Grand Beach Hotel Surfside Restaurant,Surfside,Florida
yes,-76.188681,43.102531,hotel,Holiday Inn,Liverpool,New York
yes,-90.0622429,29.9604298,hotel,Hotel Royal,,Louisiana
yes,-90.0605088,29.9613448,hotel,Soniat House,,Louisiana
yes,-84.3588953,33.9184206,hotel,Hampton Inn Atlanta Perimeter Center,Atlanta,Georgia
yes,-120.2283501,34.4724326,camp_site,Gaviota Campground,,California
yes,-84.3911938,33.7528736,hotel,Fairfield Inn & Suites Atlanta Downtown,Atlanta,Georgia
yes,-75.2807216,40.7096953,hotel,Hampton,Easton,Pennsylvania
yes,-81.6052946,41.5079767,hotel,Courtyard Cleveland University Circle,Cleveland,Ohio
yes,-89.3916074,36.0678995,hotel,Hampton,Dyersburg,Tennessee
yes,-112.0214172,40.7739058,hotel,Best Western Plus Airport Inn & Suites,Salt Lake City,Utah
yes,-108.5682816,39.0676055,hotel,SpringHill Suites Grand Junction Downtown/Historic Main Street,Grand Junction,Colorado
yes,-118.1917361,33.7675303,hotel,Marriott Long Beach Downtown,Long Beach,California
yes,-122.4009199,37.6554074,hotel,Embassy Suites by Hilton San Francisco Airport,South San Francisco,California
yes,-122.6825969,45.5205989,hotel,Sentinel,Portland,Oregon
yes,-87.2256216,30.4952188,hotel,Courtyard Pensacola,Pensacola,Florida
yes,-121.4999838,43.6729991,hotel,Best Western Newberry Station,La Pine,Oregon
yes,-114.160842,34.2569333,caravan_site,Buckskin Mountain State Park,,Arizona
yes,-122.3391648,47.6073807,hotel,Four Seasons Seattle,Seattle,Washington
yes,-89.1666758,37.7425574,hotel,Hampton,Carbondale,Illinois
yes,-98.4294886,29.3507895,hotel,La Quinta Inn,San Antonio,Texas
yes,-111.8852954,40.6564886,hotel,Residence Inn,Murray,Utah
yes,-112.4033839,34.5483459,hotel,Holiday Inn Express Prescott,Prescott,Arizona
yes,-109.1757046,31.885209,camp_site,Sunny Flat Campground,,Arizona
yes,-70.1244276,43.8381887,hotel,Quality Suites Freeport,Freeport,Maine
yes,-158.1234032,21.3394235,hotel,"Aulani, A Disney Resort & Spa",Kapolei,Hawaii
yes,-98.4767748,29.6123489,hotel,Residence Inn San Antonio North Stone Oak,San Antonio,Texas
yes,-105.5473807,41.3073388,hotel,Hampton,Laramie,Wyoming
yes,-88.9722279,42.2720546,hotel,Comfort Inn Rockford,Rockford,Illinois
yes,-109.8721644,42.8658405,hotel,Best Western,Pinedale,Wyoming
yes,-156.7714388,71.2979121,hotel,Top of the World Hotel,Utqiaġvik,Alaska
yes,-83.6946112,32.614838,hotel,Candlewood Suites,Warner Robins,Georgia
yes,-97.3897398,27.8185257,hotel,DoubleTree by Hilton Corpus Christi Beachfront,Corpus Christi,Texas
yes,-97.3907339,27.8186603,hotel,Regency Inn,Corpus Christi,Texas
limited,-115.1627687,36.137543,hotel,Travelodge Las Vegas,Las Vegas,Nevada
yes,-81.6785007,30.490099,hotel,DoubleTree by Hilton Hotel,Jacksonville,Florida
yes,-94.586456,39.1034609,hotel,21c Museum Hotel,Kansas City,Missouri
yes,-85.5740409,42.9086145,hotel,Staybridge Suites,,Michigan
yes,-83.6965002,32.6170579,hotel,Hampton,Warner Robins,Georgia
yes,-83.6937737,32.6161593,hotel,Comfort Suites,Warner Robins,Georgia
yes,-90.0683446,29.9536365,hotel,Wyndham New Orleans French Quarter,,Louisiana
yes,-85.5740541,42.9098505,hotel,Extended Stay America - Grand Rapids - Kentwood,,Michigan
limited,-97.3401915,31.098153,hotel,Kyle Hotel,,Texas
yes,-122.5404256,45.5676192,hotel,Fairfield Inn & Suites,Portland,Oregon
yes,-122.5410179,45.5684067,hotel,Homewood Suites by Hilton Portland Airport,Portland,Oregon
yes,-111.9494487,40.699804,hotel,Crystal Inn Hotel & Suites,West Valley City,Utah
limited,-107.6894623,38.5438733,camp_site,Black Canyon of the Gunnison South Rim Campground,,Colorado
yes,-85.5754123,42.9077027,hotel,Holiday Inn,,Michigan
yes,-123.9235644,45.9940093,hotel,Holiday Inn Express & Suites Seaside-Convention Center,Seaside,Oregon
limited,-155.1274286,19.8972083,hotel,Hakalau Vacation Rental,Hakalau,Hawaii
yes,-107.3249923,38.4547809,camp_site,Lake Fork Campground,,Colorado
yes,-107.0920087,38.4868189,camp_site,Stevens Creek Campground,,Colorado
yes,-80.0910799,40.683633,hotel,Courtyard Pittsburgh North/Cranberry Woods,Cranberry Township,Pennsylvania
yes,-75.9192534,35.1263306,camp_site,National Park Service Ocracoke Campground,Ocracoke,North Carolina
yes,-122.8826143,45.5464709,hotel,Embassy Suites,Hillsboro,Oregon
yes,-95.9580794,41.1390421,hotel,Microtel Inn & Suites by Wyndham Bellevue/Omaha,Bellevue,Nebraska
yes,-122.6816161,45.5220125,hotel,Ace Hotel,Portland,Oregon
yes,-79.3732059,38.8440601,camp_site,Yokum's Campground,,West Virginia
yes,-157.828009,21.2813559,hotel,Courtyard Waikiki Beach,,Hawaii
yes,-117.6014033,33.4022575,camp_site,San Clemente State Park,,California
yes,-77.4603693,43.2161065,hotel,Hampton Inn Rochester-Webster,Webster,New York
yes,-83.3282829,30.8453419,hotel,Drury Inn & Suites,,Georgia
yes,-83.3250178,30.8435905,hotel,Hilton Garden Inn,Valdosta,Georgia
yes,-74.0051013,40.7057717,hotel,AC Hotel,New York,New York
yes,-79.9514826,40.3471418,hotel,SpringHill Suites,Pittsburgh,Pennsylvania
yes,-87.8646697,42.150509,hotel,Embassy Suites by Hilton Chicago North Shore Deerfield,Deerfield,Illinois
yes,-122.2526878,37.7880413,hotel,Homewood Suites by Hilton Oakland-Waterfront,Oakland,California
yes,-110.1361059,34.9323586,hotel,BEST WESTERN Arizonian Inn,Holbrook,Arizona
yes,-87.3621297,36.5286416,hotel,Riverview Inn,Clarksville,Tennessee
limited,-124.1483415,43.8808583,camp_site,Driftwood II,,Oregon
yes,-118.1675405,34.7027995,hotel,Best Western Plus Desert Poppy Inn,Lancaster,California
yes,-97.7038395,30.338426,hotel,Sonesta Select Austin North,Austin,Texas
yes,-75.2823623,40.1202792,hotel,DoubleTree Suites by Hilton Hotel Philadelphia West,Plymouth Meeting,Pennsylvania
yes,-106.5858326,35.1714858,hotel,Courtyard,Albuquerque,New Mexico
yes,-80.8375867,35.216505,hotel,Sheraton Charlotte Hotel,Charlotte,North Carolina
yes,-80.8385063,35.2169102,hotel,Le Méridien Charlotte,Charlotte,North Carolina
yes,-97.7923529,30.4750852,hotel,La Quinta Inn & Suites Austin NW/Lakeline Mall,Austin,Texas
yes,-97.6916868,30.5278803,hotel,Red Roof Inn,Round Rock,Texas
yes,-97.6914726,30.5273462,hotel,Extended Stay America Select Suites Austin - Round Rock,Round Rock,Texas
yes,-97.694096,30.5335825,hotel,Hilton Garden Inn,Round Rock,Texas
yes,-97.817609,30.241225,hotel,La Quinta Inn & Suites,Austin,Texas
yes,-97.2552294,34.7387181,hotel,Holiday Inn Express & Suites Pauls Valley,Pauls Valley,Oklahoma
yes,-97.2596725,34.7386607,hotel,Days Inn by Wyndham Pauls Valley,Pauls Valley,Oklahoma
yes,-97.6891115,30.526382,hotel,Days Inn by Wyndham Round Rock,Round Rock,Texas
yes,-97.6738485,30.4871885,hotel,Hampton Inn Austin-Round Rock,Round Rock,Texas
yes,-97.673807,30.485895,hotel,Residence Inn,Round Rock,Texas
yes,-97.954174,30.3220555,hotel,Mountain Star Hotel,Austin,Texas
yes,-97.6661265,30.4440506,hotel,Comfort Suites Pflugerville - Austin North,Pflugerville,Texas
yes,-97.6704332,30.4379427,hotel,Country Inn & Suites,Austin,Texas
yes,-97.7237035,30.4027443,hotel,Aloft Austin at The Domain,Austin,Texas
yes,-97.7555204,30.2377717,hotel,Colton House Hotel,Austin,Texas
yes,-86.789095,36.151304,hotel,Best Western Plus Music Row,Nashville,Tennessee
yes,-97.7459065,30.2230025,hotel,Wyndham Garden,Austin,Texas
yes,-97.8258855,30.237973,hotel,Extended Stay America,Austin,Texas
yes,-97.7551963,30.2126583,hotel,Sonesta Simply Suites Austin South,Austin,Texas
yes,-120.6834209,35.2448602,hotel,Hampton Inn & Suites San Luis Obispo,San Luis Obispo,California
limited,-79.1676827,33.4234071,hotel,Quality Inn,Pawleys Island,South Carolina
yes,-95.9689913,41.1483899,hotel,Courtyard Omaha Bellevue at Beardmore Event Center,Bellevue,Nebraska
yes,-88.778869,43.0875069,hotel,Comfort Suites,Johnson Creek,Wisconsin
yes,145.7170067,15.2162576,hotel,Hyatt Regency Saipan,Garapan,Northern Mariana Islands
limited,145.7209715,15.2082572,hotel,Century Hotel,,Northern Mariana Islands
yes,-78.1947441,38.9605629,hotel,Hampton Inn Front Royal,,Virginia
yes,-159.3148767,22.0783316,hotel,Coral Reef Resort,Kapaa,Hawaii
limited,-150.2294999,62.5581222,hotel,Mt. McKinley Princess Wilderness Lodge,,Alaska
limited,-95.336691,35.0041057,camp_site,Group Camp Number 2,,Oklahoma
yes,-85.5641515,42.9132746,hotel,Comfort Inn Airport,Grand Rapids,Michigan
yes,-88.9671679,37.743215,hotel,Drury Inn,Marion,Illinois
yes,-83.5081028,42.3914862,hotel,Holiday Inn Express Plymouth - Ann Arbor Area,Plymouth Township,Michigan
yes,-120.7027843,35.1836043,camp_site,Avila Koa Campground,,California
yes,-80.6551688,24.8999852,hotel,Amara Cay Resort,Islamorada,Florida
yes,-110.8773825,32.2198712,hotel,Residence Inn Tucson Williams Centre,Tucson,Arizona
yes,-110.8773586,32.2200535,hotel,Residence Inn by Marriott Tucson Williams Centre,Tucson,Arizona
yes,-118.3786936,34.0886458,hotel,Ramada Plaza West Hollywood Hotel & Suites,West Hollywood,California
yes,-118.3788929,34.0898308,hotel,Chamberlain West Hollywood,West Hollywood,California
yes,-112.0211882,40.7732844,hotel,Fairfield Inn & Suites Salt Lake City Airport,Salt Lake City,Utah
yes,-112.0228834,40.7747535,hotel,Hampton Inn & Suites Salt Lake City Airport,Salt Lake City,Utah
yes,-112.0240731,40.7752893,hotel,Clarion Inn Salt Lake City Airport,Salt Lake City,Utah
yes,-112.022997,40.7755138,hotel,Quality Inn & Suites Airport West,Salt Lake City,Utah
yes,-121.2626722,44.2601033,hotel,Eagle Crest Resort,Redmond,Oregon
yes,-112.0069972,40.7710086,hotel,Courtyard Salt Lake City Airport,Salt Lake City,Utah
yes,-112.0093863,40.772097,hotel,Springhill Suites Salt Lake City Airport,Salt Lake City,Utah
yes,-112.0094172,40.7728554,hotel,Hilton Garden Inn Salt Lake City Airport,Salt Lake City,Utah
yes,-112.0109735,40.7729213,hotel,Holiday Inn & Suites Salt Lake City-Airport West,Salt Lake City,Utah
yes,-95.5545777,29.9563249,hotel,Wingate by Wyndham,Houston,Texas
yes,-92.0412745,30.2200029,hotel,Hilton Garden Inn Lafayette/Cajundome,Lafayette,Louisiana
yes,-91.8557828,44.9030113,hotel,Quality Inn,,Wisconsin
yes,-98.4293862,29.3472165,hotel,Holiday Inn Express & Suites,San Antonio,Texas
yes,-85.5696757,42.9139693,hotel,Fairfield Inn & Suites Grand Rapids,Grand Rapids,Michigan
yes,-119.5092462,34.3925036,hotel,Holiday Inn Express,Carpinteria,California
yes,-81.7696283,32.41232,hotel,Hampton Inn Statesboro,Statesboro,Georgia
yes,-122.5469757,45.5687829,hotel,La Quinta Inn & Suites,Portland,Oregon
yes,-78.294844,36.0971461,hotel,Days Inn by Wyndham Louisburg,Louisburg,North Carolina
yes,-82.3236776,29.6506472,hotel,Hampton Inn & Suites Gainesville-Downtown,Gainesville,Florida
yes,-79.9208583,40.4058507,hotel,Courtyard by Marriott Pittsburgh West Homestead/Waterfront,West Homestead,Pennsylvania
yes,-80.3100808,25.7786332,hotel,DoubleTree by Hilton Miami Airport & Convention Center,Miami,Florida
yes,-111.8523264,33.3894429,hotel,GreenTree Inn & Suites - Phoenix Mesa,Mesa,Arizona
yes,-111.8521899,33.3896533,hotel,Residence Inn - Phoenix Mesa,Mesa,Arizona
yes,-78.4985133,38.0338378,hotel,Graduate Charlottesville,Charlottesville,Virginia
yes,-87.5210867,33.1976978,hotel,Holiday Inn Express & Suites Tuscaloosa-University,Tuscaloosa,Alabama
yes,-111.9009639,40.7668582,hotel,Courtyard Salt Lake City Downtown,Salt Lake City,Utah
yes,-122.3321214,47.6080905,hotel,Crowne Plaza Seattle Downtown,Seattle,Washington
yes,-112.6483686,38.2513313,hotel,Comfort Inn & Suites Beaver - Interstate 15 North;Comfort Inn & Suites,Beaver,Utah
limited,-72.4617339,41.4516445,hotel,Gelston House,East Haddam,Connecticut
yes,-111.0394907,45.6789031,hotel,The Lark,Bozeman,Montana
yes,-96.9210155,32.9056307,hotel,Renaissance Dallas North Hotel,Dallas,Texas
yes,-97.2647719,30.4247974,camp_site,Down Home Ranch,Elgin,Texas
yes,-81.3790719,28.5365293,hotel,Aloft Orlando Downtown,,Florida
yes,-81.3786001,28.5387365,hotel,"Grand Bohemian Hotel Orlando, Autograph Collection",,Florida
yes,-77.064021,42.1508506,hotel,Quality Inn,Corning,New York
yes,-75.9771286,36.8570167,hotel,Ramada,Virginia Beach,Virginia
yes,-82.5537242,27.3812043,hotel,Courtyard Sarasota Bradenton Airport,Sarasota,Florida
yes,-72.5505682,42.883609,hotel,"Riverside Hotel, an Ascend Hotel Collection Member",West Chesterfield,New Hampshire
yes,-98.6187611,29.461115,hotel,Residence Inn San Antonio SeaWorld/Lackland,San Antonio,Texas
yes,-119.3323813,35.353144,hotel,Best Western,Bakersfield,California
yes,-106.5016218,31.7729319,hotel,Hilton Garden Inn El Paso/University,El Paso,Texas
yes,-70.3408559,43.6398069,hotel,Portland Sheraton at Sable Oaks,South Portland,Maine
yes,-76.1866452,36.8440244,hotel,SpringHill Suites Norfolk Virginia Beach,Norfolk,Virginia
yes,-118.263549,33.872504,hotel,Hampton Inn & Suites,Carson,California
yes,-118.2692234,33.872014,hotel,Extended Stay America,Carson,California
yes,-76.3019836,36.8851947,hotel,SpringHill Suites Norfolk Old Dominion University,Norfolk,Virginia
yes,-77.6110636,43.0866485,hotel,Home2 Suites by Hilton Rochester Henrietta,Rochester,New York
yes,-75.6931527,36.0682596,hotel,Holiday Inn Express Kitty Hawk - Outer Banks,Kitty Hawk,North Carolina
yes,-110.9914707,31.8720365,hotel,Comfort Inn,Green Valley,Arizona
yes,-71.2857546,41.5205526,hotel,Ramada,,Rhode Island
yes,-117.1506021,32.7651083,hotel,Sheraton Mission Valley San Diego Hotel,San Diego,California
yes,-123.0609119,44.0454279,hotel,Holiday Inn Express Hotel & Suites Eugene,Eugene,Oregon
yes,-97.8025416,30.4746748,hotel,Home2 Suites,Cedar Park,Texas
yes,-118.4022995,37.3609812,hotel,Days Inn by Wyndham Bishop,Bishop,California
yes,-74.9619899,40.1237205,hotel,Sleep Inn & Suites,Bensalem,Pennsylvania
yes,-118.4724652,33.9869513,hotel,Hotel Erwin Venice Beach,Venice,California
yes,-74.9646917,40.1255009,hotel,Quality Inn & Suites,Bensalem,Pennsylvania
yes,-118.3908277,33.9466336,hotel,Sheraton Gateway Los Angeles Hotel,Los Angeles,California
yes,-83.572876,35.8004738,hotel,"The Wayback, Pigeon Forge, A Tribute Portfolio Hotel",Pigeon Forge,Tennessee
yes,-83.5607696,35.7953381,hotel,"Black Fox Lodge Pigeon Forge, Tapestry Collection by Hilton",Pigeon Forge,Tennessee
yes,-118.4538156,33.9875087,hotel,The Kinney Venice Beach,Marina Del Rey,California
limited,-68.320813,44.2933956,hotel,The Birches Bed & Breakfast and Cottages,Southwest Harbor,Maine
yes,-76.4981847,38.9781742,hotel,Graduate Annapolis,Annapolis,Maryland
yes,-83.6257649,41.3732174,hotel,Fairfield Inn & Suites Bowling Green,Bowling Green,Ohio
yes,-81.4631554,41.3951196,hotel,Hampton Inn,Solon,Ohio
yes,-81.463226,41.393404,hotel,Homewood Suites,Solon,Ohio
yes,-114.0632004,40.7375711,hotel,Rainbow Hotel and Casino,West Wendover,Nevada
limited,-77.4866044,39.6596414,camp_site,Owens Creek Campground,,Maryland
yes,-111.9609233,40.6960878,hotel,Embassy Suites by Hilton Salt Lake West Valley City,West Valley City,Utah
yes,-118.3962816,33.9825174,hotel,Hilton Los Angeles Culver City,Culver City,California
yes,-118.3936371,33.9831808,hotel,Four Points,Culver City,California
yes,-96.8589634,33.0815788,hotel,Residence Inn Dallas Plano/The Colony,The Colony,Texas
yes,-96.8578447,33.0819894,hotel,Fairfield Inn & Suites Dallas Plano/The Colony,The Colony,Texas
yes,-81.6956676,41.5027381,hotel,Hilton Cleveland Downtown,Cleveland,Ohio
yes,-77.7663584,39.3167598,hotel,Clarion Inn Conference Center,,West Virginia
yes,-77.7643359,39.31438,caravan_site,Harpers Ferry Civil War Battlefields KOA,,West Virginia
yes,-107.9270848,44.0201072,hotel,Comfort Inn Worland Hwy 16 to Yellowstone,Worland,Wyoming
yes,-96.8437648,32.9528986,hotel,Hilton Garden Inn Dallas/Addison,Addison,Texas
yes,-87.7469646,41.7725881,hotel,Hyatt Place Chicago/Midway Airport,Bedford Park,Illinois
yes,-89.3848079,43.072978,hotel,Best Western Premier Park Hotel,Madison,Wisconsin
yes,-80.7877752,32.1250247,hotel,Marriott's Monarch at Sea Pines,,South Carolina
yes,-80.7296553,32.1822612,hotel,Disney's Hilton Head Island Resort,,South Carolina
yes,-80.71718,32.1668261,hotel,Marriott Hilton Head Resort & Spa,Hilton Head Island,South Carolina
yes,-94.8291043,29.2678134,hotel,Baymont Inn & Suites Galveston,Galveston,Texas
yes,-118.2678533,34.0518233,hotel,The Mayfair Hotel,Los Angeles,California
yes,-111.3472795,41.8466406,camp_site,Willow Campground,,Utah
yes,-111.3441868,41.8458166,caravan_site,Birch Campground,,Utah
yes,-111.3401209,41.8458145,camp_site,Cottonwood Campground,,Utah
yes,-111.3353721,41.8450523,caravan_site,Big Creek Campground,,Utah
yes,-118.3009884,34.0621539,hotel,The Line,Los Angeles,California
yes,-118.2608398,34.0470169,hotel,O Hotel,Los Angeles,California
yes,-122.9466021,45.3194187,hotel,Allison Inn,Newberg,Oregon
yes,-105.1357256,39.5768683,hotel,Homewood Suites by Hilton Denver - Littleton,Littleton,Colorado
yes,-147.7323755,65.0844177,camp_site,Whitefish Campground & Boat Launch,,Alaska
yes,-83.0274917,42.5399355,hotel,Extended Stay America,,Michigan
yes,-115.1835432,36.0996213,hotel,Hampton Inn Tropicana,Las Vegas,Nevada
yes,-105.02463,40.5218866,hotel,Hilton Garden Inn,Fort Collins,Colorado
yes,-83.0524067,40.0074266,hotel,Homewood Suites by Hilton®,Columbus,Ohio
yes,-118.3455001,34.1558636,hotel,Hotel Amarano Burbank-Hollywood,Burbank,California
yes,-80.8898401,35.1594467,hotel,Sonesta Charlotte Executive Park,Charlotte,North Carolina
yes,-89.9935182,38.6006034,hotel,Fairfield Inn,Fairview Heights,Illinois
yes,-111.4871103,40.542147,camp_site,Cottonwood Campground,,Utah
yes,-117.2372696,47.6726754,hotel,Comfort Inn & Suites,Spokane Valley,Washington
limited,-110.255268,36.726258,hotel,Wetherill Inn,Kayenta,Arizona
yes,-73.7022936,42.6246759,hotel,Hampton Inn & Suites Albany-East Greenbush,East Greenbush,New York
yes,-80.264892,25.7811603,hotel,Sonesta Miami Airport,Miami,Florida
yes,-80.1240433,25.8060916,hotel,The Palms Hotel & Spa,Miami Beach,Florida
yes,-80.1237198,25.8067306,hotel,RIU Plaza,Miami Beach,Florida
yes,-157.8312069,21.2833603,hotel,Hotel Le Croix,Honolulu,Hawaii
yes,-80.3359657,25.8038912,hotel,Holiday Inn Miami-Doral Area,Miami,Florida
yes,-108.542208,39.1128293,hotel,DoubleTree by Hilton Grand Junction,Grand Junction,Colorado
yes,-108.7394733,39.1528412,hotel,La Quinta Inn,Fruita,Colorado
yes,-79.9794748,37.3090229,hotel,Residence Inn Roanoke Airport,Roanoke,Virginia
yes,-121.487014,38.5765003,hotel,Residence Inn by Marriott Sacramento Downtown at Capitol Park,Sacramento,California
yes,-81.5944753,28.3413414,hotel,Maingate Lakeside Resort,Kissimmee,Florida
yes,-118.4906468,36.0664637,camp_site,Lower Peppermint Campground,,California
yes,-111.914291,41.1394199,hotel,Best Western Plus Canyon Pines,South Ogden,Utah
yes,-95.362962,29.9375309,hotel,Extended Stay America,,Texas
yes,-118.3967155,33.9006685,hotel,The Belamar Hotel,,California
yes,-92.2726232,34.7441127,hotel,AC Hotel by Marriott Little Rock Downtown,Little Rock,Arkansas
yes,-118.501096,34.0187997,hotel,Huntley Santa Monica Beach,Santa Monica,California
yes,-118.3518896,33.9304961,hotel,Candlewood Suites Lax Hawthorne,"Hawthorne,",California
yes,-144.9272214,63.8193895,camp_site,Gerstle River Wayside,,Alaska
yes,-79.9361438,32.7883974,hotel,Hampton Inn & Suites,Charleston,South Carolina
yes,-118.3283731,33.3456509,hotel,Seaport Village Inn,Avalon,California
limited,-106.8084601,41.460437,caravan_site,Deer Haven RV Park,Saratoga,Wyoming
yes,-96.9672699,34.5047587,camp_site,Central Campground,,Oklahoma
yes,-96.9586799,34.5016115,camp_site,Cold Spring Campground,,Oklahoma
yes,-79.9336728,32.7864723,hotel,Courtyard - Charleston Historical District,Charleston,South Carolina
yes,-74.8706737,40.1874987,hotel,SpringHill Suites Philadelphia Langhorne,Langhorne,Pennsylvania
yes,-111.1029882,44.66085,hotel,Stage Coach Inn,West Yellowstone,Montana
yes,-78.7490483,42.0916017,camp_site,Red House Campground,,New York
yes,-111.2601136,40.314376,camp_site,Lodge Pole Campground,,Utah
limited,-92.3971395,43.698031,hotel,America's Best Value Inn & Suites,Spring Valley,Minnesota
yes,-81.024457,36.3845503,camp_site,Stone Mountain Group Campground,,North Carolina
limited,-73.153416,43.0747684,hotel,The Arlington Inn,Arlington,Vermont
yes,-118.3080117,34.1791332,hotel,Hotel Burbank,Burbank,California
yes,-80.0588618,26.4624909,hotel,Opal Grand Oceanfront Resort & Spa,Delray Beach,Florida
yes,-82.6486967,27.3990928,hotel,Zota Beach Resort,Longboat Key,Florida
yes,-96.7957044,32.7868974,hotel,Dallas Marriott City Center,Dallas,Texas
yes,-97.7185542,30.3991973,hotel,Home2 Suites,Austin,Texas
yes,-112.5088607,45.9544537,hotel,Copper King Hotel & Convention Center,Butte,Montana
yes,-77.0959347,38.9912274,hotel,"The Bethesdan Hotel, Tapestry Collection by Hilton",Bethesda,Maryland
yes,-156.4699007,20.8911328,hotel,Maui Seaside Hotel,Kahului,Hawaii
limited,-156.4717984,20.8905421,hotel,Maui Beach Hotel,Kahului,Hawaii
limited,-91.6661838,45.2927373,camp_site,Chetek River Campground,,Wisconsin
yes,-87.277546,36.6013552,hotel,Atrium Inn & Suites,Clarksville,Tennessee
yes,-87.2794235,36.6002493,hotel,Hilton Garden Inn,Clarksville,Tennessee
yes,-90.6763229,38.6998407,hotel,Research Park Inn St Louis West – Chesterfield,St. Charles,Missouri
yes,-74.1639579,40.0560267,hotel,Hilton Garden Inn,Lakewood,New Jersey
yes,-104.9878678,39.7441077,hotel,"The Brown Palace Hotel and Spa, Autograph Collection",Denver,Colorado
yes,-111.6404533,40.1891178,caravan_site,Springville / Provo KOA,Springville,Utah
yes,-87.2899647,36.5963376,hotel,Comfort Suites,Clarksville,Tennessee
yes,-87.2865385,36.600947,hotel,Value Place,Clarksville,Tennessee
limited,-73.985774,40.7543894,hotel,LUMA Hotel Times Square,New York,New York
limited,-111.6068156,35.2104352,hotel,Travelodge,Flagstaff,Arizona
yes,-149.8498831,60.4903715,caravan_site,Kenai Princess RV Park,,Alaska
yes,-72.3957951,41.0966522,hotel,Sound View Greenport,Greenport,New York
yes,-87.2824083,36.5969507,hotel,Red Roof Inn,Clarksville,Tennessee
yes,-87.2828633,36.5963389,hotel,Super 8 Clarksville-Northeast,Clarksville,Tennessee
yes,-87.2811541,36.5962248,hotel,Microtel Inn & Suites,Clarksville,Tennessee
yes,-87.2804595,36.5959041,hotel,La Quinta Inn & Suites,Clarksville,Tennessee
yes,-87.2851318,36.5956661,hotel,GuestHouse Clarksville,Clarksville,Tennessee
yes,-87.2840407,36.5955809,hotel,Baymont Inn & Suites Clarksville Northeast,Clarksville,Tennessee
yes,-87.2821862,36.595216,hotel,Gateway Inn & Suites Clarksville,Clarksville,Tennessee
yes,-87.2814096,36.5951165,hotel,Howard Johnson,Clarksville,Tennessee
yes,-146.3611802,64.9049577,camp_site,Tors Trail Campground,,Alaska
yes,-87.0439919,41.575536,hotel,Hilton Garden Inn Chesterton,Chesterton,Indiana
yes,-110.9331064,32.1258945,hotel,Baymont Inn & Suites Tucson Airport,Tucson,Arizona
yes,-120.8480885,47.6070453,camp_site,Ida Creek Campground,,Washington
yes,-90.0648513,29.9514008,hotel,The Westin New Orleans Canal Place,,Louisiana
yes,-95.9355211,41.2694721,hotel,Fairfield Inn & Suites Omaha Downtown,Omaha,Nebraska
yes,-84.3890072,33.7764427,hotel,Georgia Tech Hotel and Conference Center,,Georgia
limited,-120.1261898,37.843553,camp_site,Shabsters Tent Cabin,,California
yes,-95.6292969,36.3119481,caravan_site,Claremore Expo Center RV Park,,Oklahoma
yes,-122.2424236,37.7245156,hotel,Hampton Inn and Suites Oakland Airport - Alameda,Alameda,California
yes,-111.5874429,40.9249642,camp_site,Dixie Creek Campground,,Utah
yes,-111.5817609,40.8771692,camp_site,River's Edge Group Campground,,Utah
yes,-87.2863409,36.5931317,hotel,Home2 Suites by Hilton Clarksville/Fort Campbell,Clarksville,Tennessee
yes,-87.2834911,36.5944256,hotel,Hampton Inn & Suites,Clarksville,Tennessee
yes,-87.2846854,36.5939659,hotel,Candlewood Suites Clarksville,Clarksville,Tennessee
yes,-96.7973308,32.7893398,hotel,"HALL Arts Hotel Dallas, Curio Collection by Hilton",Dallas,Texas
yes,-122.6736236,45.5074324,hotel,Hyatt House Portland/Downtown,Portland,Oregon
yes,-118.3077181,34.1775064,hotel,Residence Inn,Burbank,California
yes,-71.2362613,42.5087556,hotel,DoubleTree by Hilton Hotel,Bedford,Massachusetts
yes,-118.5652425,34.3755857,hotel,La Quinta Inn & Suites Santa Clarita - Valencia,Stevenson Ranch,California
yes,-118.581044,34.4216752,hotel,Holiday Inn Express & Suites,,California
yes,-118.1714583,34.7012804,hotel,Hampton,Lancaster,California
yes,-81.4298311,40.8954708,hotel,Embassy Suites Akron-Canton Airport,North Canton,Ohio
yes,-85.2538394,41.029583,hotel,Staybridge Suites,,Indiana
yes,-94.1910782,36.0558988,hotel,Candlewood Suites,Fayetteville,Arkansas
yes,-87.9181206,43.0547276,hotel,Days Inn & Suites by Wyndham Milwaukee,Milwaukee,Wisconsin
yes,-95.7962128,36.0746371,hotel,La Quinta Inn & Suites,Broken Arrow,Oklahoma
yes,-82.422432,38.3955565,hotel,Fairfield Inn & Suites Huntington,Huntington,West Virginia
yes,-86.9255432,38.1168596,hotel,Santa's Lodge,Santa Claus,Indiana
yes,-81.3496278,41.111497,hotel,Holiday Inn Express,Kent,Ohio
limited,-81.3467409,41.109184,hotel,Hampton Inn,Kent,Ohio
yes,-77.0315742,38.9051023,hotel,Hotel Zena Washington DC,Washington,District of Columbia
yes,-98.4395099,35.9358871,camp_site,Turkey Roost,,Oklahoma
yes,-80.0147899,32.8655728,hotel,Residence Inn,North Charleston,South Carolina
yes,-73.9826387,40.6874504,hotel,Holiday Inn Brooklyn Downtown,,New York
yes,-90.0388806,30.3404628,camp_site,Fontainebleau Campground,,Louisiana
yes,-122.6826647,45.5144429,hotel,"Hotel Vance, Portland",Portland,Oregon
yes,-93.2261606,44.8575867,hotel,Hyatt Regency Bloomington - Minneapolis,Bloomington,Minnesota
yes,-97.1169019,36.1125513,hotel,Residence Inn,Stillwater,Oklahoma
yes,-150.162886,61.7750788,caravan_site,Willow Creek State Recreation Area,,Alaska
yes,-146.5454534,62.282783,caravan_site,Lake Louise State Recreation Area,,Alaska
yes,-82.5207261,40.7583284,hotel,M Star Hotel,Mansfield,Ohio
limited,-100.9078348,29.3418152,caravan_site,Hidden Valley RV Park,Del Rio,Texas
yes,-76.3076407,40.062872,hotel,Days Inn & Suites Lancaster,Lancaster,Pennsylvania
yes,-82.8283945,27.953497,hotel,Clearwater Beach Marriott Suites on Sand Key,Clearwater Beach,Florida
yes,-111.8686719,40.6311892,hotel,Crystal Inn Hotel & Suites,Murray,Utah
yes,-92.4113771,41.0185707,hotel,Hotel Ottumwa,Ottumwa,Iowa
yes,-122.3362245,47.6233705,hotel,Moxy Seattle North,Seattle,Washington
yes,-79.9614469,36.0758368,hotel,Four Points by Sheraton,Greensboro,North Carolina
yes,-122.3388784,47.6199666,hotel,citizenM,Seattle,Washington
yes,-97.2415633,37.7208193,hotel,Hilton Garden Inn Wichita,Wichita,Kansas
yes,-83.3494391,42.2437588,hotel,"Holiday Inn Detroit Metro Airport, an IHG Hotel",Romulus,Michigan
yes,-81.7601241,24.5715995,hotel,The Laureate Key West,Key West,Florida
yes,-118.2645229,34.0473293,hotel,Hotel Indigo,Los Angeles,California
yes,-157.8265202,21.2792386,hotel,"The Laylow, Autograph Collection",Honolulu,Hawaii
yes,-117.1667906,32.7175266,hotel,"Hotel Republic San Diego, Autograph Collection",San Diego,California
yes,-75.6821113,41.3634658,hotel,SpringHill Suites by Marriott Scranton Montage Mountain,Moosic,Pennsylvania
yes,-76.4790359,42.4803754,hotel,Homewood Suites,,New York
yes,-80.0315346,35.9964238,hotel,InTown Suites,High Point,North Carolina
yes,-83.4723984,33.5527908,hotel,Days Inn Madison,Madison,Georgia
yes,-83.0032963,39.9776262,hotel,Graduate Columbus,Columbus,Ohio
yes,-117.3501937,33.1563952,hotel,SpringHill Suites,Carlsbad,California
yes,-77.1457566,38.8674131,hotel,Comfort Inn Falls Church - Tysons Corner,Falls Church,Virginia
yes,-157.8301162,21.2844994,hotel,Club Wyndham Royal Garden at Waikiki,Honolulu,Hawaii
yes,-115.1744726,36.0908077,hotel,Four Seasons Hotel Las Vegas,Las Vegas,Nevada
yes,-117.8610991,33.6687231,hotel,Extended Stay America - Orange County - John Wayne Airport,Newport Beach,California
yes,-147.7452404,65.0786837,camp_site,Olnes Pond Campground,,Alaska
yes,-116.5438941,48.3113928,hotel,Hotel Ruby Ponderay,Ponderay,Idaho
limited,-75.9701352,40.1913149,camp_site,Sun Retreats Lancaster County,,Pennsylvania
yes,-123.8304085,46.1885338,hotel,Hotel Elliott Astoria,Astoria,Oregon
yes,-115.1581581,36.1137377,hotel,Fortune Hotel & Suites,Las Vegas,Nevada
yes,-111.6666814,35.1880328,hotel,DoubleTree,Flagstaff,Arizona
yes,-86.1180516,39.9119815,hotel,Ironworks Hotel,,Indiana
yes,-124.1017672,43.9760414,hotel,Le Chateau Inn,Florence,Oregon
yes,-97.7378356,30.2592266,hotel,Homewood Suites Austin Downtown,Austin,Texas
yes,-82.1103628,34.917603,hotel,Quality Inn,Duncan,South Carolina
yes,-82.1116949,34.9166976,hotel,Days Inn,Duncan,South Carolina
yes,-96.6509383,33.1345458,hotel,Residence Inn,Fairview,Texas
yes,-122.3344587,47.61486,hotel,Hyatt Regency Seattle,Seattle,Washington
yes,-148.9123825,63.3926269,caravan_site,Cantwell RV Park,Cantwell,Alaska
yes,-80.0538066,40.4193297,hotel,Hampton Inn Pittsburgh/Greentree,Pittsburgh,Pennsylvania
yes,-111.9705196,33.3181819,hotel,Sonesta Select Phoenix Chandler,Chandler,Arizona
yes,-82.7474545,27.7338207,hotel,Postcard Inn on the Beach,Saint Pete Beach,Florida
yes,-98.4722584,29.4199801,hotel,La Hacienda Inn,San Antonio,Texas
yes,-81.8030976,24.5591094,hotel,Ridley House - Key West Historic Inns,Key West,Florida
yes,-122.0193561,36.9732921,hotel,Hyatt Place Santa Cruz,Santa Cruz,California
yes,-84.7314598,45.7799705,hotel,Baymont Mackinaw City,Mackinaw City,Michigan
yes,-91.4055556,31.5624071,hotel,Natchez Grand Hotel,,Mississippi
yes,-104.7703373,39.819028,hotel,Residence Inn Denver Airport/Convention Center,Denver,Colorado
yes,-83.0006516,39.9688024,hotel,Sonesta Columbus Downtown,Columbus,Ohio
yes,-97.3922276,27.8003761,hotel,Omni Corpus Christi Hotel,Corpus Christi,Texas
yes,-81.3386934,41.6662432,hotel,Best Western,Mentor,Ohio
yes,-122.6757679,45.6128671,hotel,Holiday Inn Columbia Riverfront,Portland,Oregon
yes,-77.7578884,39.3352683,camp_site,Harpers Ferry Campground,,West Virginia
yes,-80.1928057,40.4603229,hotel,Pittsburgh Airport Marriott,Coraopolis,Pennsylvania
yes,-84.3815183,33.7870681,hotel,"The Starling Atlanta Midtown, Curio Collection by Hilton",Atlanta,Georgia
yes,-117.0394175,46.7343032,hotel,La Quinta Inn,Moscow,Idaho
yes,-107.4541023,44.0334429,camp_site,Ten Sleep RV Park,Ten Sleep,Wyoming
yes,-105.498339,44.2761584,hotel,La Quinta Inn,Gillette,Wyoming
yes,-76.5156927,42.4225074,hotel,Fairfield Inn & Suites,Ithaca,New York
yes,-122.2486721,47.2343783,hotel,Holiday Inn Express & Suites,Sumner,Washington
yes,-113.3026453,37.177086,hotel,Wingate by Wyndham Hurricane Near Zion National Park,Hurricane,Utah
yes,-97.6773151,30.4104618,hotel,Staybridge Suites Austin North - Parmer Lane,Austin,Texas
yes,-104.6077537,38.2671613,hotel,Courtyard - Pueblo Downtown,Pueblo,Colorado
yes,-104.6060091,38.2665586,hotel,SpringHill Suites Pueblo Downtown,Pueblo,Colorado
yes,-114.357086,34.4950794,caravan_site,Campbell Cove RV Park,Lake Havasu City,Arizona
limited,-79.9546471,40.4461877,hotel,Courtyard Pittsburgh University Center,Pittsburgh,Pennsylvania
yes,-121.8354624,45.3814366,camp_site,Lost Creek Campground,,Oregon
limited,-83.2471043,35.0778602,camp_site,Van Hook Glade Campground,,North Carolina
yes,-96.1024922,33.0975144,hotel,Comfort Suites,Greenville,Texas
limited,-86.8091959,36.1453756,hotel,Marriott,Nashville,Tennessee
yes,-86.7985199,36.1512002,hotel,Hampton,Nashville,Tennessee
yes,-84.3386515,33.9278096,hotel,Le Méridien Atlanta Perimeter,Atlanta,Georgia
yes,-80.963559,35.0271308,hotel,Courtyard,Fort Mill,South Carolina
yes,-97.6771127,30.4790841,hotel,Holiday Inn Express & Suites,Round Rock,Texas
yes,-87.5718795,33.2091467,hotel,Home2 Suites by Hilton Tuscaloosa Downtown University Boulevard,Tuscaloosa,Alabama
yes,-111.9254878,33.4860511,hotel,Courtyard Scottsdale Old Town,Scottsdale,Arizona
limited,-118.7221556,34.6000608,camp_site,Oak Flat,,California
yes,-81.7962217,24.5532198,hotel,Winslow's Bungalows - Key West Historic Inns,Key West,Florida
yes,-92.2855833,38.9624164,hotel,Fairfield Inn & Suites Columbia,Columbia,Missouri
yes,-92.284056,38.9622747,hotel,Residence Inn Columbia,Columbia,Missouri
yes,-72.2887526,43.7020322,hotel,Hanover Inn Dartmouth,Hanover,New Hampshire
yes,-81.4724142,28.4517315,hotel,Rosen Inn International,,Florida
yes,-81.4681173,28.4567842,hotel,The Enclave Suites,,Florida
yes,-122.6563657,45.5226981,hotel,Jupiter Next,,Oregon
yes,-73.6582093,40.6565413,hotel,Rockville Centre Hotel,Lynbrook,New York
yes,-72.5641686,41.8051665,hotel,Hampton,Manchester,Connecticut
yes,-97.3736977,30.3371966,hotel,Holiday Inn Express & Suites,Elgin,Texas
yes,-72.0884327,41.4924656,hotel,Sky Tower,,Connecticut
yes,-71.018368,42.2292649,hotel,Marriott Boston Quincy,Quincy,Massachusetts
yes,-86.1595654,39.9356255,hotel,Sonesta Select,Indianapolis,Indiana
yes,-80.9496983,33.9696023,hotel,Comfort Inn & Suites,Columbia,South Carolina
yes,-87.9428608,41.7472926,hotel,Delta Hotels by Marriott Chicago Willowbrook,Willowbrook,Illinois
yes,-122.20116,47.618258,hotel,Hyatt Regency Bellevue on Seattle's Eastside,Bellevue,Washington
yes,-90.6450875,40.4580526,hotel,Best Western,Macomb,Illinois
yes,-90.6460885,40.4569256,hotel,Hampton,Macomb,Illinois
yes,-111.6938057,35.1395922,hotel,Luke Air Force Base Recretion Area Hotel,,Arizona
yes,-122.2445807,47.4397406,hotel,TownPlace Suites - Seattle Southcenter,Kent,Washington
yes,-104.7989849,41.1634662,hotel,Staybridge Suites Cheyenne,Cheyenne,Wyoming
yes,-106.3939731,31.7926087,hotel,Hawthorn Suites by Wyndham El Paso Airport,El Paso,Texas
yes,-96.4418155,32.0718621,hotel,Holiday Inn Express,Corsicana,Texas
yes,-96.4421084,32.072734,hotel,Hampton,Corsicana,Texas
yes,-111.9402659,40.8314785,caravan_site,Pony Express RV Resort,North Salt Lake,Utah
yes,-72.5536179,42.8908665,hotel,Hampton Inn & Suites,Brattleboro,Vermont
yes,-90.0495715,35.1515303,hotel,Sheraton Memphis Downtown Hotel,Memphis,Tennessee
limited,-156.237662,20.7685116,camp_site,Hosmer Grove,,Hawaii
yes,-149.1418666,61.407819,caravan_site,Eklutna Lake Campground,,Alaska
yes,-75.4252408,40.6443268,hotel,Sonesta Select Allentown Bethlehem Airport,Bethlehem,Pennsylvania
limited,-70.8864453,42.8973422,hotel,Seabrook Inn,,New Hampshire
yes,-98.4462189,29.3495603,hotel,Embassy Suites,San Antonio,Texas
yes,-97.9353962,30.3094672,hotel,Sonesta Bee Cave Austin Hill Country,Bee Cave,Texas
yes,-95.3326784,29.9488019,hotel,Hampton Inn & Suites,Houston,Texas
yes,-87.918121,41.7620208,hotel,SpringHill Suites by Marriott Chicago Southwest at Burr Ridge/Hinsdale,Burr Ridge,Illinois
yes,-82.9073042,40.0589409,hotel,SpringHill Suites Columbus Easton,Columbus,Ohio
yes,-95.7928826,36.0737827,hotel,Stoney Creek Hotel & Conference Center,Broken Arrow,Oklahoma
yes,-90.578958,38.7960911,hotel,Courtyard St. Peters,Saint Peters,Missouri
yes,-96.7062418,40.8153101,hotel,Embassy Suites Lincoln,Lincoln,Nebraska
yes,-97.6872461,30.4820218,hotel,Hyatt Place Austin/Round Rock,Round Rock,Texas
yes,-111.656404,35.1947288,hotel,Canyon Inn Motel,Flagstaff,Arizona
yes,-92.9320684,44.9471665,hotel,Courtyard St. Paul Woodbury,Woodbury,Minnesota
limited,-77.9471747,34.2392433,hotel,Hampton Inn Wilmington Downtown,Wilmington,North Carolina
yes,-86.7807348,36.1551337,hotel,The Westin,Nashville,Tennessee
yes,-111.6638804,35.191938,hotel,High Country Motor Lodge,Flagstaff,Arizona
yes,-123.0380981,44.0822182,hotel,Holiday Inn Express Eugene - Springfield,Springfield,Oregon
yes,-123.0385041,44.083056,hotel,Courtyard Eugene Springfield,Springfield,Oregon
yes,-96.6825798,33.092448,hotel,Marriott Dallas Allen Hotel & Convention Center,Allen,Texas
yes,-80.6141023,28.3995659,hotel,Homewood Suites by Hilton Cape Canaveral-Cocoa Beach,Cape Canaveral,Florida
yes,-92.040525,30.1678367,hotel,SpringHill Suites,Lafayette,Louisiana
yes,-82.1036231,34.9124241,hotel,Home2 Suites,Duncan,South Carolina
yes,-85.2412278,41.0391506,hotel,Fairfield Inn & Suites Fort Wayne Southwest,Fort Wayne,Indiana
yes,-94.7971376,39.7765306,hotel,Hampton Inn,Saint Joseph,Missouri
yes,-94.7925303,39.7782316,hotel,Drury Inn & Suites St. Joseph,Saint Joseph,Missouri
yes,-94.7866279,39.7236085,hotel,GuestHouse St. Joseph,Saint Joseph,Missouri
yes,-94.7946856,39.7746802,hotel,Quality Suites St. Joseph,Saint Joseph,Missouri
yes,-94.796017,39.7790117,hotel,Stoney Creek Hotel and Conference Center,Saint Joseph,Missouri
yes,-87.173131,41.6058297,hotel,Affordable Suites of America,Portage,Indiana
yes,-122.4704493,48.7377505,hotel,Days Inn,Bellingham,Washington
yes,-112.355225,33.4953846,hotel,The Wigwam,Litchfield Park,Arizona
yes,-92.5820723,34.5805862,hotel,Fairfield Inn & Suites Little Rock Benton,Benton,Arkansas
yes,-106.0427821,39.475773,hotel,Residence Inn Breckenridge,Breckenridge,Colorado
yes,-86.8033581,33.5075862,hotel,Courtyard by Marriott Birmingham Downtown At UAB,Birmingham,Alabama
yes,-81.3588849,28.7881124,hotel,The Westin Lake Mary Orlando North,,Florida
yes,-86.8017677,33.5095664,hotel,SpringHill Suites Birmingham Downtown at UAB,Birmingham,Alabama
yes,-124.1318512,46.9474612,caravan_site,Quinalt RV PArk,Ocean Shores,Washington
yes,-78.8002456,35.7351887,hotel,Homewood Suites by Hilton Raleigh/Cary,Cary,North Carolina
yes,-97.0456841,32.960731,hotel,Homewood Suites,Grapevine,Texas
yes,-86.7982671,33.5041009,hotel,Residence Inn Birmingham Downtown at UAB,Birmingham,Alabama
yes,-83.7382284,42.230959,hotel,Staybridge Suites,Ann Arbor,Michigan
yes,-96.9685279,33.0086548,hotel,Homewood Suites by Hilton Dallas-Lewisville,Lewisville,Texas
yes,-122.8471545,46.0049264,hotel,McMenamins Kalama Harbor Lodge,Kalama,Washington
yes,-113.1772441,37.5365679,camp_site,Sweet Spot Camping Lot,Kanarraville,Utah
yes,-87.9876838,43.2964148,guest_house,Washington House Inn,,Wisconsin
yes,-86.7298789,40.332777,camp_site,Big Fish-N-Campground,Lafayette,Indiana
yes,-111.8549802,40.7228365,hotel,SpringHill Suites Salt Lake City Sugar House,Salt Lake City,Utah
yes,-84.5204475,42.7675821,hotel,Homewood Suites by Hilton Lansing Eastwood,Lansing,Michigan
yes,-88.1660759,41.8036289,hotel,SpringHill Suites Chicago Naperville/Warrenville,Warrenville,Illinois
limited,-122.7796171,46.6210963,caravan_site,Thousand Trails Chehalis,Chehalis,Washington
yes,-121.9287228,36.6274783,hotel,The Wilkie's Inn by Clarion Collection,Pacific Grove,California
yes,-147.4988566,65.1155576,guest_house,Chatanika Lodge,Fairbanks,Alaska
yes,-86.7891413,33.4792733,hotel,Aloft Birmingham Soho Square,Homewood,Alabama
yes,-147.2248891,64.7649969,camp_site,Chena Lake Campgriound,,Alaska
yes,-106.2666094,42.8544547,hotel,Comfort Inn,Evansville,Wyoming
yes,-124.3601382,47.8940487,camp_site,Bogachiel Campground,,Washington
yes,-96.7821385,32.7900023,hotel,Home2 Suites by Hilton Dallas Downtown at Baylor Scott & White,Dallas,Texas
yes,-74.0798899,41.043034,hotel,Hilton Woodcliff Lake,Woodcliff Lake,New Jersey
yes,-98.4882722,29.4262654,hotel,Hilton Garden Inn San Antonio Downtown Riverwalk,San Antonio,Texas
yes,-80.4485983,36.342512,caravan_site,Greystone RV Park,Pinnacle,North Carolina
yes,-98.4284727,29.3504578,hotel,Fairfield Inn & Suites,San Antonio,Texas
yes,-98.4289778,29.34634,hotel,Hampton Inn & Suites,San Antonio,Texas
yes,-85.7234764,30.139119,hotel,Bluegreen’s Bayside Resort & Spa,Panama City Beach,Florida
yes,-85.8440917,30.2064282,hotel,Hampton Inn & Suites Panama City Beach-Pier Park Area,Panama City Beach,Florida
yes,-90.3462593,38.7318475,hotel,Renaissance St. Louis Airport Hotel,St. Louis,Missouri
yes,-83.6436248,41.5281392,hotel,Home2 Suites,Perrysburg,Ohio
yes,-68.9935997,44.3019463,hotel,Point Lookout,Northport,Maine
yes,-97.0641114,32.765132,hotel,R Nite Star Inn & Suites,Arlington,Texas
yes,-76.4077563,39.3614266,hotel,Springhill Suites,Middle River,Maryland
limited,-124.132488,44.0359174,hotel,Driftwood Shores Inn,Florence,Oregon
yes,-122.2968445,47.4264,hotel,Holiday Inn Express & Suites Seattle-Sea-Tac Airport,Seatac,Washington
yes,-122.2969495,47.428166,hotel,Hampton Inn Seattle-Airport,Seatac,Washington
yes,-96.9658319,32.9974074,hotel,Fairfield Inn,Lewisville,Texas
yes,-96.9649326,32.9967758,hotel,Courtyard,Lewisville,Texas
yes,-96.9689986,32.999347,hotel,TownePlace Suites Dallas Lewisville,Lewisville,Texas
yes,-82.5318105,35.4448457,hotel,Holiday Inn & Suites Arden - Asheville Airport,Arden,North Carolina
yes,-111.9974803,33.4516025,hotel,Hilton Garden Inn Phoenix Airport North,Phoenix,Arizona
yes,-77.5816903,43.197454,hotel,Hampton,Rochester,New York
yes,-77.6038083,43.0847995,hotel,Extended Stay America,Rochester,New York
yes,-77.6170937,43.0856921,hotel,Hampton Inn & Suites,Rochester,New York
yes,-90.4566133,41.5208068,hotel,Hyatt House East Moline / Quad Cities,East Moline,Illinois
yes,-116.5320555,33.8240063,hotel,Courtyard Palm Springs,Palm Springs,California
yes,-111.0587001,45.7006315,hotel,SpringHill Suites Bozeman,Bozeman,Montana
yes,-75.6593908,40.2554596,hotel,Fairfield Inn & Suites Pottstown Limerick,Pottstown,Pennsylvania
limited,-81.156976,36.4300773,camp_site,Doughton Park Campground,,North Carolina
limited,-81.1570029,36.4271687,camp_site,Doughton Park Campground,,North Carolina
yes,-87.9587891,43.1801425,hotel,Four Points by Sheraton Milwaukee North Shore,Brown Deer,Wisconsin
yes,-85.2086359,34.9917628,hotel,Fairfield Inn & Suites Chattanooga South/East Ridge,East Ridge,Tennessee
yes,-96.9787954,33.0165727,hotel,Extended Stay America,,Texas
yes,-96.978019,33.0156072,hotel,Suburban Extended Stay Hotel Lewisville,Lewisville,Texas
yes,-97.8037179,30.4635214,hotel,Candlewood Suites,Austin,Texas
yes,-88.0468135,43.0606608,hotel,Renaissance Milwaukee West,Wauwatosa,Wisconsin
yes,-86.7504162,34.6719818,hotel,Home2 Suites by Hilton Madison Huntsville Airport,Madison,Alabama
yes,-81.3155114,29.8996997,hotel,Renaissance Saint Augustine Historic Downtown Hotel,Saint Augustine,Florida
yes,-120.0254329,34.4652056,caravan_site,Ocean Mesa RV & Campground,,California
limited,-69.0500794,44.2324086,camp_site,Camden Hills State Park Campground,,Maine
yes,-78.7756058,33.7691092,hotel,Royale Palms Condominiums,Myrtle Beach,South Carolina
yes,-78.7748601,33.7691248,hotel,Hilton Myrtle Beach Resort,Myrtle Beach,South Carolina
yes,-72.0853638,42.1133705,hotel,Holiday Inn Express,Sturbridge,Massachusetts
yes,-97.192179,32.8417383,hotel,Hilton Garden Inn Dallas at Hurst Conference Center,Hurst,Texas
yes,-89.3437052,43.0263475,camp_site,Lake Farm County Park Campground,,Wisconsin
yes,-106.6348773,35.0484657,hotel,Hampton Inn & Suites Albuquerque Airport,Albuquerque,New Mexico
limited,-120.8038166,38.3947932,guest_house,Hanford House Inn,Sutter Creek,California
limited,-120.8058066,38.396202,hotel,Inn at 161,Sutter Creek,California
yes,-81.3012824,35.2192037,camp_site,Group Campground,,North Carolina
yes,-89.8847448,35.1082614,hotel,Hampton Inn Memphis-Poplar,Memphis,Tennessee
limited,-82.0455353,33.5140297,hotel,Holiday Inn Express North Agusta,Augusta,Georgia
yes,-81.4648461,41.3945277,hotel,TownePlace Suites,Solon,Ohio
yes,-80.9017291,29.0389174,hotel,Hampton Inn New Smyrna Beach,New Smyrna Beach,Florida
yes,-84.3929958,33.7570146,hotel,"Glenn Hotel, Autograph Collection",Atlanta,Georgia
limited,-81.8752966,35.7575373,camp_site,Paddy's Creek Drive-In Campground At Lake James,,North Carolina
limited,-86.7509412,34.6713612,hotel,Avid Hotel by IHG,Madison,Alabama
yes,-86.7496745,34.6725951,hotel,Hilton Garden Inn Madison Huntsville Airport,Madison,Alabama
yes,-113.9991427,46.8740162,hotel,Mountain Valley Inn,Missoula,Montana
yes,-81.0048573,29.2214357,hotel,Fountain Beach Resort,,Florida
yes,-76.9399336,35.9852887,camp_site,Cashie River Campground,,North Carolina
yes,-75.1434022,38.2246204,caravan_site,Assateague State Park Campground,,Maryland
yes,-91.4103704,31.553688,hotel,Holiday Inn Express Hotel & Suites Natchez South,Natchez,Mississippi
yes,-111.9854935,46.5918201,hotel,Hampton Inn Helena,Helena,Montana
yes,-77.9509025,34.2389614,hotel,Hotel Ballast,Wilmington,North Carolina
limited,-101.9553883,33.5369497,hotel,Tru By Hilton Lubbock Southwest,Lubbock,Texas
limited,-85.3070771,35.039991,hotel,Moxy Chattanooga Downtown,Chattanooga,Tennessee
yes,-81.4620564,28.4599835,hotel,Universal's Endless Summer Resort – Dockside Inn & Suites,,Florida
limited,-83.3971596,34.7418368,camp_site,Terrora Campground,,Georgia
yes,-98.4760829,29.4208071,hotel,City View Inn & Suites,San Antonio,Texas
yes,-97.7438633,30.3981702,hotel,Holiday Inn Express & Suites,Austin,Texas
yes,-94.8322517,39.1309737,hotel,Homewood Suites,Kansas City,Kansas
yes,-112.0097512,40.771211,hotel,Homewood Suites by Hilton Salt Lake City Airport,Salt Lake City,Utah
yes,-112.0137786,40.7730002,hotel,DoubleTree by Hilton Hotel Salt Lake City Airport,Salt Lake City,Utah
yes,-112.0191369,40.7723862,hotel,Tru by Hilton Salt Lake City Airport,Salt Lake City,Utah
yes,-112.0198753,40.7722324,hotel,Comfort Inn & Suites Salt Lake City Airport,Salt Lake City,Utah
yes,-77.9521875,34.2411738,hotel,Best Western Plus Coastline Inn,Wilmington,North Carolina
yes,-96.9438483,32.8765893,hotel,The Westin Irving Convention Center at Las Colinas,Irving,Texas
limited,-79.0019727,34.3873421,camp_site,Princess Ann Campground,,North Carolina
limited,-79.3533535,34.9168791,camp_site,Chalk Banks Campground,,North Carolina
yes,-76.9325048,38.9931108,hotel,Cambria,College Park,Maryland
yes,-89.3399584,31.3492653,hotel,Holiday Inn Hattiesburg - North,Hattiesburg,Mississippi
yes,-151.265307,60.2949524,caravan_site,Johnson Lake Campgrpound,,Alaska
yes,-87.5265894,33.1727272,hotel,La Quinta Inn & Suites Tuscaloosa University,Tuscaloosa,Alabama
yes,-83.2726614,42.2981743,hotel,Staybridge Suites,Dearborn,Michigan
limited,-97.0053569,34.4944039,camp_site,Arbuckle RV Resort,Sulphur,Oklahoma
yes,-85.1985854,34.9883938,hotel,Best Western Plus Arbour Inn & Suites,East Ridge,Tennessee
yes,-94.3531702,32.4902977,hotel,Holiday Inn Express,Marshall,Texas
yes,-88.9552617,38.316816,hotel,DoubleTree by Hilton Mt Vernon,Mount Vernon,Illinois
yes,-92.0554382,32.4995362,hotel,Residence Inn Monroe,Monroe,Louisiana
yes,-86.4300423,36.9680441,hotel,Courtyard Marriott Bowling Green Convention Center,Bowling Green,Kentucky
yes,-87.924582,41.9317048,hotel,Holiday Inn Express & Suites Bensenville - O'Hare,Bensenville,Illinois
yes,-88.8773214,39.8130944,hotel,Hawthorn Suites,Decatur,Illinois
yes,-149.4408167,60.1580218,caravan_site,Seward KOA Journey,,Alaska
yes,-97.0101956,32.6740579,hotel,Holiday Inn Express Grand Prairie,Grand Prairie,Texas
yes,-114.6232737,34.8495101,hotel,Best Western Colorado River Inn,Needles,California
yes,-77.3542689,37.5242654,hotel,Four Points by Sheraton Richmond Airport,,Virginia
yes,-76.4829887,41.0129612,hotel,Comfort Suites,Buckhorn,Pennsylvania
yes,-111.9077313,40.9846795,hotel,Hyatt Place Salt Lake City/Farmington/Station Park,Farmington,Utah
yes,-82.7869601,40.0918719,hotel,Hampton Inn & Suites,New Albany,Ohio
yes,-73.9934855,40.7205812,hotel,citizenM,New York,New York
yes,-112.3893637,34.5169974,camp_site,Lynx Campground,,Arizona
yes,-96.1116883,33.093286,hotel,Holiday Inn Express & Suites,Greenville,Texas
yes,-84.4035026,39.1573671,hotel,Holiday Inn Express & Suites Cincinnati NE - Redbank Road,,Ohio
yes,-90.1602514,30.0004341,hotel,Fairfield Inn & Suites New Orleans Metairie,Metairie,Louisiana
yes,-74.1269709,42.0029314,hotel,Hotel Dylan,Woodstock,New York
yes,-80.178497,38.111415,camp_site,Riverside Campground,,West Virginia
yes,-72.2452248,43.6558266,hotel,Quality Inn,Lebanon,New Hampshire
yes,-83.6989209,32.6165796,hotel,Holiday Inn Express & Suites,Warner Robins,Georgia
yes,-83.697087,32.6189249,hotel,Hilton Garden Inn,Warner Robins,Georgia
yes,-104.775208,39.8230209,hotel,Tru by Hilton Denver Airport Tower Road,Denver,Colorado
yes,-113.3932513,37.2050595,camp_site,St. George/Hurricane KOA,Hurricane,Utah
yes,-102.2776878,39.2925349,hotel,Fairfield Inn & Suites Burlington,Burlington,Colorado
yes,-85.7384817,38.2535119,hotel,AC Hotel by Marriott Louisville Downtown,Louisville,Kentucky
yes,-86.1139384,40.4522482,hotel,Hampton Inn & Suites Kokomo,Kokomo,Indiana
yes,-119.0465987,35.3843562,hotel,Fairfield Marriot,Bakersfield,California
limited,-78.6017064,34.6795159,camp_site,Jones Lake Group Campground,,North Carolina
limited,-78.5994252,34.6801818,camp_site,Jones Lake Family Campground,,North Carolina
yes,-95.7605489,36.1678979,hotel,La Quinta Inn & Suites - Tulsa - Catoosa Route 66,Catoosa,Oklahoma
yes,-91.4056419,37.3123578,hotel,Betty Lea Lodge,Eminence,Missouri
yes,-97.4927448,35.392751,hotel,Residence Inn,Oklahoma City,Oklahoma
yes,-97.4919608,35.3932689,hotel,Wingate,Oklahoma City,Oklahoma
yes,-97.8018017,30.4750551,hotel,Aloft,Cedar Park,Texas
yes,-116.2130018,43.5756612,hotel,Comfort Suites,Boise,Idaho
yes,-117.906548,33.8084209,hotel,"The Viv Hotel, Anaheim, a Tribute Portfolio Hotel",Anaheim,California
yes,-94.0579597,38.8664339,camp_site,Powell's Creekside Haven (PCH),Kingsville,Missouri
yes,-75.8372297,38.8605242,camp_site,Martinak State Park Camp Loop B,Denton,Maryland
yes,-75.8360164,38.8624859,camp_site,Martinak State Park Camp Loop A,Denton,Maryland
yes,-82.9092663,40.0588937,hotel,Hampton Inn & Suites Columbus-Easton Area,Columbus,Ohio
yes,-82.9215011,40.060021,hotel,Holiday Inn Express & Suites Columbus - Easton Area,Columbus,Ohio
yes,-85.3112547,35.0511264,hotel,Holiday Inn Hotel & Suites Chattanooga Downtown,,Tennessee
yes,-75.561584,39.730468,hotel,Homewood Suites,Wilmington,Delaware
yes,-97.7268965,31.4353409,hotel,Days Inn by Wyndham Gatesville,Gatesville,Texas
yes,-108.5933384,33.3975102,camp_site,Ben Lilly Campground,,New Mexico
yes,-108.8830224,33.3243608,camp_site,Bighorn Campground,,New Mexico
yes,-85.4303821,32.6051622,hotel,Hilton Garden Inn Auburn/Opelika,Auburn,Alabama
yes,-108.3369729,35.0369563,camp_site,El Morro Campground,,New Mexico
yes,-105.7528925,33.4494946,camp_site,South Fork Campground,,New Mexico
yes,-77.03406,38.905369,hotel,The Madison Hotel,Washington,District of Columbia
yes,-77.031622,38.8964082,hotel,JW Marriott,,District of Columbia
yes,-77.0316376,38.9006663,hotel,Hilton Garden Inn,Washington,District of Columbia
yes,-77.023693,38.9015084,hotel,"The Westin Washington, DC Downtown",Washington,District of Columbia
yes,-77.0369558,38.9059379,hotel,Jefferson Hotel,,District of Columbia
limited,-76.7061932,38.7573229,camp_site,Jug Bay Natural Area Camping,,Maryland
yes,-73.8575449,41.0037065,hotel,Hilton Garden Inn,Dobbs Ferry,New York
yes,-85.1571883,35.0395849,hotel,Sonesta Select Chattanooga Hamilton Place,Chattanooga,Tennessee
yes,-80.3421298,33.9210295,hotel,Hyatt Place Sumter / Downtown,Sumter,South Carolina
yes,-77.0536644,38.9226849,hotel,Omni Shoreham Hotel,Washington,District of Columbia
yes,-73.4258349,41.1468745,hotel,EVEN Hotel Norwalk,Norwalk,Connecticut
yes,-77.0456564,38.9108169,hotel,"The Ven at Embassy Row, Washington, D.C., A Tribute Portfolio Hotel",Washington,District of Columbia
yes,-77.04637,38.905872,hotel,Saint Gregory Hotel & Suites,,District of Columbia
limited,-77.0528992,38.9002688,hotel,Arc Hotel Washington DC,Washington,District of Columbia
yes,-97.5567808,35.6023643,hotel,Aloft Oklahoma City Quail Springs,Oklahoma City,Oklahoma
yes,-97.408405,32.6814322,hotel,Home2 Suites,Fort Worth,Texas
yes,-83.1619472,42.5638974,hotel,Hampton Inn & Suites Detroit/Troy,Troy,Michigan
yes,-121.1072235,45.6446294,camp_site,Columbia Hills State Park Campground,,Washington
limited,-74.419942,42.3293878,hotel,Hideaway Hotel,,New York
yes,-111.641893,40.1888541,hotel,Holiday Inn Express Springville,Springville,Utah
yes,-114.9728143,41.1029075,caravan_site,Angel Lake RV Park,Wells,Nevada
yes,-111.4004743,40.1977523,camp_site,Balsam Campground,,Utah
yes,-111.4758872,40.1694698,camp_site,Cherry Campground,,Utah
yes,-86.8110598,36.1448509,hotel,Holiday Inn Nashville-Vanderbilt (Downtown),,Tennessee
yes,-77.252508,42.8790593,hotel,Holiday Inn Express Canandaigua - Finger Lakes,Canandaigua,New York
yes,-89.60638,39.7627212,hotel,Hilton Garden Inn,Springfield,Illinois
yes,-71.5872287,42.2874193,hotel,Hampton Inn Boston- Westborough;Hampton Inn Boston-Westborough,Westborough,Massachusetts
yes,-78.6480337,35.7796635,hotel,"The Casso, Raleigh, A Tribute Portfolio Hotel",Raleigh,North Carolina
yes,-104.9907751,40.4023691,hotel,Hawthorn Suites by Wyndham Loveland,Johnstown,Colorado
yes,-79.940604,32.7929952,hotel,Hyatt House,Charleston,South Carolina
yes,-77.02541,38.904386,hotel,Eldon Luxury Suites,Washington,District of Columbia
limited,-77.4624599,39.8171379,caravan_site,Peggy's Hill Parking Lot - Michaux Campsite #22,South Mountain,Pennsylvania
yes,-76.4948632,42.4400598,hotel,Canopy by Hilton Ithaca Downtown,Ithaca,New York
yes,-82.4078258,36.3356987,hotel,Courtyard by Marriott Johnson City,Johnson City,Tennessee
yes,-152.4525762,57.4602886,caravan_site,Pasagshak State Recreation Site,,Alaska
yes,-90.336443,38.647089,hotel,Le Meridien St. Louis Clayton,Clayton,Missouri
yes,-96.856408,33.0817718,hotel,Courtyard by Marriott Dallas Plano/The Colony,The Colony,Texas
yes,-122.9941511,44.9493346,hotel,Shilo Inn and Suites,Salem,Oregon
yes,-83.2769495,42.4843404,hotel,Detroit Marriott Southfield,Southfield,Michigan
yes,-80.752665,32.1451036,hotel,Courtyard Hilton Head Island,Hilton Head Island,South Carolina
yes,-114.4649494,42.5633774,hotel,The Fillmore Inn,Twin Falls,Idaho
yes,-72.2861782,43.6996931,hostel,Maynard House,Hanover,New Hampshire
yes,-87.3527572,36.529933,apartment,MAIN608,Clarksville,Tennessee
yes,-74.5832461,39.2702214,hotel,Port-O-Call Hotel,Ocean City,New Jersey
yes,-73.9926598,40.7538357,hotel,DoubleTree,New York,New York
yes,-79.9599185,40.4311984,hotel,Hotel Indigo,,Pennsylvania
yes,-87.631736,45.1005415,hotel,Best Western Riverfront Inn,Marinette,Wisconsin
yes,-75.1301902,39.9501865,hotel,Hilton Garden Inn,Camden,New Jersey
yes,-104.849836,39.5964159,hotel,Home2 Suites by Hilton Denver South,Centennial,Colorado
yes,-104.8534276,39.5965619,hotel,Holiday Inn & Suites Denver Tech Center-Centennial,Centennial,Colorado
yes,-81.0208875,36.3815827,camp_site,Stone Mountain Campground,,North Carolina
yes,-87.88722,42.0108387,hotel,Fairfield Inn & Suites Chicago O'Hare,Des Plaines,Illinois
yes,-73.989076,40.7456777,hotel,The Ritz-Carlton,New York,New York
yes,-117.9220853,33.8076959,hotel,Disney's Grand Californian Hotel,,California
yes,-81.3556501,28.7835769,hotel,Residence Inn Orlando Lake Mary,Lake Mary,Florida
yes,-81.3558452,28.7847031,hotel,Orlando Marriott Lake Mary,,Florida
yes,-122.0226316,37.4122544,hotel,AC Hotel by Marriott Sunnyvale Cupertino,Sunnyvale,California
yes,-122.0228265,37.412846,hotel,"TETRA Hotel, Autograph Collection",Sunnyvale,California
yes,-88.1156792,43.0234854,hotel,Residence Inn by Marriott Milwaukee Brookfield,Brookfield,Wisconsin
yes,-110.8786682,32.2199484,hotel,Courtyard Tucson Williams Centre,Tucson,Arizona
yes,-97.6686942,30.4466197,hotel,Best Western Plus Executive Residency Austin,Austin,Texas
yes,-96.0220014,41.2259566,hotel,Comfort Inn & Suites Omaha Central,Omaha,Nebraska
yes,-96.0224112,41.2276517,hotel,Ramada Plaza Hotel Resort & Convention Store,Omaha,Nebraska
yes,-96.0219505,41.2291644,hotel,Suburban Extended Stay Hotel,Omaha,Nebraska
yes,-74.7923717,39.0094804,apartment,Champagne Island Resort,,New Jersey
yes,-95.966729,41.2574285,hotel,Kimpton Cottonwood Hotel,Omaha,Nebraska
yes,-77.0848476,38.9607639,hotel,Embassy Suites by Hilton Washington DC Chevy Chase Pavilion,Washington,District of Columbia
yes,-80.1959946,25.7668301,hotel,AC Miami Hotel Downtown & Element Miami Downtown,Miami,Florida
limited,-71.0453771,42.3429414,hotel,Element Boston Seaport,Boston,Massachusetts
yes,-104.7694661,39.9600614,hotel,Candlewood Suites,Brighton,Colorado
yes,-104.7702002,39.9597338,hotel,Holiday Inn Express & Suites,Brighton,Colorado
yes,-103.7114488,39.2697176,hotel,Baymont Limon,Limon,Colorado
yes,-77.4063646,34.789163,hotel,Hampton Inn & Suites,Jacksonville,North Carolina
yes,-75.4608073,40.0667051,hotel,Embassy Suites by Hilton Philadelphia Valley Forge,Wayne,Pennsylvania
limited,-73.990357,43.6864163,hotel,Gore Mountain Lodge,North Creek,New York
yes,-71.0761826,42.3490607,hotel,The Fairmont Copley Plaza Hotel,Boston,Massachusetts
yes,-98.4615978,29.4399617,hotel,Best Western Plus,San Antonio,Texas
yes,-76.7996505,42.4831474,camp_site,Blueberry Patch Campground,,New York
yes,-113.9909792,46.8737787,hostel,Shady Spruce Hostel,Missoula,Montana
yes,-86.8212077,33.3680707,hotel,Holiday Inn Birmingham - Hoover,Hoover,Alabama
yes,-76.6111422,42.4089893,camp_site,Pinecreek Campground,Newfield,New York
yes,-105.4890129,39.8008466,hotel,Ameristar Black Hawk Hotel,Black Hawk,Colorado
yes,-77.7875479,42.7967374,hotel,Hampton,Geneseo,New York
yes,-84.3392188,33.8293828,hotel,Courtyard Atlanta Executive Park/Emory,Atlanta,Georgia
yes,-86.8209153,33.6505228,hotel,SpringHill Suites Birmingham Gardendale,Gardendale,Alabama
yes,-124.163893,47.0324385,camp_site,Ocean City State Park Campground,,Washington
yes,-85.1560122,35.0454034,hotel,Fairfield Inn & Suites by Marriott Chattanooga,Chattanooga,Tennessee
yes,-86.8061995,35.94743,hotel,Franklin Marriott Cool Springs,Franklin,Tennessee
yes,-86.827611,35.9366939,hotel,SpringHill Suites Franklin Cool Springs,Franklin,Tennessee
yes,-88.7003943,34.303244,hotel,Hampton Inn & Suites Tupelo/Barnes Crossing,Tupelo,Mississippi
yes,-73.1183808,40.9136993,hotel,Hilton Garden Inn Stony Brook,Stony Brook,New York
yes,-80.7536581,35.307045,hotel,Sonesta Select Charlotte University Research Park,Charlotte,North Carolina
yes,-77.3114288,42.3665902,caravan_site,Hammondsport-Bath KOA Resort,,New York
yes,-104.8147396,38.9345338,hotel,Fairfield Inn & Suites Colorado Springs Air Force Academy,Colorado Springs,Colorado
yes,-73.8206305,40.9534027,hotel,SpringHill Suites,Tuckahoe,New York
limited,-112.1838384,46.2543866,camp_site,Galena Gulch Campground,,Montana
yes,-70.8475792,42.5530427,hotel,Wylie Inn and Conference Center at Endicott College,Beverly,Massachusetts
yes,-110.9376111,34.3322537,camp_site,Spillway Campground,,Arizona
yes,-80.8910741,35.1800896,hotel,Embassy Suites by Hilton Charlotte,Charlotte,North Carolina
yes,-78.6337593,35.7745831,hotel,Guest House Raleigh,Raleigh,North Carolina
yes,-131.6865975,55.4311015,camp_site,Last Chance Campground,,Alaska
yes,-90.4338932,42.2916299,hotel,Off Shore Inn & Suites,Bellevue,Iowa
yes,-74.1857692,39.9645202,hotel,Howard Johnson's,,New Jersey
yes,-80.4567213,25.6828917,hotel,TownePlace Suites Miami Kendall West,Miami,Florida
yes,-117.7193537,33.6256327,hotel,Sonesta Select Laguna Hills Irvine Spectrum,Laguna Hills,California
limited,-68.811134,44.7890791,hotel,Howard Johnson by Wyndham Bangor,Bangor,Maine
yes,-90.262718,38.6442623,hotel,AC Hotel St. Louis Central/West End,St. Louis,Missouri
yes,-85.1603856,35.042876,hotel,Homewood Suites by Hilton Chattanooga-Hamilton Place,Chattanooga,Tennessee
yes,-72.7617044,41.7173142,hotel,Courtyard Hartford Farmington,Farmington,New Mexico
limited,-87.3517764,36.5267122,apartment,The Pheonix,Clarksville,Tennessee
limited,-87.3518304,36.5269192,apartment,Gracey Court Apartments,Clarksville,Tennessee
yes,-111.6353259,33.2546317,hotel,Hampton Inn Queen Creek,Queen Creek,Arizona
yes,-124.1476292,40.8049187,hotel,Clarion Hotel By Humboldt Bay,Eureka,California
limited,-77.4013736,39.9879618,caravan_site,Big Flat Parking Lot,Biglerville,Pennsylvania
limited,-77.4022604,39.9867049,caravan_site,Big Flat Parking Lot - Michaux Campsite #1,Biglerville,Pennsylvania
yes,-71.0380473,42.3442251,hotel,Hampton Inn & Homewood Suites,Boston,Massachusetts
yes,-94.4570001,37.1431247,hotel,Sleep Inn & Suites,Webb City,Missouri
limited,-76.6944595,38.5392963,camp_site,Water Trail Campsite,,Maryland
yes,-112.5312051,45.9939141,caravan_site,Butte KOA Journey Campgroung,Butte,Montana
yes,-93.5050547,44.96821,hotel,The Hotel Landing,Wayzata,Minnesota
yes,-87.5950799,41.7856058,hotel,The Study at the University of Chicago,Chicago,Illinois
yes,-111.4600799,36.9255778,hotel,Hyatt Place Page / Lake Powell,Page,Arizona
yes,-124.0825169,40.9016185,hotel,Hampton Inn & Suites,Arcata,California
yes,-100.4493607,31.4731813,hotel,Best Western,San Angelo,Texas
limited,-77.891874,36.2451234,camp_site,Medoc Mountain State Park Campground,,North Carolina
yes,-122.7814885,45.4555414,hotel,Embassy Suites,Tigard,Oregon
yes,-79.9548736,40.4451661,hotel,The Oaklander Hotel,Pittsburgh,Pennsylvania
yes,-84.5671326,34.0200917,hotel,Tru by Hilton Atlanta NW Kennesaw,Kennesaw,Georgia
yes,-97.6862299,30.6415596,hotel,Comfort Suites,Georgetown,Texas
yes,-97.6870976,30.6393136,hotel,Hampton Inn & Suites,Georgetown,Texas
yes,-97.6825635,30.6441526,hotel,Best Western Plus,Georgetown,Texas
yes,-97.7441958,30.4151983,hotel,Hilton Garden Inn Austin NW/Arboretum,Austin,Texas
yes,-124.1798668,40.7910904,hotel,Holiday Inn Express & Suites Eureka,Eureka,California
yes,-97.6805051,30.477634,hotel,TownePlace Suites,Austin,Texas
yes,-80.828282,35.1467057,hotel,Hampton Inn & Suites Charlotte/South Park at Phillips Place,Charlotte,North Carolina
yes,-119.8441229,34.4331164,hotel,Residence Inn,Goleta,California
yes,-111.7628917,33.6049712,hotel,"ADERO Scottsdale Resort, Autograph Collection",Scottsdale,Arizona
yes,-97.6985236,30.4334957,hotel,Texas Bungalows Hotel & Suites,Austin,Texas
yes,-105.6104,41.3245516,hotel,Days Inn,Laramie,Wyoming
yes,-110.7837584,43.4736223,hotel,Wyoming Inn of Jackson Hole,Jackson,Wyoming
yes,-83.0315992,42.5316711,hotel,Best Western Warren Hotel,Warren,Michigan
yes,-83.031652,42.5305747,hotel,Days Inn & Suites by Wyndham Warren,Warren,Michigan
yes,-87.9249564,43.2074831,hotel,Chalet Mequon,,Wisconsin
yes,-97.7593256,30.2621866,hotel,The Carpenter Hotel,Austin,Texas
yes,-86.8038631,33.6008362,hotel,Home2 Suites by Hilton Birmingham Fultondale,Fultondale,Alabama
yes,-86.7999235,33.6104982,hotel,Holiday Inn Express & Suites Birmingham North - Fultondale,Fultondale,Alabama
limited,-84.3868482,33.7769343,hotel,The Biltmore,Atlanta,Georgia
yes,-112.5097662,45.9860641,hotel,Holiday Inn Express & Suites,Butte,Montana
yes,-84.3427221,33.9214116,hotel,Hyatt Place Atlanta Perimeter Center,Dunwoody,Georgia
yes,-81.3112872,28.3664611,hotel,SpringHill Suites Orlando Lake Nona,Orlando,Florida
yes,-81.4521836,28.4698145,hotel,TownePlace Suites,Orlando,Florida
yes,-74.0727751,40.8243549,hotel,SpringHill Suites East Rutherford Meadowlands/Carlstadt,Carlstadt,New Jersey
yes,-74.015694,40.7149558,hotel,Conrad,New York,New York
yes,-90.0567893,35.1404677,hotel,Hyatt Centric Beale Street Memphis,Memphis,Tennessee
limited,-101.8250865,37.1356788,camp_site,Cimarron River Campground,,Kansas
yes,-96.113486,33.0923223,hotel,Best Western Plus,Greenville,Texas
yes,-87.6241906,30.6257995,caravan_site,Hilltop RV Park,,Alabama
yes,-74.5450023,40.5518838,hotel,Clarion,Somerset,New Jersey
yes,-97.8012652,30.4662607,hotel,Courtyard Austin Northwest/Lakeline,Austin,Texas
yes,-95.4482834,30.1797136,hotel,Courtyard,Shenandoah,Texas
yes,-79.8114725,40.4316172,hotel,Residence Inn,Pittsburgh,Pennsylvania
yes,-73.860354,44.3508047,camp_site,Wilmington Notch Campground,,New York
yes,-97.6237056,30.5292018,hotel,La Quinta Inn,Round Rock,Texas
yes,-82.5706104,27.966358,hotel,The Godfrey Hotel & Cabanas Tampa,Tampa,Florida
yes,-84.4848138,42.7358554,hotel,Graduate East Lansing,East Lansing,Michigan
yes,-80.7863787,28.5212828,hotel,Hyatt Place,Titusville,Florida
yes,-77.4005006,34.782064,hotel,"Home2 Suites by Hilton Jacksonville, NC",Jacksonville,North Carolina
limited,-78.4267885,42.9087082,camp_site,Darien Lakes State Park Campground,,New York
limited,-73.1568528,40.7142433,camp_site,Heckscher State Park Campground,,New York
limited,-87.9113837,42.150491,hotel,The Westin Chicago North Shore,Wheeling,Illinois
yes,-97.3361168,30.1057204,hotel,Comfort Suites,Bastrop,Texas
yes,-97.3346028,30.1050182,hotel,Quality Inn,Bastrop,Texas
yes,-97.3339695,30.1051749,hotel,Holiday Inn Express & Suites,Bastrop,Texas
yes,-97.3349235,30.1027236,hotel,Hampton Inn & Suites,Bastrop,Texas
limited,-78.8439533,42.0414101,camp_site,Cain Hollow,,New York
yes,-72.1068862,41.5561726,hotel,Courtyard,Norwich,Connecticut
limited,-107.2415975,39.169133,hotel,Redstone Castle,Redstone,Colorado
yes,-123.2909291,42.941794,hotel,Creekside Hotel & Suites,Canyonville,Oregon
yes,-97.3121467,32.9572594,hotel,WoodSpring Suites North Fort Worth Alliance Speedway,Fort Worth,Texas
yes,-89.7751387,35.2037425,hotel,Best Western Plus Galleria Inn & Suites,Memphis,Tennessee
yes,-80.9845751,29.1809724,hotel,The Shores Resort & Spa,Daytona Beach Shores,Florida
yes,-114.6729165,41.9894526,hotel,West Star (Hotel),Jackpot,Nevada
yes,-97.6485797,30.4842019,hotel,avid Hotel Austin,Round Rock,Texas
yes,-97.6535566,30.48318,hotel,Element Austin Round Rock,Round Rock,Texas
yes,-97.6542125,30.483033,hotel,Aloft Austin Round Rock,Round Rock,Texas
yes,-106.8166526,39.186346,hotel,W Aspen,Aspen,Colorado
yes,-92.4730204,31.3120639,hotel,Avalon Hotel & Suites Alexandria,Alexandria,Louisiana
yes,-91.8321538,30.3164867,hotel,Holiday Inn Express Breaux Bridge/Henderson,,Louisiana
yes,-90.5595902,29.6983554,hotel,Holiday Inn Express & Suites Raceland - Highway 90,Raceland,Louisiana
yes,-90.1351028,30.44403,hotel,Holiday Inn Express Covington-Madisonville,Covington,Louisiana
yes,-90.320413,29.4686335,hotel,Holiday Inn Express & Suites Cut Off - Galliano,,Louisiana
yes,-109.4473145,38.6804468,hotel,Red Cliff's Adventure Lodge,Moab,Utah
yes,-80.0693093,26.6911958,hotel,Delta Hotels by Marriott West Palm Beach,West Palm Beach,Florida
yes,-85.6445074,30.1912736,hotel,Courtyard Panama City,Panama City,Florida
yes,-85.6451497,30.1918535,hotel,TownePlace Suites Panama City,Panama City,Florida
yes,-80.2406523,25.7272419,hotel,"Hotel Arya, BW Premier Collection",Miami,Florida
yes,-82.5415002,27.3341738,hotel,Aloft,Sarasota,Florida
yes,-80.1227495,26.369108,hotel,Sonesta Select Boca Raton Town Center,Boca Raton,Florida
yes,-97.8032765,30.4624666,hotel,Homewood Suites,Austin,Texas
yes,-81.193,32.1907343,hotel,Fairfield Inn & Suites Savannah I-95 North,Port Wentworth,Georgia
yes,-80.3156111,25.6915573,hotel,AC Hotel by Marriott Miami Dadeland,Miami,Florida
yes,-111.9528964,40.6926326,hotel,SpringHill Suites Salt Lake City West Valley,West Valley City,Utah
limited,-77.4347722,39.8399787,caravan_site,Teaberry Parking Lot - Michaux Designated Motorized Campsite #21,Orrtanna,Pennsylvania
yes,-77.6052638,38.7891778,hotel,SpringHill Suites Gainesville Haymarket,Gainesville,Virginia
yes,-95.4588845,29.7423026,hotel,"The Chifley Houston, Tapestry Collection by Hilton",Houston,Texas
yes,-95.4647833,29.7833603,hotel,Crowne Plaza Houston Galleria Area,Houston,Texas
yes,-97.6769094,30.6557729,hotel,Holiday Inn Express & Suites Georgetown,Georgetown,Texas
yes,-106.4096928,31.7804879,hotel,Embassy Suites by Hilton El Paso,El Paso,Texas
yes,-97.8646519,30.0103633,hotel,Comfort Suites,Kyle,Texas
yes,-98.4739337,29.5181778,hotel,SpringHill Suites San Antonio Airport,San Antonio,Texas
yes,-97.7186916,30.3979171,hotel,Residence Inn Austin Northwest/The Domain Area,Austin,Texas
yes,-97.664557,31.9141331,hotel,American Inn & RV Park,Meridian,Texas
yes,-97.3571668,30.1095313,hotel,Best Western Bastrop Pines Inn,Bastrop,Texas
yes,-100.4445465,31.4597225,hotel,Econo Lodge San Angelo,San Angelo,Texas
yes,-98.6866056,29.4651104,hotel,Hilton San Antonio Hill Country,San Antonio,Texas
yes,-95.5505634,29.7345414,hotel,Marriott,Houston,Texas
yes,-97.3178224,30.1114129,guest_house,Pecan Street Inn,Bastrop,Texas
limited,-122.2597432,37.8599119,hotel,Rose Garden Inn,,California
yes,-97.8481599,30.3931694,hotel,Residence Inn Austin Lake/Austin River,Austin,Texas
yes,-97.7508557,30.2145371,hotel,Austin Southpark Hotel,Austin,Texas
yes,-85.7490325,42.8842042,hotel,Residence Inn Grand Rapids West,Grandville,Michigan
yes,-122.407741,37.785799,hotel,Hotel Union Square,,California
yes,-124.208287,40.6273417,hotel,Bear River Casino Resort,Loleta,California
yes,-119.3915608,36.3256699,hotel,Wyndham Visalia,Visalia,California
yes,-81.869885,31.5960455,hotel,Quality Inn,Jesup,Georgia
limited,-117.0632738,32.5594676,hotel,Quality Inn & Suites Near The Border,San Ysidro,California
yes,-83.6968465,32.6178884,hotel,Home2 Suites,Warner Robins,Georgia
yes,-97.363269,30.3361333,hotel,Quality Inn & Suites,Elgin,Texas
yes,-96.8219361,32.6339643,hotel,Sleep Inn Lancaster Dallas South,Lancaster,Texas
yes,-124.0903313,40.9028284,hotel,Ramada Arcata,Arcata,California
yes,-117.6677075,35.6405513,hotel,SpringHill Suites Ridgecrest,Ridgecrest,California
yes,-117.667551,35.6416228,hotel,Hampton Inn & Suites Ridgecrest,Ridgecrest,California
limited,-120.4587567,34.6559041,hotel,Embassy Suites by Hilton Lompoc Central Coast,Lompoc,California
yes,-74.2804957,39.9975019,hotel,Quality Inn,Manchester,New Jersey
yes,-86.6726621,34.7185619,hotel,The Westin Huntsville,Huntsville,Alabama
yes,-116.5406117,33.8277333,hotel,The Palm Springs Deauville,Palm Springs,California
yes,-116.5462424,33.8360017,hotel,Canyon Club Hotel,Palm Springs,California
yes,-84.9951223,41.7293114,hotel,"Comfort Inn - Fremont, IN",Fremont,Indiana
yes,-97.3610856,32.747662,hotel,Home2 Suites by Hilton Fort Worth Cultural District,Fort Worth,Texas
yes,-117.2652618,34.0650483,hotel,Fairfield Inn & Suites San Bernardino,San Bernardino,California
limited,-85.4269311,41.7603961,hotel,Hampton Inn Sturgis-Lagrange Area,Sturgis,Michigan
limited,-85.5255938,42.9120071,hotel,Crowne Plaza,Grand Rapids,Michigan
yes,-83.2440068,42.5810444,hotel,The Kingsley Bloomfield Hills - a DoubleTree by Hilton,Bloomfield Hills,Michigan
yes,-97.5231918,33.6948839,hotel,Texas Kings Hotel,Saint Jo,Texas
yes,-83.7407261,32.6604733,hotel,Holiday Inn Express & Suites,Byron,Georgia
yes,-83.7415405,32.659961,hotel,Comfort Suites,Byron,Georgia
yes,-97.6783071,30.6540054,hotel,Days Inn by Wyndham Georgetown,Georgetown,Texas
limited,-81.8007024,26.1750736,hotel,Best Western Naples Inn & Suites,Naples,Florida
yes,-105.1296168,39.7296129,hotel,TownePlace Suites Denver West/Federal Center,Golden,Colorado
yes,-79.297692,36.0671959,hotel,Fairfield Inn & Suites Mebane,Mebane,North Carolina
limited,-93.3218254,44.8829876,hotel,Homewood Suites Edina Minneapolis,Edina,Minnesota
yes,-97.9899206,29.8258399,hotel,Residence Inn San Marcos,San Marcos,Texas
yes,-97.5153754,35.4616196,hotel,Omni Hotel,Oklahoma City,Oklahoma
yes,-109.5500861,38.5754748,hotel,Homewood Suites by Hilton Moab,Moab,Utah
yes,-94.8097968,39.8154553,hotel,Holiday Inn Express & Suites St. Joseph,St. Joseph,Missouri
yes,-90.5275143,38.7783271,hotel,Candlewood Suites St. Louis - St. Charles,Saint Charles,Missouri
yes,-88.1155193,30.64707,hotel,Tru by Hilton Mobile,Mobile,Alabama
yes,-93.2831192,36.6180955,hotel,The Ozarker Lodge,Branson,Missouri
yes,-90.3709245,38.4628755,hotel,Best Western St. Louis Inn,"Saint Louis,",Missouri
yes,-93.2363448,44.8500715,hotel,Tru by Hilton Minneapolis Mall of America,Bloomington,Minnesota
yes,-111.9865281,33.4550009,hotel,Hampton Inn Phoenix-Airport North,Phoenix,Arizona
yes,-122.412263,37.7879207,hotel,The Andrews Hotel,San Francisco,California
yes,-86.6971195,36.2235169,hotel,Best Western Suites near Opryland,Nashville,Tennessee
yes,-97.497457,35.34756,hotel,SpringHill Suites Oklahoma City Moore,Moore,Oklahoma
yes,-73.9846208,40.8838284,hotel,Crowne Plaza,Englewood,New Jersey
yes,-80.3421882,25.6861912,hotel,Hilton Miami Dadeland,Miami,Florida
yes,-86.6929534,36.1461024,hotel,Sonesta Nashville Airport,Nashville,Tennessee
yes,-86.8184998,36.1095905,hotel,Hilton Nashville Green Hills,Nashville,Tennessee
yes,-86.8188895,36.1089105,hotel,Residence Inn Nashville Green Hills,Nashville,Tennessee
yes,-94.0146325,44.1875944,hotel,Days Inn,Mankato,Minnesota
yes,-86.1140941,30.3122257,apartment,BeachCrest Condominiums,Santa Rosa Beach,Florida
yes,-74.496405,40.4488501,hotel,Holiday Inn Express & Suites North Brunswick,North Brunswick,New Jersey
yes,-119.9538509,46.9234291,camp_site,Sand Hollow Campground - Walk-in,,Washington
yes,-119.9530543,46.9221049,camp_site,Sand Hollow Campground,,Washington
yes,-77.3988413,34.7810997,hotel,Fairfield Inn & Suites by Marriott Jacksonville,Jacksonville,North Carolina
yes,-78.8228483,35.8551122,hotel,Four Points by Sheraton Raleigh Durham Airport,Morrisville,North Carolina
yes,-77.8920701,34.0344808,hotel,Hampton Inn & Suites Carolina Beach Oceanfront,Carolina Beach,North Carolina
yes,-111.8359708,41.7729388,hotel,Holiday Inn Express & Suites Logan,Logan;North Logan,Utah
yes,-77.3998847,34.7813961,hotel,Sleep Inn & Suites Jacksonville Near Camp Lejeune,Jacksonville,North Carolina
yes,-117.9906554,33.7641342,hotel,Best Western Palm Garden Inn,Westminster,California
yes,-159.4434792,21.8718712,hotel,The Point at Poipu,Koloa,Hawaii
yes,-104.7700476,39.5566856,hotel,Hampton Inn & Suites Parker,Parker,Colorado
limited,-93.3465292,37.242873,hotel,La Quinta Inn & Suites Springfield Airport Plaza,Springfield,Missouri
yes,-78.9075215,33.6675261,hotel,Sandcastle Oceanfront Resort South Beach,Myrtle Beach,South Carolina
yes,-72.9127114,41.6535193,hotel,DoubleTree by Hilton Hotel Bristol,Bristol,Connecticut
yes,-97.7047141,30.2979344,hotel,Origin Hotel,Austin,Texas
yes,-84.56669,34.0123546,hotel,Comfort Inn Kennesaw,Kennesaw,Georgia
limited,-117.6932007,34.3900923,camp_site,Table Mountain Campground,Wrightwood,California
yes,-72.7687489,41.528065,hotel,Red Roof Inn,Meriden,Connecticut
yes,-86.7584644,33.5475223,hotel,Ramada Birmingham Airport,Birmingham,Alabama
yes,-121.9153858,48.9020362,camp_site,Douglas Fir Campground,,Washington
yes,-84.9344551,32.5491899,hotel,Homewood Suites,,Georgia
yes,-122.7655835,40.8860838,camp_site,Alpine View Campground,,California
yes,-84.9751021,32.5379882,hotel,Hilton Garden Inn,Columbus,Georgia
yes,-97.4604244,27.7577642,hotel,Fairfield Inn & Suites,Corpus Christi,Texas
yes,-97.7416275,30.2793395,hotel,Hilton Garden Inn,Austin,Texas
yes,-86.5757325,34.6703059,hotel,Hampton Inn & Suites,Huntsville,Alabama
yes,-83.4361705,35.4612586,camp_site,Deep Creek Campground,,North Carolina
yes,-84.2905877,30.4346536,hotel,Hampton,Tallahassee,Florida
yes,-86.0821513,42.8110784,hotel,Staybridge Suites Holland,Holland,Michigan
yes,-84.2903194,30.4360618,hotel,Residence Inn Tallahassee Universities at the Capitol,Tallahassee,Florida
yes,-81.771285,32.4064307,hotel,Home2 Suites by Hilton,Statesboro,Georgia
yes,-115.2431964,36.1927065,hotel,Sonesta Select Las Vegas Summerlin,Las Vegas,Nevada
limited,-71.4002605,43.57879,hotel,Fireside Inn & Suites at Lake Winnipesaukee,Gilford,New Hampshire
yes,-89.3727209,43.0822645,hotel,Hotel Indigo,,Wisconsin
yes,-87.2320311,33.8369099,hotel,Hampton Inn Jasper,Jasper,Alabama
yes,-87.5667356,37.9709335,hotel,Doubletree by Hilton Evansville,Evansville,Indiana
yes,-88.1057129,30.8051668,hotel,Hampton Inn & Suites Saraland Mobile,Saraland,Alabama
yes,-86.638908,34.7153608,hotel,Hilton Garden Inn Huntsville/Space Center,Huntsville,Alabama
yes,-86.7087253,33.4259686,hotel,Holiday Inn Express & Suites Birmingham/Inverness 280,Birmingham,Alabama
yes,-86.8233774,33.4502868,hotel,Drury Inn & Suites Birmingham Lakeshore Drive,Birmingham,Alabama
yes,-86.8232537,33.450966,hotel,Best Western Plus Carlton Suites,Birmingham,Alabama
yes,-86.8318402,33.4473869,hotel,Four Points by Sheraton Birmingham Homewood,Homewood,Alabama
yes,-86.8313077,33.4639618,hotel,Comfort Inn Birmingham Homewood,Birmingham,Alabama
yes,-86.7083724,33.4309589,hotel,La Quinta Inn Birmingham - Inverness,Birmingham,Alabama
yes,-86.2427995,32.3608061,hotel,Hilton Garden Inn Montgomery East,Montgomery,Alabama
yes,-88.1162487,30.6747688,hotel,Mobile Marriott,Mobile,Alabama
yes,-86.7609055,33.5440289,hotel,Holiday Inn Birmingham-Airport,Birmingham,Alabama
limited,-122.4081436,37.7862332,hotel,Herbert Hotel,,California
yes,-84.6072841,33.7722599,hotel,Hampton Inn & Suites,Lithia Springs,Georgia
yes,-84.606833,33.7747322,hotel,Baymont,Lithia Springs,Georgia
yes,-84.604833,33.7743272,hotel,Comfort Inn & Suites Near Six Flags,Lithia Springs,Georgia
yes,-120.99414,37.643884,hotel,Best Western Town House Lodge,Modesto,California
yes,-120.9940162,37.6440895,hotel,Best Western Town House Lodge,Modesto,California
yes,-120.9944154,37.6442043,hotel,Best Western Town House Lodge,Modesto,California
yes,-76.4972057,42.4406962,hotel,Hilton Garden Inn,Ithaca,New York
yes,-75.2139818,40.0158687,hotel,Residence Inn,Bala Cynwyd,Pennsylvania
yes,-78.0332988,41.7640507,hotel,Westgate Inn,Coudersport,Pennsylvania
yes,-106.6409504,39.3098856,camp_site,Chapman Campground,,Colorado
yes,-115.08415,41.0270432,camp_site,Angel Lake Campground,,Nevada
yes,-121.4710838,38.5702504,hotel,The Fort Sutter Hotel Sacramento,Sacramento,California
yes,-117.6706342,33.5460179,hotel,Hampton,Mission Viejo,California
yes,-117.8800192,33.616518,hotel,"VEA Newport Beach, a Marriott Resort & Spa",Newport Beach,California
limited,-77.4800488,39.8021546,caravan_site,Swift Run - Michaux Campsite #24,,Pennsylvania
limited,-77.2972021,40.0180402,caravan_site,Piney Mountain Parking Lot - Michaux Campsite #2,Gardners,Pennsylvania
yes,-84.577069,34.0297401,hotel,InTown Suites Extended Stay – KSU/Kennesaw,,Georgia
yes,-84.5777,34.0308045,hotel,Baymont By Wyndham Kennesaw,Kennesaw,Georgia
yes,-105.8218585,46.3985469,hotel,Sleep Inn & Suites,Miles City,Montana
yes,-86.6681905,45.7115164,camp_site,Fayette State Park Campground,,Michigan
yes,-88.7737605,41.923446,hotel,Hampton Inn - DeKalb,Dekalb,Illinois
yes,-92.3936675,34.8283004,hotel,Hampton Inn Maumelle,Maumelle,Arkansas
yes,-73.982912,40.7690103,hotel,Mandarin Oriental,New York,New York
yes,-92.4352406,35.1079998,hotel,Fairfield Inn & Suites Conway,Conway,Arkansas
yes,-72.0281952,44.0960019,camp_site,River Meadow Campground,North Haverhill,New Hampshire
limited,-122.68579,48.2197914,guest_house,Anchorage Inn Bed & Breakfast,Coupeville,Washington
yes,-97.3647156,27.7025167,hotel,La Quinta Inn & Suites Corpus Christi Southeast,Corpus Christi,Texas
yes,-78.8489373,38.4260929,hotel,Comfort Inn & Suites,Harrisonburg,Virginia
yes,-82.1862833,29.1535363,hotel,Holiday Inn Express & Suites Ocala,Ocala,Florida
limited,-84.5021998,39.1246675,hotel,Comfort Suites,Cincinnati,Ohio
limited,-86.4341731,35.8566715,hotel,Hyatt Place Murfreesboro,Murfreesboro,Tennessee
yes,-100.5476488,42.8684739,hotel,Harmony Inn,Valentine,Nebraska
yes,-117.2015081,33.5628349,hotel,Holiday Inn Express & Suites,Murrieta,California
yes,-122.2671923,37.8707509,hotel,Residence Inn Berkeley,Berkeley,California
yes,-76.0878472,43.0919401,hotel,Courtyard Syracuse,East Syracuse,New York
yes,-84.2286339,30.4263199,hotel,Fairfield Inn & Suites Tallahassee Central,Tallahassee,Florida
yes,-86.5316091,39.166277,hotel,Graduate Bloomington,Bloomington,Indiana
yes,-97.7260334,30.3949533,hotel,Lone Star Court,Austin,Texas
yes,-76.5913604,39.3000699,hotel,Residence Inn,Baltimore,Maryland
yes,-122.7307623,45.5531695,hotel,La Quinta Inn & Suites Portland NW,,Oregon
limited,-122.5286607,38.3666585,guest_house,Olea Hotel,Glen Ellen,California
yes,-95.392493,29.7775175,hotel,Courtyard by Marriott Houston Heights/I-10,Houston,Texas
yes,-77.0057653,38.8802166,hotel,AC Hotel Washington DC Capitol Hill-Navy Yard,Washington,District of Columbia
yes,-97.7435741,30.2690687,hotel,citizenM Austin Downtown,Austin,Texas
yes,-77.0526713,38.8586692,hotel,Crystal Gateway Marriott,Arlington,Virginia
yes,-80.9970749,29.2053568,hotel,Max Beach Resort,Daytona Beach Shores,Florida
yes,-119.7025303,39.5274011,hotel,Fairfield Inn & Suites,Sparks,Nevada
yes,-80.6959033,32.4432788,hotel,Holiday Inn & Suites,Beaufort,South Carolina
yes,-76.4539141,38.2735631,hotel,Navy Lodge,,Maryland
yes,-80.388187,36.0369321,hotel,Holiday Inn Express & Suites,,North Carolina
yes,-82.1357042,29.1866242,hotel,Hilton Garden Inn Ocala Downtown,Ocala,Florida
yes,-83.1235786,40.0972096,hotel,Residence Inn by Marriott Columbus Dublin,Dublin,Ohio
yes,-81.8977988,41.4760955,hotel,TownePlace Suites,Westlake,Ohio
yes,-81.8978383,41.4755002,hotel,Courtyard,Westlake,Ohio
yes,-81.4801959,41.1774891,hotel,Courtyard by Marriott Akron Stow,Stow,Ohio
yes,-97.7537535,30.2155315,hotel,Aloft Austin South,Austin,Texas
yes,-93.3538301,45.2064926,hotel,AmericInn by Wyndham Coon Rapids,Coon Rapids,Minnesota
yes,-109.7467434,32.8463967,hotel,SpringHill Suites Thatcher,Thatcher,Arizona
yes,-122.12525,38.221292,hotel,Comfort Inn Cordelia,Fairfield,California
yes,-120.6419724,35.1382529,hotel,Vespera Resort on Pismo Beach,,California
yes,-79.9405325,32.654472,hotel,The Tides,Folly Beach,South Carolina
yes,-88.559531,39.1365655,hotel,Fairfield Inn & Suites Effingham,Effingham,Illinois
yes,-89.6357617,40.7393234,hotel,SpringHill Suites,Peoria,Illinois
yes,-80.7445746,35.3104354,hotel,UNC Charlotte Marriott Hotel & Conference Center,Charlotte,North Carolina
yes,-81.4649814,28.3927591,hotel,WoodSpring Suites,Orlando,Florida
yes,-85.6796429,43.0192788,hotel,SpringHill Suites,Grand Rapids,Michigan
yes,-84.5662483,34.0116719,hotel,Holiday Inn Express,Kennesaw,Georgia
yes,-97.4877156,35.2280118,hotel,Courtyard,Norman,Oklahoma
yes,-97.4142355,31.4432564,hotel,Atria Hotel and RV McGregor,McGregor,Texas
yes,-92.3928312,34.752474,hotel,Delta Hotel by Marriott,Lttle Rock,Arkansas
yes,-80.1227057,25.8888488,hotel,The St. Regis Bal Harbour Resort,Miami Beach,Florida
yes,-123.9602432,45.9013492,guest_house,Sea Sprite on the Estuary,Cannon Beach,Oregon
yes,-114.851413,35.9772617,caravan_site,Canyon Trail RV Park,Boulder City,Nevada
yes,-123.9575323,45.9030367,guest_house,Ecola Creek Lodge,Cannon Beach,Oregon
yes,-72.555784,42.88728,hotel,Comfort Inn & Suites,Brattleboro,Vermont
yes,-75.7369954,41.3312129,hotel,Best Western Plus Wilkes Barre-Scranton Airport Hotel,Pittston,Pennsylvania
yes,-73.8786652,40.9732087,hotel,Residence Inn,Yonkers,New York
yes,-88.8688045,41.7506709,camp_site,Shabbona Lake State Park Campground,,Illinois
yes,-71.1235662,42.4999617,hotel,Hampton Inn,Woburn,Massachusetts
yes,-80.8630131,35.3996881,hotel,SpringHill Suites,Huntersville,North Carolina
yes,-110.1626726,38.9958457,hotel,River Rock Inn,Green River,Utah
yes,-90.3212357,29.468328,hotel,Candlewood Suites Cut Off - Galliano,,Louisiana
yes,-73.9984935,40.7531602,hotel,Pendry Manhattan West,New York,New York
yes,-97.7379654,30.2588486,hotel,Fairfield Inn & Suites Austin Downtown,Austin,Texas
yes,-96.9799487,33.0185192,hotel,Home2 Suites by Hilton Lewisville Dallas,Lewisville,Texas
yes,-83.1327085,42.6244536,hotel,Fairfield by Marriott Inn & Suites Rochester Hills,Rochester Hills,Michigan
yes,-99.89551,40.2995732,caravan_site,Arapahoe South RV Park,,Nebraska
yes,-86.6911653,36.1551566,hotel,La Quinta Inn & Suites,Nashville,Tennessee
yes,-84.6565858,42.7438165,hotel,Quality Inn & Suites,Lansing,Michigan
yes,-84.6553221,42.7441077,hotel,Residence Inn,Lansing,Michigan
yes,-84.6555254,42.7431148,hotel,Fairfield Inn & Suites,Lansing,Michigan
yes,-77.0295964,35.1358478,camp_site,New Bern KOA,New Bern,North Carolina
yes,-81.5488826,30.7728975,caravan_site,Eagle Hammock RV Park,Kings Bay,Georgia
yes,-96.0168118,41.2399052,hotel,Hilton Garden Inn Omaha Aksarben Village,Omaha,Nebraska
yes,-122.4095565,37.7864902,hostel,Hi Hostel Downtown,,California
limited,-112.629536,37.2773626,apartment,East Zion Resort,Orderville,Utah
yes,-73.8575303,41.0498038,hotel,Tarrytown House Estate on The Hudson,Tarrytown,New York
yes,-83.2076323,35.7536475,camp_site,Cosby Campground,,Tennessee
yes,-83.1746293,35.565439,camp_site,Balsam Mountain Campground,,North Carolina
yes,-77.6368688,39.930568,hotel,Tru by Hilton Chambersburg,Chambersburg,Pennsylvania
yes,-104.5249765,33.4203097,hotel,Holiday Inn Express Roswell,Roswell,New Mexico
yes,-74.2374853,39.9700438,hotel,Clarion Hotel and conference center,Toms River,New Jersey
yes,-74.7076455,40.1216704,hotel,Hampton Inn Bordentown,Bordentown,New Jersey
yes,-74.101405,40.9049806,hotel,Marriott Saddle Brook,Saddle Brook,New Jersey
yes,-74.2210567,40.0454896,hotel,Ramada,,New Jersey
yes,-151.6412542,59.6574962,caravan_site,Homer/Baycrest KOA Holiday,Homer,Alaska
limited,-157.8231507,21.278746,hotel,Wayfinder Waikiki,Honolulu,Hawaii
yes,-157.8288494,21.2773458,hotel,Royal Hawaiian Hotel,Honolulu,Hawaii
yes,-78.7619938,39.6471696,hotel,Fairfield Inn & Suites,Cumberland,Maryland
yes,-157.8305743,21.2776158,hotel,Sheraton Waikiki,Honolulu,Hawaii
yes,-157.8302855,21.2800719,hotel,Hokulani Waikiki,Honolulu,Hawaii
yes,-123.0413365,44.9397797,hotel,"Holman Riverfront Park Hotel Salem, Tapestry Collection by Hilton",Salem,Oregon
yes,-84.0036633,33.6563772,hotel,Country Inn & Suites,Conyers,Georgia
yes,-80.8525742,35.0536932,hotel,AC Hotel Charlotte Ballantyne,Charlotte,North Carolina
yes,-90.1544076,30.000751,hotel,"Country Inn & Suites, Metairie (New Orleans), LA",Metairie,Louisiana
yes,-106.3921637,31.8278476,hotel,Candlewood Suites on Fort Bliss,Fort Bliss,Texas
yes,-110.1119314,36.9821342,hotel,The View Hotel,,Arizona
yes,-90.3773975,38.444342,hotel,Drury Inn & Suites,Arnold,Missouri
yes,-71.1057232,42.3833586,hotel,Cambria Boston Somerville,Somerville,Massachusetts
yes,-122.5178012,47.6361721,hotel,Best Western Plus Bainbridge Island Suites,Bainbridge Island,Washington
yes,-96.6216008,40.7716338,hotel,Candlewood Suites Lincoln,Lincoln,Nebraska
yes,-117.2667096,34.0677123,hotel,Homewood Suites by Hilton San Bernardino,San Bernardino,California
yes,-73.6529006,41.9787199,hotel,The Inn at Pine Plains,Pine Plains,New York
limited,-115.2826631,36.0639084,hotel,Durango Resort,Las Vegas,Nevada
yes,-116.5406877,48.2396977,hotel,The Lodge at Sandpoint,Sagle,Idaho
yes,-105.6077875,36.1884949,camp_site,Amole Canyon Group Shelter,,New Mexico
yes,-96.9545159,30.1831687,caravan_site,Giddings RV Park,Giddings,Texas
yes,-115.6824346,44.0640159,camp_site,Pine Flats Campground,,Idaho
yes,-86.6719419,34.7183637,hotel,"Element Huntsville, a Marriott Hotel",Huntsville,Alabama
yes,-97.8658698,30.7011223,caravan_site,Juniper Ridge RV Village,Liberty Hill,Texas
yes,-116.0854824,43.7824871,camp_site,Shafer Butte Campground,,Idaho
yes,-81.446515,41.5404912,hotel,Holiday Inn,,Ohio
yes,-122.308432,41.3033525,hotel,Shasta Inn,Mount Shasta,California
yes,-75.6210056,41.064532,hotel,Split Rock Resort,Lake Harmony,Pennsylvania
limited,-92.5884979,40.8176317,camp_site,Lake Wapello State Park Campground,,Iowa
yes,-122.1404799,38.2196024,hotel,Residence Inn Fairfield Napa,Fairfield,California
yes,-83.6924288,45.9861764,camp_site,"Trailhead Restaurant, Bar & Campground",Drummond Island,Michigan
yes,-81.467847,28.4481089,hotel,Wyndham Orlando Resort International Drive,Orlando,Florida
yes,-120.8566439,35.3808543,hotel,Hampton Inn Morro Bay,Morro Bay,California
yes,-86.9235984,35.8898345,hotel,Southall Farm & Inn,Franklin,Tennessee
yes,-83.4212838,42.412236,hotel,"Holiday Inn Detroit Northwest - Livonia, an IHG Hotel",Livonia,Michigan
yes,-122.3096772,47.8217997,hotel,Hotel International,,Washington
yes,-96.6918201,40.8334232,hotel,"The Scarlet, Lincoln, a Tribute Portfolio Hotel",Lincoln,Nebraska
yes,-82.087003,41.4254716,hotel,Homewood Suites,Sheffield,Ohio
yes,-86.0063745,39.8564326,hotel,Tru by Hilton Indianapolis-Lawrence,Indianapolis,Indiana
yes,-97.5384505,30.3468338,hotel,Holiday Inn Express & Suites,Manor,Texas
yes,-82.5127739,27.962494,hotel,Hilton Tampa Airport Westshore Hotel,Tampa,Florida
limited,-73.1686424,43.0738965,guest_house,West Mountain Inn,,Vermont
yes,-82.5185508,27.9515623,hotel,Four Points by Sheraton Suites Tampa Airport Westshore,Tampa,Florida
yes,-72.9384496,43.635734,hotel,Best Westen,Rutland,Vermont
yes,-82.5260147,27.9573682,hotel,Hyatt Place Tampa Westshore,Tampa,Florida
yes,-134.4064493,58.3012874,hotel,BW Signature Collection,Juneau,Alaska
yes,-106.0463847,39.4754263,hotel,Marriott's Mountain Valley Lodge at Breckenridge,Breckenridge,Colorado
yes,-90.9369774,44.9528608,hotel,AmeriVu Inn and Suites,Stanley,Wisconsin
yes,-97.6772446,30.6562218,hotel,Candlewood Suites,Georgetown,Texas
yes,-112.5313409,45.9936639,caravan_site,"Deluxe Patio, Full Hookup Pull-Through 50/30AMP",,Montana
yes,-119.720288,36.7634721,hotel,Hampton by Hilton,Fresno,California
yes,-97.588122,31.7955903,hotel,Velkommen Inn,Clifton,Texas
yes,-97.7160632,31.422551,hotel,Holiday Inn Express & Suites Gatesville - North Fort Hood,Gatesville,Texas
yes,-110.9474303,31.365823,hotel,Best Weetern Sonora Inn and Suites,Nogales,Arizona
limited,-88.93254,39.8467064,hotel,Soy City Motel,,Illinois
limited,-110.6806489,47.8052672,camp_site,Chouteau County Canoe Launch Campground,,Montana
yes,-119.0913449,35.3575281,hotel,Hyatt Place Bakersfield,Bakersfield,California
yes,-110.6811311,47.8084283,camp_site,D & S RV Park,Fort Benton,Montana
yes,-76.4269144,40.3302023,hotel,Days Inn - Lebanon / Hershey,Lebanon,Pennsylvania
limited,-110.4932594,47.9114072,camp_site,Woods Bottom Recreation Area Parkiing,,Montana
yes,-81.3230888,29.8901201,hotel,Homewood Suites,Saint Augustine,Florida
yes,-114.9112784,35.9729002,hotel,Holiday Inn Express and Suites,Henderson,Nevada
yes,-95.3302907,29.9408058,hotel,Ramada Houston Intercontinental Airport South,Houston,Texas
yes,-73.8795345,40.973174,hotel,Courtyard,Yonkers,New York
yes,-73.8272344,41.0577816,hotel,Hampton Inn,Elmsford,New York
limited,-159.3631923,21.950732,hotel,Kauai Inn,Lihue,Hawaii
yes,-92.342199,34.7428848,hotel,Staybridge Suites,Little Rock,Arkansas
yes,-88.3096775,39.4835339,hotel,Hilton Garden Inn Mattoon,Mattoon,Illinois
yes,-122.4114043,37.7877114,hotel,Post Hotel,San Francisco,California
yes,-97.5633483,31.7331322,guest_house,Clifton Hills,Clifton,Texas
limited,-85.4420746,39.6236905,hotel,Quality Inn & Suites Near Amish Country,Rushville,Indiana
yes,-80.6058039,24.9427183,hotel,"Three Waters Resort and Marina, Islamorada, a Tribute Portfolio Resort",Islamorada,Florida
yes,-118.4124322,34.1573251,hotel,Hotel Mariposa,,California
yes,-73.9821086,40.5840421,hotel,Best Western,Brooklyn,New York
yes,-122.4031981,37.7931216,hotel,Omni San Francisco Hotel,San Francisco,California
yes,-122.6680466,38.2716807,hotel,Home2 Suites,Petaluma,California
yes,-120.1556824,47.8806458,hotel,Wapato Point Resort,Manson,Washington
yes,-118.3495427,34.2054317,hotel,Cambria,Burbank,California
yes,-81.462648,28.4178008,hotel,DoubleTree by Hilton Hotel Orlando at SeaWorld,Orlando,Florida
yes,-81.465326,28.4184855,hotel,DoubleTree by Hilton Hotel Orlando at SeaWorld,Orlando,Florida
yes,-73.1134483,42.6989647,hotel,Hotel Downstreet,,Massachusetts
yes,-94.8390285,36.559989,hotel,Shangri-La Resort,Monkey Island,Oklahoma
yes,-87.6251165,41.8725082,hotel,Chicago Hilton & Towers,Chicago,Illinois
limited,-131.8145313,55.4735283,hotel,Clover Pass Resort,Ketchikan,Alaska
limited,-80.915757,36.6960073,camp_site,Cliffview Campground,,Virginia
yes,-97.0851937,32.750846,hotel,Loews Arlington Hotel and Convention Center,Arlington,Texas
yes,-117.3376633,34.4791075,hotel,Hilton Garden Inn Victorville,Victorville,California
yes,-71.0503163,42.3566602,hotel,Boston Harbor Hotel,Boston,Massachusetts
yes,-89.738057,43.2713704,hotel,Cedarberry Inn,,Wisconsin
limited,-92.3109539,43.9950385,camp_site,Chester Woods County Park Campground,Eyota,Minnesota
yes,-117.9227207,33.8069162,hotel,The Villas at Disney's Grand Californian Hotel,,California
yes,-155.997662,19.6403621,hotel,Courtyard King Kamehameha's Kona Beach Hotel,,Hawaii
yes,-157.834206,21.2857719,hotel,Doubletree Alana Waikiki Hotel,,Hawaii
limited,-79.5532035,35.3423166,camp_site,Camp Durant,,North Carolina
yes,-71.0809307,42.3457259,hotel,The Colonnade Hotel,Boston,Massachusetts
yes,-121.8270648,36.8838542,camp_site,South Camp,,California
yes,-156.6919385,20.9311369,hotel,Royal Lahaina Resort & Bungalows,Lahaina,Hawaii
yes,-112.447124,34.5510522,hotel,Prescott Resort and Conference Center,,Arizona
yes,-73.9722071,40.7932576,hotel,Night Hotel,New York,New York
yes,-93.2476609,44.973794,hotel,Courtyard Minneapolis Downtown,Minneapolis,Minnesota
yes,-84.3293798,37.3839473,hostel,National Heritage Inn & Suites,Mt. Vernon,Kentucky
limited,-122.7557108,48.1159373,hotel,Bishop Victorian Hotel,Port Townsend,Washington
yes,-92.9144616,42.0050689,hotel,Hampton Inn & Suites,Marshalltown,Iowa
yes,-93.6831479,42.0107009,hotel,Hilton Garden Inn,Ames,Iowa
yes,-155.99039,19.632117,hotel,Royal Kona Resort,Kailua-Kona,Hawaii
limited,-121.831094,36.889095,caravan_site,Sunset State Beach,,California
yes,-84.3875018,33.7830897,hotel,Residence Inn Atlanta Midtown/Georgia Tech,Atlanta,Georgia
yes,-90.0641455,29.9554237,hotel,The French Market Inn,New Orleans,Louisiana
yes,-122.334925,47.6243549,hotel,Staybridge Suites - South Lake Union,Seattle,Washington
yes,-88.766861,41.9354359,hotel,Holmes Student Center Hotel,,Illinois
yes,-71.0633625,42.3511012,hostel,HI Boston,,Massachusetts
yes,-122.3451331,47.6146675,hotel,Belltown Inn,Seattle,Washington
yes,-77.6753326,43.2047032,hotel,Fairfield Inn & Suites Rochester West/Greece,Rochester,New York
yes,-80.07586,40.6841295,hotel,Hilton Garden Inn,Cranberry Twp,Pennsylvania
yes,-97.595526,33.345089,camp_site,Black Creek Lake,,Texas
yes,-71.0887471,42.3486873,hotel,The Eliot Hotel,Boston,Massachusetts
yes,-84.3902501,33.7818043,hotel,Homewood Suites by Hilton Atlanta Midtown,Atlanta,Georgia
yes,-84.3829548,33.7814868,hotel,Hyatt Centric Midtown Atlanta,Atlanta,Georgia
yes,-84.390334,33.7821102,hotel,Hilton Garden Inn Atlanta Midtown,Atlanta,Georgia
yes,-73.9580608,40.7219036,hotel,Wythe Hotel,Brooklyn,New York
yes,-91.4651294,47.1369725,camp_site,Nestor Grade Group Camp,,Minnesota
yes,-94.1103514,46.6698515,camp_site,US Army Corps of Engineers Campground,,Minnesota
yes,-122.4891249,48.3911554,hotel,Wild Iris Inn,La Conner,Washington
yes,-73.4065456,41.4173873,hotel,La Quinta Inn & Suites Danbury,,Connecticut
yes,-122.4411813,37.8612397,camp_site,Site 10,,California
yes,-88.0929198,41.7289047,camp_site,9,,Illinois
yes,-77.0489781,42.3054027,guest_house,Finger Lakes Guesthouse and Vacation Rental,Beaver Dams,New York
limited,-76.84485,42.3473343,guest_house,Montour Falls Hotel and Vacation Rental,Montour Falls,New York
yes,-75.5479336,39.7466072,hotel,HOTEL DU PONT,Wilmington,Delaware
yes,-89.6082534,39.7572274,hotel,Country Inn & Suites,Springfield,Illinois
yes,-117.1597605,32.7113277,hostel,Hostelling International San Diego,San Diego,California
limited,-66.113338,18.4654597,hotel,Hotel Casablanca,,Puerto Rico
yes,-86.1115479,39.6110444,guest_house,Barnes and Noble,Greenwood,Indiana
limited,-116.744762,33.837199,camp_site,Black Mountain Yellow Post #4,,California
limited,-116.74517,33.837663,camp_site,Black Mountain Yellow Post #5,,California
yes,-85.0155013,45.36903,hotel,Inn at Bay Harbor,Bay Harbor,Michigan
yes,-123.1942202,45.2101923,hotel,Hotel Oregon,McMinnville,Oregon
yes,-73.9774764,40.7646529,hotel,The Quin,New York,New York
limited,-73.9855082,40.7522336,hotel,Americana Inn,,New York
yes,-73.9718919,40.7495001,hotel,Westgate New York Grand Central Hotel,New York,New York
yes,-73.9796281,40.7498595,hotel,70 Park Avenue Hotel,New York,New York
limited,-66.1151476,18.4670826,hotel,La Terraza,,Puerto Rico
yes,-84.3859045,33.7864361,hotel,AC Hotel by Marriott Atlanta Midtown,Atlanta,Georgia
limited,-73.9722622,40.7935439,hotel,The Hotel Newton,New York,New York
yes,-89.0104913,43.7895791,camp_site,Camp Grow,Markesan,Wisconsin
yes,-122.1565366,37.9404981,camp_site,Maud Whalen,,California
yes,-123.3246215,38.5690994,camp_site,Gerstle Cove,,California
yes,-71.0708438,42.346057,hotel,The Revolution Hotel,Boston,Massachusetts
yes,-74.0078925,40.7050392,hotel,Hyatt Centric,New York,New York
yes,-74.0061997,40.7051879,hotel,Eurostars Wall Street Hotel,New York,New York
yes,-74.0050486,40.70598,hotel,Fairfield Inn New York Manhattan/Financial District,New York,New York
yes,-74.0014177,40.7080083,hotel,"33 Hotel, New York City, Seaport",New York,New York
yes,-73.9406498,40.7441797,hotel,Feather Factory Hotel,Long Island City,New York
yes,-89.8583061,35.1006591,hotel,Residence Inn Memphis East,Memphis,Tennessee
yes,-76.829634,40.841658,hotel,Hampton Inn Selinsgrove/ Shamokin Dam,Shamokin Dam,Pennsylvania
yes,-86.3570617,43.2619637,caravan_site,Muskegon-Lake Michigan,,Michigan
yes,-73.9810928,40.7528315,hotel,Andaz,New York,New York
yes,-116.186764,44.3351178,camp_site,Antelope Campground,,Idaho
yes,-89.4076891,43.0716461,hotel,Wisconsin Union Hotel,,Wisconsin
yes,-72.545875,42.361222,hotel,Holiday Inn Express & Suites,,Massachusetts
limited,-109.8624085,37.1477144,hotel,Hat Rock Inn,Mexican Hat,Utah
yes,-73.8327073,40.7615481,hotel,Ramada Flushing,Flushing,New York
yes,-111.8933443,33.2900732,hotel,Courtyard Phoenix Chandler/Fashion Center,Chandler,Arizona
yes,-111.893128,33.2895973,hotel,Fairfield Inn & Suites Phoenix Chandler/Fashion Center,Chandler,Arizona
yes,-66.6537897,18.4463231,hotel,Arecibo Inn,Arecibo,Puerto Rico
yes,-84.3662224,33.8478881,hotel,"Hotel Colee, Atlanta Buckhead, Autograph Collection",Atlanta,Georgia
yes,-83.2729486,30.8276346,guest_house,"Scott & Robert's Mortuary, Inc.",Valdosta,Georgia
yes,-83.3037365,30.8470234,guest_house,Relish,Valdosta,Georgia
yes,-96.7093385,40.8173533,hotel,Courtyard Lincoln Downtown/Haymarket,Lincoln,Nebraska
yes,-114.6047935,32.6978718,hotel,La Fuente Inn & Suites,,Arizona
yes,-106.702453,42.5663461,camp_site,Gray Reef Dam Campground,,Wyoming
yes,-122.4055,37.7852861,hotel,Hotel Zelos San Francisco,San Francisco,California
yes,-73.8345885,40.758372,hotel,The Parc Hotel,New York,New York
yes,-122.401381,37.7860572,hotel,The St. Regis San Francisco,San Francisco,California
yes,-122.8143588,39.0159711,camp_site,Hike Bike Campground,,California
yes,-86.1744584,37.9841294,hotel,americas best value inn,brandenburg,Kentucky
yes,-77.1234637,39.0599992,hotel,"EVEN Hotel Rockville - Washington, D.C. Area",Rockville,Maryland
yes,-122.508837,38.4380763,camp_site,Group Camp,,California
limited,-86.4630085,36.3258622,camp_site,Site 1,,Tennessee
limited,-86.4612406,36.3279352,camp_site,Site 10,,Tennessee
limited,-86.4615216,36.3275776,camp_site,Site 11,,Tennessee
limited,-86.4607088,36.3266776,camp_site,Site 12,,Tennessee
limited,-86.4600824,36.3281047,camp_site,Site 13,,Tennessee
limited,-86.4615592,36.3260458,camp_site,Site 14,,Tennessee
limited,-86.4597879,36.325873,camp_site,Site 15,,Tennessee
limited,-86.4594963,36.3256277,camp_site,Site 16,,Tennessee
limited,-86.4631976,36.3274314,camp_site,Site 17,,Tennessee
limited,-86.4604646,36.3281095,camp_site,Site 18,,Tennessee
limited,-86.4622982,36.3261805,camp_site,Site 19,,Tennessee
limited,-86.4637475,36.3262374,camp_site,Site 2,,Tennessee
limited,-86.4636215,36.3255602,camp_site,Site 3,,Tennessee
limited,-86.4641856,36.3254747,camp_site,Site 4,,Tennessee
limited,-86.4644282,36.3259511,camp_site,Site 5,,Tennessee
limited,-86.4650654,36.3261656,camp_site,Site 6,,Tennessee
limited,-86.4641802,36.3268325,camp_site,Site 7,,Tennessee
limited,-86.4622726,36.3278622,camp_site,Site 8,,Tennessee
limited,-86.4616609,36.3279888,camp_site,Site 9,,Tennessee
yes,-73.9744245,40.753146,hotel,Club Quarters Hotel,New York,New York
yes,-73.5971352,40.7396906,guest_house,P Building,,New York
yes,-119.91755,37.9870573,camp_site,Cherry Valley Campground,,California
limited,-111.008888,47.1011124,camp_site,Logging Creek Campground,,Montana
limited,-121.698131,48.9046657,camp_site,Silver Fir Campground,,Washington
yes,-88.7168236,34.2719267,hotel,Candlewood Suites Tupelo North,Tupelo,Mississippi
yes,-88.716293,34.2711939,hotel,Holiday Inn Hotel & Suites Tupelo North,Tupelo,Mississippi
yes,-81.6876063,41.4981743,hotel,Hotel Indigo Cleveland Downtown,Cleveland,Ohio
limited,-80.836907,35.6355052,camp_site,Shepherds Field,,North Carolina
yes,-73.9694314,40.7505535,hotel,Millennium Hilton One UN Plaza,New York,New York
yes,-73.993848,40.7435189,hotel,The Townhouse Inn of Chelsea,New York,New York
yes,-84.599795,33.769839,hotel,Hilton Garden Inn,Lithia Springs,Georgia
yes,-78.9069932,35.9952316,guest_house,Whetstone Apartments,,North Carolina
yes,-69.8371888,44.2878262,hotel,Maple Hill Farm Inn and Conference Center,Hallowell,Maine
yes,-73.9845337,40.6966011,hotel,The Tillary Hotel,,New York
yes,-73.9855322,40.7445115,hotel,The James,New York,New York
yes,-122.8907355,45.7636194,guest_house,john,Scappoose,Oregon
yes,-83.5655196,35.7974254,hotel,Holiday Inn & Suites,Pigeon Forge,Tennessee
yes,-83.6330236,33.5794213,camp_site,Camp Twin Lakes,Rutledge,Georgia
yes,-89.6007518,39.8331115,hotel,Northfield Inn & Suites,Springfield,Illinois
yes,-116.949956,44.0228485,hotel,Holiday Inn Express Hotel & Suites Ontario,,Oregon
yes,-71.712715,44.1808094,hotel,Mittersill Alpine Resort,,New Hampshire
yes,-110.764836,43.4815199,hotel,White Buffalo Club,Jackson,Wyoming
yes,-91.4055335,31.5623994,hotel,Natchez Grand Hotel,,Mississippi
yes,-70.6082195,41.5598273,hotel,Holiday Inn,,Massachusetts
yes,-112.046227,33.5480228,hotel,Hilton Phoenix Resort at the Peak,Phoenix,Arizona
yes,-111.923266,33.4144178,hotel,Holiday Inn Express & Suites Phoenix Tempe University,,Arizona
yes,-111.921066,33.5008181,hotel,Aloft Scottsdale,Scottsdale,Arizona
yes,-111.925159,33.4846394,hotel,Holiday Inn Express Hotel and Suites Scottsdale - Old Town,Scottsdale,Arizona
yes,-73.2530379,42.4528458,hotel,Hotel on North,,Massachusetts
yes,-73.2551822,42.4478408,hotel,Holiday Inn & Suites Pittsfield,,Massachusetts
yes,-111.815958,34.8608952,hotel,Sedona Real Inn and Suites,Sedona,Arizona
yes,-113.0014422,37.1876727,hotel,Zion Canyon Lodge,Springdale,Utah
yes,-111.799137,34.8641617,hotel,The Wilde Resort and Spa,Sedona,Arizona
yes,-84.3878522,33.7701413,hotel,Staybridge Suites Atlanta - Midtown,Atlanta,Georgia
yes,-84.3845518,33.7739315,hotel,National at Westchester,,Georgia
yes,-87.6298273,41.8895221,hotel,Residence Inn Chicago Downtown/River North,Chicago,Illinois
yes,-73.9849798,40.7615295,hotel,citizenM,,New York
limited,-156.4485789,20.7329881,guest_house,Anapa Place Inn,Kihei,Hawaii
yes,-66.0552371,18.4032433,hotel,Dreams Hotel,,Puerto Rico
yes,-157.8396374,21.285567,hotel,Ilikai Marina Condos,,Hawaii
yes,-77.1501787,39.0844898,hotel,Cambria Hotel Rockville,Rockville,Maryland
limited,-121.1824628,43.3565493,caravan_site,Rockhorse Park at Horse Ranch,Fort Rock,Oregon
yes,-122.319418,46.0949389,camp_site,2-A,,Washington
yes,-122.3192265,46.0948112,camp_site,2-B,,Washington
yes,-158.125741,21.3392955,hotel,Four Seasons O'ahu at Ko Olina,Kapolei,Hawaii
yes,-73.9826989,40.7643419,hotel,Residence Inn New York Manhattan / Central Park,New York,New York
yes,-123.711511,48.159359,caravan_site,Crescent Bearch RV,,Washington
limited,-74.8046556,38.9901719,hotel,Hammock Inn & Suites Boardwalk Wildwood,North Wildwood,New Jersey
yes,-94.5843779,39.0951453,hotel,Courtyard Kansas City Downtown/Convention Center,Kansas City,Missouri
yes,-94.58439,39.0948694,hotel,Residence Inn Kansas City Downtown/Convention Center,Kansas City,Missouri
yes,-79.0165226,35.9479454,hotel,Walden at Greenfields,,North Carolina
yes,-92.1445415,47.3361452,camp_site,Whiteface Reservoir Recreation Area,Makinen,Minnesota
limited,-120.539938,38.0079448,camp_site,Glory Recreation Area,,California
limited,-86.1869767,42.7608281,guest_house,Cottonwood Inn,,Michigan
yes,-118.324969,33.3430604,hotel,Pavillon Hotel,Avalon,California
yes,-81.930245,26.6272295,guest_house,Villa Bonaire,,Florida
limited,-72.5577709,42.8513345,hotel,Latchis Hotel,Brattleboro,Vermont
yes,-143.5443983,63.3755457,camp_site,Moon Lake State Recreation Site,,Alaska
yes,-145.8396948,64.1971245,caravan_site,Lost Lake Trail Campground,,Alaska
yes,-73.9834058,40.7656693,hostel,Jazz on Columbus Circle Hostel,New York,New York
yes,-94.7183073,38.9281427,hotel,Hawthorn Suites by Wyndham Overland Park,,Kansas
yes,-97.2062739,37.705279,hotel,Springhill Suites By Marriott Wichita East at Plazzio,Wichita,Kansas
yes,-74.0043561,40.7220039,hotel,Soho Grand Hotel,New York,New York
yes,-113.000858,37.1844237,hotel,SpringHill Suites,Springdale,Utah
limited,-111.8866884,40.7690542,hotel,Carlton,,Utah
yes,-84.7272499,45.7729908,hotel,Bayside Hotel of Mackinac,,Michigan
yes,-122.200556,47.6150584,hotel,W Bellevue,,Washington
yes,-105.001988,39.7531873,hotel,Limelight Hotel,Denver,Colorado
yes,-74.8290872,38.9741226,hotel,Nassau Inn,,New Jersey
yes,-88.5706358,39.1188562,hotel,Baymont Effingham,Effingham,Illinois
limited,-113.528183,47.9263621,camp_site,Spotted Bear Campground,,Montana
yes,-158.1223947,21.3306119,hotel,MARIOTTE koorina resort HOTEL,,Hawaii
yes,-115.0749988,43.6053305,camp_site,Baumgartner Campground,,Idaho
yes,-84.2776684,33.5486301,hotel,Holiday Inn and Suites,,Georgia
yes,-124.1139298,48.0660868,camp_site,Klahowya Campground,,Washington
yes,-152.4964464,57.7562194,caravan_site,Buskin River Campground,,Alaska
yes,-73.9858447,40.7528306,hotel,Residence Inn Manhattan/Times Square,New York,New York
limited,-118.6695277,48.7489716,caravan_site,Tiffany's Resort,Republic,Washington
yes,-81.0251184,34.0010916,hotel,"Graduate Columbia, S.C.",Columbia,South Carolina
yes,-73.9632598,40.7753172,hotel,The Mark,New York,New York
yes,-122.5277635,43.7571382,caravan_site,Casey’s Riverside RV Park,,Oregon
yes,-96.9841801,33.0112755,apartment,Rockbrook Village,,Texas
yes,-145.8283246,64.1968847,camp_site,Quartz Lake Campground,,Alaska
yes,-86.1676936,39.7665854,hotel,JW Marriott Indianapolis,Indianapolis,Indiana
yes,-86.1682085,39.7667998,hotel,Fairfield Inn & Suites Indianapolis Downtown,Indianapolis,Indiana
yes,-85.0188031,41.1151512,apartment,Maysville Landing Apartments,Fort Wayne,Indiana
yes,-122.334673,47.624112,hotel,EVEN Hotel Seattle - South Lake Union,Seattle,Washington
yes,-87.643003,41.8837478,hotel,Hampton Inn Chicago Downtown West Loop,Chicago,Illinois
yes,-81.376542,28.5478637,hotel,Home2 Suites,Orlando,Florida
yes,-94.9167093,39.3111515,guest_house,Union Park Guest House,Leavenworth,Kansas
limited,-80.1203218,25.834754,hotel,New Point,,Florida
limited,-80.1202977,25.834445,hotel,Design Suites,,Florida
limited,-68.4236357,44.5461639,hotel,The Sanctuary B&B,Ellsworth,Maine
yes,-73.9986434,40.7249122,hotel,Mercer Hotel,New York,New York
yes,-93.2778937,44.9710301,hotel,Hyatt Regency Minneapolis,Minneapolis,Minnesota
yes,-74.0064548,40.7074576,hotel,Four Points by Sheraton,,New York
yes,-84.5447526,34.6877559,hotel,River House On Fir,Ellijay,Georgia
yes,-92.8731996,40.7339836,hotel,The Continental Hotel,Centerville,Iowa
yes,-74.0042677,40.7208594,hotel,Sheraton,,New York
yes,-71.3097115,41.4874993,hotel,Hotel Viking,Newport,Rhode Island
yes,-71.0476885,42.350433,hotel,Residence Inn,Boston,Massachusetts
yes,-71.1004939,42.3457576,hotel,Residence Inn,Boston,Massachusetts
yes,-73.9631097,40.7643867,hotel,The Gardens Sonesta ES Suites,New York,New York
yes,-73.9708905,40.7561485,hotel,The Fifty Sonesta Select,New York,New York
yes,-73.9780562,40.7484427,hotel,The Shelburne Sonesta,New York,New York
limited,-79.9043407,32.7860186,hotel,The Cottages on Charleston Harbor,Mt Pleasant,South Carolina
yes,-85.5883984,42.9706298,hotel,Country Inn & Suites,Grand Rapids,Michigan
yes,-122.341884,47.6143781,hotel,The Sound Hotel Seattle Belltown,Seattle,Washington
yes,-74.0136192,40.7082719,hotel,Courtyard New York Downtown Manhattan/World Trade Center Area,New York,New York
yes,-84.3858924,33.7858253,hotel,Moxy,Atlanta,Georgia
limited,-84.6138251,35.5039775,hostel,Athens Lodge,Athens,Tennessee
yes,-122.8088623,39.0186783,camp_site,Kelsey Creek Campground,,California
yes,-122.8101929,39.0124208,camp_site,Upper Bayview Campground,,California
yes,-122.8140713,39.0153496,camp_site,Cole Creek Campground,,California
yes,-75.1580839,39.958174,apartment,Goldtex,,Pennsylvania
yes,-105.6357264,39.9953907,camp_site,Site 5,,Colorado
yes,-105.6355679,39.9951562,camp_site,Site 4,,Colorado
yes,-105.6352751,39.9949411,camp_site,Site 3,,Colorado
yes,-105.6346079,39.9943807,camp_site,Site 2,,Colorado
yes,-105.6339878,39.9937479,camp_site,Site 1,,Colorado
yes,-73.9812639,40.7559916,hotel,Club Quarter Hôtel,,New York
yes,-73.9812965,40.7571139,hotel,The Hotel @ Times Square,,New York
yes,-121.8296564,36.8882557,camp_site,Pine Hollow Camp,,California
yes,-121.8283528,36.8866554,camp_site,Group Camp,,California
yes,-121.8311235,36.8903913,camp_site,Dunes Camp,,California
yes,-73.9829743,40.7524506,hotel,Park Terrace Hotel,,New York
yes,-116.5803727,32.9074868,camp_site,12,,California
yes,-116.5809365,32.9070457,camp_site,13,,California
yes,-74.4269744,40.7798885,hotel,Archer Hotel,Florham Park,New Jersey
yes,-123.158935,47.3624103,camp_site,Potlach State Park Campground,Shelton,Washington
yes,-91.4720455,46.0061247,hotel,Holiday Inn Express,Hayward,Wisconsin
yes,-90.6407812,42.5217587,camp_site,Miller Riverview Park & Campground,Dubuque,Iowa
limited,-89.8106332,32.3310095,caravan_site,Yogi On The Lake Jellystone Park,Pelahatchie,Mississippi
yes,-86.6778112,34.7096274,hotel,"Home2 Suites by Hilton Huntsville/Research Park Area, AL",Huntsville,Alabama
yes,-124.090612,40.9028176,hotel,Ramada,,California
yes,-84.3446249,33.9175588,hotel,Atlanta Marriott Perimeter Center,Atlanta,Georgia
yes,-93.0904359,48.5997923,camp_site,Sunrise Point,,Minnesota
yes,-82.5029163,27.9529249,hotel,Element,Tampa,Florida
yes,-84.5435153,42.7332227,hotel,Courtyard Lansing Downtown,Lansing,Michigan
yes,-82.6188541,41.3272587,hotel,Country Inn & Suites,Milan,Ohio
yes,-121.904274,47.3197588,camp_site,Kanaskat-Palmer State Park Campground,,Washington
yes,-84.3878464,33.7602521,hotel,Hotel Indigo Atlanta Downtown,,Georgia
yes,-105.6200522,40.7701445,camp_site,Bellaire Lake Campground,,Colorado
yes,-118.265659,34.0459839,hotel,Residence Inn,Los Angeles,California
yes,-82.1776396,41.4683823,hotel,Ariel Broadway Hotel,,Ohio
yes,-73.7673062,41.0328895,hotel,"The Opus Westchester, Autograph Collection",White Plains,New York
yes,-150.004067,61.7035265,camp_site,Nancy Lake Campground,,Alaska
yes,-82.5025933,27.9529324,hotel,Aloft Tampa Midtown,Tampa,Florida
yes,-112.1589315,37.672754,camp_site,Minnie's Park,,Utah
yes,-78.7780105,33.7676942,hotel,Embassy Suites by Hilton Myrtle Beach Oceanfront Resort,Myrtle Beach,South Carolina
yes,-88.6883634,37.1627555,hotel,Motel 6,,Illinois
yes,-159.325769,22.0562599,hotel,Plantation Hale Suites,Kapaa,Hawaii
yes,-74.0403226,40.8870035,apartment,The Current on River,Hackensack,New Jersey
yes,-115.1666672,36.135162,hotel,Las Vegas Hilton at Resorts World,Las Vegas,Nevada
yes,-115.1656573,36.1344816,hotel,Conrad Las Vegas at Resorts World,Las Vegas,Nevada
yes,-115.165916,36.1348091,hotel,Crockfords Las Vegas,Las Vegas,Nevada
yes,-87.6430037,41.8836071,hotel,Homewood Suites,Chicago,Illinois
yes,-86.6781159,34.7091977,hotel,Hampton Inn & Suites Huntsville/Research Park Area,Huntsville,Alabama
limited,-118.387391,34.028025,hotel,The Shay,Culver City,California
yes,-84.097041,35.9151846,hotel,Element Knoxville West,Knoxville,Tennessee
limited,-93.3119001,36.5416083,hotel,Happy Hollow Resort,Blue Eye,Missouri
yes,-88.4776274,43.7574662,hotel,Fairfield Inn & Suites Fond du Lac,Fond du Lac,Wisconsin
yes,-119.005177,34.2143691,hotel,Sonesta Select Camarillo,Camarillo,California
yes,-118.2583016,34.0477069,hotel,Sheraton Grand Los Angeles,Los Angeles,California
yes,-94.5866012,38.9388415,hotel,Sonesta Select Kansas City South Overland Park,Kansas City,Missouri
yes,-117.7000685,40.9825734,hotel,Fairfield,Winnemucca,Nevada
yes,-97.7501892,30.26611,hotel,Austin Proper Hotel,Austin,Texas
yes,-76.77964,39.4054063,hotel,Marriott Owings Mills Metro Centre,Owings Mills,Maryland
yes,-159.348767,21.961611,hotel,The Royal Sonesta Kaua'i Resort Lihue,Lihue,Hawaii
yes,-74.3211372,40.0330396,hotel,Air Force Inn,,New Jersey
limited,-74.9580739,43.7182359,camp_site,Old Forge Camping Resort,Old Forge,New York
limited,-120.6656624,35.2864723,hotel,Heritage Inn Bed & Breakfast,San Luis Obispo,California
yes,-79.9402969,32.793115,hotel,Hyatt Place Charleston/Historic District,Charleston,South Carolina
limited,-107.5341486,37.4057798,hotel,Elk Point Lodge,Bayfield,Colorado
yes,-86.5900205,34.7291656,hotel,Hampton Inn & Suites,Huntsville,Alabama
yes,-91.4109835,31.5532893,hotel,Magnolia Bluff Hotel & Casino,,Mississippi
yes,-118.25513,34.0465524,hotel,Los Angeles Athletic Club,Los Angeles,California
yes,-72.939532,41.3068135,hotel,Cambria Hotel,New Haven,Connecticut
yes,-109.742508,38.4840577,caravan_site,Site 30,,Utah
yes,-109.741062,38.4829106,camp_site,Site 49,,Utah
yes,-109.7412464,38.4826996,caravan_site,Site 51,,Utah
limited,-116.55084,33.8214817,hotel,Andalusian Court,,California
yes,-77.1168761,39.0507822,hotel,Canopy by Hilton Washington DC Bethesda North,North Bethesda,Maryland
yes,-150.107973,62.3270942,camp_site,Talkeetna Boat Launch And Campground,Talkeetna,Alaska
yes,-95.3993868,29.6994595,hotel,Blossom Hotel Houston,Houston,Texas
yes,-85.6614154,43.0470465,hotel,Tru,Comstock Park,Michigan
yes,-95.6075077,29.7836192,hotel,Courtyard,Houston,Texas
yes,-82.6858476,27.8406362,hotel,Hampton Inn & Suites,Pinellas Park,Florida
yes,-90.0667297,29.9468193,hotel,Cambria Hotel New Orleans Downtown Warehouse District,New Orleans,Louisiana
yes,-88.4075602,40.7497148,hotel,Hampsher Hotel Bed & Breakfast,Forrest,Illinois
yes,-86.4715701,36.3136647,camp_site,Site 2,,Tennessee
yes,-110.762907,43.4821114,hotel,Cache House,Jackson,Wyoming
limited,-87.2626139,30.4921546,hotel,Palm Court Inn and Suites,Pensacola,Florida
limited,-86.5102117,43.6596529,guest_house,DuneView Resort,Silver Lake,Michigan
yes,-109.5500348,38.5659807,hotel,Radcliffe Hotel,,Utah
limited,-121.933711,36.9796506,camp_site,Hike and Biket Campsite,,California
yes,-82.5543019,35.5943646,hotel,The Restoration Asheville,,North Carolina
yes,-73.9903003,40.7556434,hotel,AC Hotel,New York,New York
yes,-77.0158068,38.7857146,hotel,Hyatt Place National Harbor,Forest Heights,Maryland
yes,-74.0112224,40.7776186,hotel,Residence Inn,Weehawken,New Jersey
yes,-73.9942282,40.7191907,hotel,Moxy,,New York
yes,-97.6673651,30.6330274,guest_house,San Gabriel House Bed & Breakfast,Georgetown,Texas
yes,-82.4767699,40.0522944,hotel,"Cherry Valley Hotel, BW Premier Collection",Newark,Ohio
yes,-98.4647949,29.4428544,guest_house,Bullis House Inn,San Antonio,Texas
limited,-101.5212291,43.8371263,camp_site,Kodako Kampground,,South Dakota
yes,-122.390658,47.2425886,hotel,Extended Stay America - Tacoma/Fife,Fife,Washington
yes,-111.733798,45.3507238,hotel,Red Bear Inn,Ennis,Montana
yes,-73.9936089,40.755668,hotel,Arlo,New York,New York
yes,-97.0270346,32.7034837,hotel,Hilton Garden Inn Grand Prairie at EpicCentral,Grand Prairie,Texas
limited,-105.9175579,35.9634781,camp_site,Site 10,Chimayo,New Mexico
yes,-97.5149789,35.4670643,hotel,Sheraton,Oklahoma City,Oklahoma
limited,-106.0518926,39.4824901,hotel,The Breckenridge Boutique Hotel,,Colorado
yes,-74.0097951,40.709566,hotel,Residence Inn,New York,New York
yes,-76.6976017,37.2690522,hotel,"Colonial Houses, an official Colonial Williamsburg Hotel",Williamsburg,Virginia
yes,-118.457427,33.9744684,hotel,Courtyard By Marriott Marina del Rey,Marina del Rey,California
yes,-71.1138836,42.3710414,hotel,Hotel Veritas,Cambridge,Massachusetts
yes,-111.9036974,33.4285524,hotel,TownePlace Suites Tempe,Tempe,Arizona
yes,-80.6963017,32.4420745,hotel,SpringHill Suites,,South Carolina
yes,-74.0050167,40.7459314,hotel,The High Line Hotel,,New York
yes,-94.9540491,36.3615939,camp_site,Hunters Campground (GMA & PHA),,Oklahoma
yes,-97.5838744,33.3746555,camp_site,TADRA Point Trailhead,,Texas
yes,-84.093064,33.990579,hotel,Westin Atlanta Gwinnett,Duluth,Georgia
yes,-90.3390592,38.6466028,hotel,AC Hotel St. Louis Clayton,Clayton,Missouri
yes,-97.0272934,32.7033307,hotel,Homewood Suites Grand Prairie at EpicCentral,Grand Prairie,Texas
yes,-78.6393725,35.7885599,hotel,Hyatt House Raleigh Downtown Seaboard Station,Raleigh,North Carolina
yes,-118.8253445,34.155017,hotel,Hyatt Regency,,California
yes,-70.2801338,41.6540342,hotel,Comfort Inn,Hyannis,Massachusetts
yes,-82.1821828,36.5960927,hotel,The Bristol Hotel,Bristol,Virginia
yes,-87.6606111,45.0780263,hotel,Holiday Inn Express,Marinette,Wisconsin
limited,-84.4011662,33.7588566,hotel,Signia by Hilton Atlanta Georgia World Congress Center,Atlanta,Georgia
limited,-84.4011662,33.7588566,hotel,Signia by Hilton Atlanta Georgia World Congress Center,Atlanta,Georgia
limited,-122.9606839,38.5061749,hotel,Mine + Farm,,California
